{"version": 0.6, "generator": "Overpass API 0.7.62.5 1bd436f1", "osm3s": {"timestamp_osm_base": "2025-03-23T12:13:35Z", "copyright": "The data included in this document is from www.openstreetmap.org. The data is made available under ODbL."}, "elements": [{"type": "node", "id": 25552373, "lat": 40.4270859, "lon": -3.6707343}, {"type": "node", "id": 25552383, "lat": 40.4246277, "lon": -3.6725972, "tags": {"highway": "traffic_signals"}}, {"type": "node", "id": 25552384, "lat": 40.4245502, "lon": -3.6709258, "tags": {"highway": "traffic_signals"}}, {"type": "node", "id": 150540591, "lat": 40.4256834, "lon": -3.6708416}, {"type": "node", "id": 150540626, "lat": 40.4231473, "lon": -3.6710485}, {"type": "node", "id": 150540627, "lat": 40.4249508, "lon": -3.6708963}, {"type": "node", "id": 150540629, "lat": 40.423814, "lon": -3.6710036}, {"type": "node", "id": 929335626, "lat": 40.4243814, "lon": -3.6709451}, {"type": "node", "id": 1439705001, "lat": 40.4243729, "lon": -3.6697389, "tags": {"bus": "yes", "highway": "bus_stop", "name": "Doctor Esquerdo-Goya", "operator": "EMT Madrid", "public_transport": "platform", "ref": "1254", "source": "https://navegapormadrid.emtmadrid.es/app/"}}, {"type": "node", "id": 1572572855, "lat": 40.4238098, "lon": -3.6709228, "tags": {"crossing": "zebra", "highway": "crossing", "tactile_paving": "yes"}}, {"type": "node", "id": 1572572873, "lat": 40.4244563, "lon": -3.6690368, "tags": {"crossing": "traffic_signals", "crossing:markings": "dots", "highway": "crossing"}}, {"type": "node", "id": 1572572874, "lat": 40.4244518, "lon": -3.6709353, "tags": {"crossing": "zebra", "highway": "crossing"}}, {"type": "node", "id": 1572572882, "lat": 40.4245542, "lon": -3.6710387, "tags": {"crossing": "traffic_signals", "highway": "crossing"}}, {"type": "node", "id": 1572572884, "lat": 40.4246241, "lon": -3.6725171, "tags": {"button_operated": "no", "crossing": "traffic_signals", "highway": "crossing", "tactile_paving": "yes", "traffic_signals:sound": "no", "traffic_signals:vibration": "no"}}, {"type": "node", "id": 1572572885, "lat": 40.42469, "lon": -3.6709138, "tags": {"crossing": "traffic_signals", "highway": "crossing"}}, {"type": "node", "id": 1572572890, "lat": 40.4248372, "lon": -3.6689083, "tags": {"crossing": "traffic_signals", "highway": "crossing", "kerb": "lowered", "tactile_paving": "yes"}}, {"type": "node", "id": 1572572891, "lat": 40.424946, "lon": -3.6708115, "tags": {"crossing": "zebra", "highway": "crossing"}}, {"type": "node", "id": 2262030254, "lat": 40.4244013, "lon": -3.6713172}, {"type": "node", "id": 3274732569, "lat": 40.424488, "lon": -3.6697228, "tags": {"bus": "yes", "public_transport": "stop_position"}}, {"type": "node", "id": 3484776637, "lat": 40.4231847, "lon": -3.6710463, "tags": {"highway": "give_way"}}, {"type": "node", "id": 3484776638, "lat": 40.4232762, "lon": -3.6710417, "tags": {"crossing": "zebra", "highway": "crossing", "tactile_paving": "yes"}}, {"type": "node", "id": 4995784451, "lat": 40.4249484, "lon": -3.670857, "tags": {"highway": "give_way"}}, {"type": "node", "id": 4995784492, "lat": 40.4246567, "lon": -3.6705736}, {"type": "node", "id": 4995784493, "lat": 40.424671, "lon": -3.6708512}, {"type": "node", "id": 4995784494, "lat": 40.4246945, "lon": -3.6710028}, {"type": "node", "id": 4995784495, "lat": 40.4248916, "lon": -3.6708391}, {"type": "node", "id": 4995784496, "lat": 40.4248906, "lon": -3.6708165}, {"type": "node", "id": 4995784497, "lat": 40.4249947, "lon": -3.6708096}, {"type": "node", "id": 4995784499, "lat": 40.4246874, "lon": -3.6708499}, {"type": "node", "id": 4995784500, "lat": 40.4248742, "lon": -3.6706044}, {"type": "node", "id": 5183605341, "lat": 40.4245132, "lon": -3.672546}, {"type": "node", "id": 5183605342, "lat": 40.4245143, "lon": -3.6724919}, {"type": "node", "id": 5183605343, "lat": 40.4244434, "lon": -3.6708485}, {"type": "node", "id": 5183605344, "lat": 40.4246792, "lon": -3.6710577}, {"type": "node", "id": 5222520971, "lat": 40.4257433, "lon": -3.670837, "tags": {"crossing": "zebra", "highway": "crossing", "tactile_paving": "yes"}}, {"type": "node", "id": 5232444744, "lat": 40.4249089, "lon": -3.670988}, {"type": "node", "id": 5232444745, "lat": 40.4246968, "lon": -3.6713487}, {"type": "node", "id": 5279529497, "lat": 40.4237518, "lon": -3.6709221}, {"type": "node", "id": 5279529501, "lat": 40.4238445, "lon": -3.6709202}, {"type": "node", "id": 5279529504, "lat": 40.4244607, "lon": -3.6710282}, {"type": "node", "id": 5279529506, "lat": 40.4231979, "lon": -3.6711047}, {"type": "node", "id": 5279529512, "lat": 40.4244281, "lon": -3.6709969}, {"type": "node", "id": 5279529514, "lat": 40.4232796, "lon": -3.6710976}, {"type": "node", "id": 5279529518, "lat": 40.4244005, "lon": -3.670874}, {"type": "node", "id": 5279529519, "lat": 40.4244331, "lon": -3.6706233}, {"type": "node", "id": 5300607562, "lat": 40.4243854, "lon": -3.6710004}, {"type": "node", "id": 5308455701, "lat": 40.4238364, "lon": -3.6707392}, {"type": "node", "id": 7537635134, "lat": 40.4248362, "lon": -3.6688316}, {"type": "node", "id": 7537635135, "lat": 40.4248491, "lon": -3.668758}, {"type": "node", "id": 8467354161, "lat": 40.424473, "lon": -3.6693746, "tags": {"bus": "yes", "public_transport": "stop_position"}}, {"type": "node", "id": 11916389049, "lat": 40.4245983, "lon": -3.6718274}, {"type": "way", "id": 15218911, "nodes": [25552373, 5222520971, 150540591, 150540627, 1572572885, 25552384], "tags": {"highway": "residential", "lanes": "1", "lit": "yes", "maxspeed": "50", "name": "Calle Fuente del Berro", "name:etymology:wikidata": "Q5643968", "oneway": "yes", "postal_code": "28009", "surface": "asphalt"}}, {"type": "way", "id": 216880379, "nodes": [2262030254, 5300607562, 929335626], "tags": {"highway": "service", "surface": "asphalt"}}, {"type": "way", "id": 320826398, "nodes": [3274732569, 8467354161, 1572572873], "tags": {"cycleway": "shared_lane", "highway": "primary", "lanes": "4", "lanes:backward": "2", "lanes:forward": "2", "maxspeed": "50", "name": "Calle de Goya", "name:etymology:wikidata": "Q5432", "postal_code": "28009"}}, {"type": "way", "id": 320826399, "nodes": [25552383, 1572572884, 11916389049, 1572572882, 25552384], "tags": {"cycleway": "shared_lane", "highway": "primary", "lanes": "5", "lanes:backward": "3", "lanes:forward": "2", "lit": "yes", "maxspeed": "50", "name": "Calle de Goya", "name:etymology:wikidata": "Q5432", "postal_code": "28009", "surface": "asphalt"}}, {"type": "way", "id": 510587659, "nodes": [25552384, 3274732569], "tags": {"cycleway": "shared_lane", "highway": "primary", "lanes": "5", "lanes:backward": "3", "lanes:forward": "2", "lit": "yes", "maxspeed": "50", "name": "Calle de Goya", "name:etymology:wikidata": "Q5432", "postal_code": "28009", "surface": "asphalt"}}, {"type": "way", "id": 510587660, "nodes": [25552384, 1572572874, 929335626, 150540629, 3484776638, 3484776637, 150540626], "tags": {"highway": "residential", "lanes": "1", "lit": "yes", "maxspeed": "50", "name": "Calle de la Fuente del Berro", "name:etymology:wikidata": "Q5643968", "oneway": "yes", "postal_code": "28009", "surface": "asphalt"}}, {"type": "way", "id": 510587737, "nodes": [4995784500, 4995784496, 4995784495, 4995784499, 4995784493, 4995784492], "tags": {"footway": "sidewalk", "highway": "footway", "lit": "yes"}}, {"type": "way", "id": 510587739, "nodes": [4995784494, 1572572885, 4995784499], "tags": {"crossing": "zebra", "footway": "crossing", "highway": "footway", "lit": "yes"}}, {"type": "way", "id": 510587740, "nodes": [4995784497, 1572572891, 4995784496], "tags": {"crossing": "zebra", "footway": "crossing", "highway": "footway", "lit": "yes"}}, {"type": "way", "id": 534521709, "nodes": [5279529504, 5183605342, 5183605341], "tags": {"footway": "sidewalk", "highway": "footway", "lit": "yes", "surface": "paving_stones"}}, {"type": "way", "id": 534521710, "nodes": [5183605343, 1572572874, 5279529504], "tags": {"crossing": "zebra", "footway": "crossing", "highway": "footway", "lit": "yes"}}, {"type": "way", "id": 534521712, "nodes": [5183605344, 1572572882, 5279529504], "tags": {"crossing": "traffic_signals", "footway": "crossing", "highway": "footway", "lit": "yes"}}, {"type": "way", "id": 541002686, "nodes": [5232444745, 5183605344, 4995784494, 5232444744], "tags": {"footway": "sidewalk", "highway": "footway", "lit": "yes"}}, {"type": "way", "id": 546323320, "nodes": [5279529506, 5279529514, 5300607562, 5279529512, 5279529504], "tags": {"footway": "sidewalk", "highway": "footway", "lit": "yes"}}, {"type": "way", "id": 546323325, "nodes": [5279529519, 5183605343, 5279529518, 5279529501], "tags": {"footway": "sidewalk", "highway": "footway", "lit": "yes", "surface": "paving_stones"}}, {"type": "way", "id": 546325954, "nodes": [5279529501, 1572572855, 5279529497], "tags": {"crossing": "zebra", "footway": "crossing", "highway": "footway", "lit": "yes", "surface": "paved"}}, {"type": "way", "id": 549560239, "nodes": [5308455701, 5279529501], "tags": {"footway": "sidewalk", "highway": "footway", "lit": "yes"}}, {"type": "way", "id": 806029417, "nodes": [7537635135, 7537635134, 1572572890, 1572572891, 4995784451, 150540627], "tags": {"highway": "residential", "name": "Calle del Jard\u00edn de San Federico", "oneway": "yes", "postal_code": "28009", "sidewalk": "both"}}]}