{"version": 0.6, "generator": "Overpass API 0.7.62.5 1bd436f1", "osm3s": {"timestamp_osm_base": "2025-03-23T10:27:29Z", "copyright": "The data included in this document is from www.openstreetmap.org. The data is made available under ODbL."}, "elements": [{"type": "node", "id": 25902959, "lat": 40.4519558, "lon": -3.6901044, "tags": {"source": "yahoo_maps"}}, {"type": "node", "id": 98984109, "lat": 40.454011, "lon": -3.6871124}, {"type": "node", "id": 98984111, "lat": 40.4529443, "lon": -3.6865487}, {"type": "node", "id": 98984112, "lat": 40.4522536, "lon": -3.6861582, "tags": {"highway": "traffic_signals", "traffic_signals": "crossing"}}, {"type": "node", "id": 98988033, "lat": 40.4520577, "lon": -3.6861919}, {"type": "node", "id": 98988250, "lat": 40.4521541, "lon": -3.6859649}, {"type": "node", "id": 98989149, "lat": 40.451978, "lon": -3.6892341}, {"type": "node", "id": 98989151, "lat": 40.4519249, "lon": -3.6883545}, {"type": "node", "id": 98989152, "lat": 40.4518808, "lon": -3.6876463}, {"type": "node", "id": 98989153, "lat": 40.4517913, "lon": -3.6862798}, {"type": "node", "id": 98989155, "lat": 40.4517702, "lon": -3.6855928, "tags": {"highway": "traffic_signals"}}, {"type": "node", "id": 98989839, "lat": 40.4518736, "lon": -3.6855666}, {"type": "node", "id": 98989840, "lat": 40.4519019, "lon": -3.686269, "tags": {"highway": "traffic_signals"}}, {"type": "node", "id": 98989841, "lat": 40.452136, "lon": -3.6895891, "tags": {"bus": "yes", "public_transport": "stop_position"}}, {"type": "node", "id": 98999476, "lat": 40.4522478, "lon": -3.6855534, "tags": {"button_operated": "no", "crossing": "traffic_signals", "crossing:markings": "dots", "highway": "crossing", "tactile_paving": "yes", "traffic_signals": "crossing", "traffic_signals:sound": "yes", "traffic_signals:vibration": "no"}}, {"type": "node", "id": 98999560, "lat": 40.4521449, "lon": -3.6857954, "tags": {"highway": "traffic_signals"}}, {"type": "node", "id": 98999578, "lat": 40.4520365, "lon": -3.6856222}, {"type": "node", "id": 98999836, "lat": 40.4514545, "lon": -3.6855711, "tags": {"button_operated": "no", "crossing": "traffic_signals", "highway": "crossing", "tactile_paving": "yes", "traffic_signals:sound": "no"}}, {"type": "node", "id": 98999837, "lat": 40.4516048, "lon": -3.6857134}, {"type": "node", "id": 100881578, "lat": 40.4496754, "lon": -3.6881778}, {"type": "node", "id": 100881579, "lat": 40.4514354, "lon": -3.6862226, "tags": {"button_operated": "no", "crossing": "traffic_signals", "highway": "crossing", "tactile_paving": "yes", "traffic_signals:sound": "yes", "traffic_signals:vibration": "no"}}, {"type": "node", "id": 100882237, "lat": 40.451549, "lon": -3.6859846}, {"type": "node", "id": 100882385, "lat": 40.4516352, "lon": -3.6861772}, {"type": "node", "id": 100885381, "lat": 40.4515426, "lon": -3.6858717, "tags": {"highway": "traffic_signals"}}, {"type": "node", "id": 101190157, "lat": 40.4504016, "lon": -3.6873717}, {"type": "node", "id": 102193004, "lat": 40.4510547, "lon": -3.6857819}, {"type": "node", "id": 102195666, "lat": 40.4487648, "lon": -3.6859889}, {"type": "node", "id": 102196413, "lat": 40.4484121, "lon": -3.6860353}, {"type": "node", "id": 102196415, "lat": 40.4502884, "lon": -3.6858556}, {"type": "node", "id": 102221078, "lat": 40.4534574, "lon": -3.6868268}, {"type": "node", "id": 616265307, "lat": 40.4514251, "lon": -3.6857462}, {"type": "node", "id": 616265316, "lat": 40.4513842, "lon": -3.6857615, "tags": {"crossing": "uncontrolled", "crossing:markings": "zebra", "highway": "crossing", "tactile_paving": "yes"}}, {"type": "node", "id": 1251715510, "lat": 40.4519893, "lon": -3.6898526, "tags": {"crossing": "traffic_signals", "crossing:island": "no", "highway": "crossing", "tactile_paving": "yes", "traffic_signals:sound": "no"}}, {"type": "node", "id": 1280098506, "lat": 40.4519267, "lon": -3.6866946, "tags": {"bus": "yes", "public_transport": "stop_position"}}, {"type": "node", "id": 1439703522, "lat": 40.4520032, "lon": -3.6866856, "tags": {"bus": "yes", "highway": "bus_stop", "name": "Concha Espina - Pza. Sagrados Corazones", "operator": "EMT Madrid", "public_transport": "platform", "ref": "96", "source": "https://navegapormadrid.emtmadrid.es/app/"}}, {"type": "node", "id": 1439710694, "lat": 40.4513329, "lon": -3.6862549, "tags": {"bench": "yes", "bin": "no", "bus": "yes", "highway": "bus_stop", "lit": "yes", "name": "Sagrados Corazones", "operator": "EMT Madrid", "public_transport": "platform", "ref": "2133", "shelter": "yes", "source": "https://navegapormadrid.emtmadrid.es/app/", "tactile_paving": "yes"}}, {"type": "node", "id": 1719813956, "lat": 40.4515818, "lon": -3.6860924}, {"type": "node", "id": 1719813961, "lat": 40.4517017, "lon": -3.686247}, {"type": "node", "id": 1719813967, "lat": 40.4520983, "lon": -3.6856985}, {"type": "node", "id": 1719813968, "lat": 40.4521156, "lon": -3.6860818}, {"type": "node", "id": 1752467709, "lat": 40.4538858, "lon": -3.6870499}, {"type": "node", "id": 2493963716, "lat": 40.4519361, "lon": -3.6885691}, {"type": "node", "id": 2623660323, "lat": 40.4519629, "lon": -3.6873198}, {"type": "node", "id": 3167891773, "lat": 40.4515102, "lon": -3.6863446}, {"type": "node", "id": 3167891776, "lat": 40.4518031, "lon": -3.6864597, "tags": {"crossing": "traffic_signals", "crossing:island": "no", "highway": "crossing"}}, {"type": "node", "id": 3167891778, "lat": 40.4519124, "lon": -3.6864522, "tags": {"crossing": "traffic_signals", "highway": "crossing"}}, {"type": "node", "id": 3167891779, "lat": 40.4520073, "lon": -3.6864438}, {"type": "node", "id": 3167891781, "lat": 40.4521899, "lon": -3.6863036}, {"type": "node", "id": 3167891782, "lat": 40.4522926, "lon": -3.6860533}, {"type": "node", "id": 3167891783, "lat": 40.452322, "lon": -3.6857589}, {"type": "node", "id": 3611166033, "lat": 40.4513851, "lon": -3.6861272}, {"type": "node", "id": 3611166034, "lat": 40.4514179, "lon": -3.6860658}, {"type": "node", "id": 3611166049, "lat": 40.4517194, "lon": -3.6864571}, {"type": "node", "id": 3611166054, "lat": 40.4518065, "lon": -3.6865113, "tags": {"highway": "traffic_signals"}}, {"type": "node", "id": 3611166085, "lat": 40.4521588, "lon": -3.6861667}, {"type": "node", "id": 3611166086, "lat": 40.4521835, "lon": -3.6856675}, {"type": "node", "id": 3611166087, "lat": 40.4522018, "lon": -3.6860688}, {"type": "node", "id": 4014828022, "lat": 40.451987, "lon": -3.6897285}, {"type": "node", "id": 4273947655, "lat": 40.4522943, "lon": -3.6856703}, {"type": "node", "id": 8088599721, "lat": 40.4520686, "lon": -3.689338}, {"type": "node", "id": 8088819476, "lat": 40.4519798, "lon": -3.6862465}, {"type": "node", "id": 8440634342, "lat": 40.4514639, "lon": -3.6861686, "tags": {"bus": "yes", "public_transport": "stop_position"}}, {"type": "node", "id": 8464920290, "lat": 40.4519825, "lon": -3.6894831, "tags": {"bus": "yes", "public_transport": "stop_position"}}, {"type": "node", "id": 10927499967, "lat": 40.4519726, "lon": -3.689978}, {"type": "node", "id": 11421077996, "lat": 40.451399, "lon": -3.685616}, {"type": "node", "id": 11889899104, "lat": 40.4514957, "lon": -3.6863536}, {"type": "node", "id": 11889899105, "lat": 40.4505201, "lon": -3.6874205}, {"type": "node", "id": 11889899131, "lat": 40.4498012, "lon": -3.6880308, "tags": {"crossing": "traffic_signals", "highway": "crossing"}}, {"type": "node", "id": 11889899135, "lat": 40.4504546, "lon": -3.6873122, "tags": {"crossing": "traffic_signals", "highway": "crossing"}}, {"type": "node", "id": 11889899136, "lat": 40.4503792, "lon": -3.6871992}, {"type": "node", "id": 11889899137, "lat": 40.4513268, "lon": -3.6861645}, {"type": "node", "id": 11934829904, "lat": 40.45146, "lon": -3.6856503}, {"type": "node", "id": 11934829905, "lat": 40.4514381, "lon": -3.6857334}, {"type": "node", "id": 11934829906, "lat": 40.4513832, "lon": -3.6856562}, {"type": "node", "id": 11934831782, "lat": 40.4514498, "lon": -3.6857165}, {"type": "node", "id": 11934831796, "lat": 40.4514594, "lon": -3.6856759}, {"type": "node", "id": 11934831803, "lat": 40.4514566, "lon": -3.6856974}, {"type": "node", "id": 11934833934, "lat": 40.4513864, "lon": -3.6856369}, {"type": "node", "id": 12300384892, "lat": 40.4522807, "lon": -3.6857367, "tags": {"highway": "street_lamp", "mapillary:image": "503190344056915", "mapillary:map_feature": "2998216880435843"}}, {"type": "node", "id": 12300384893, "lat": 40.4523274, "lon": -3.6857713, "tags": {"highway": "street_lamp", "mapillary:image": "503190344056915", "mapillary:map_feature": "2998216880435843"}}, {"type": "node", "id": 12300384894, "lat": 40.452332, "lon": -3.6859319, "tags": {"highway": "street_lamp", "mapillary:image": "503190344056915", "mapillary:map_feature": "2998216880435843"}}, {"type": "node", "id": 12300384898, "lat": 40.4514242, "lon": -3.686076, "tags": {"highway": "street_lamp", "mapillary:image": "503190344056915", "mapillary:map_feature": "2998216880435843"}}, {"type": "node", "id": 12300384900, "lat": 40.4514441, "lon": -3.6858655, "tags": {"highway": "street_lamp", "mapillary:image": "503190344056915", "mapillary:map_feature": "2998216880435843"}}, {"type": "node", "id": 12300388601, "lat": 40.4514492, "lon": -3.6859942, "tags": {"highway": "street_lamp"}}, {"type": "node", "id": 12300388603, "lat": 40.4519797, "lon": -3.6860385, "tags": {"highway": "street_lamp", "mapillary:image": "1029792547550774", "mapillary:map_feature": "222758889865889"}}, {"type": "node", "id": 12300388615, "lat": 40.4519652, "lon": -3.6857781, "tags": {"highway": "street_lamp", "mapillary:image": "1029792547550774", "mapillary:map_feature": "222758889865889"}}, {"type": "way", "id": 8014111, "nodes": [25902959, 10927499967, 1251715510, 4014828022, 8464920290, 98989149, 2493963716, 98989151, 98989152, 3611166054, 3167891776, 98989153], "tags": {"cycleway:right": "no", "fixme": "Restaurar (lanes=3, oneway=yes). Concha Espina a su paso por el Bernab\u00e9u est\u00e1 con \u00fanicamente 1 carril por sentido, por las obras del estadio, que se han tenido que reservar casi todos los carriles para la maquinaria. Duraci\u00f3n temporal (fecha prevista: 202", "highway": "secondary", "lanes": "1", "lit": "yes", "maxspeed": "30", "name": "Avenida de Concha Espina", "name:etymology:wikidata": "Q3751269", "surface": "asphalt"}}, {"type": "way", "id": 11104389, "nodes": [98984112, 3611166085, 98988033], "tags": {"highway": "tertiary", "maxspeed": "50", "name": "Glorieta de los Sagrados Corazones", "oneway": "yes", "surface": "asphalt"}}, {"type": "way", "id": 11104407, "nodes": [98988250, 3611166087, 98984112], "tags": {"bicycle": "yes", "destination": "Plaza de la Madre Molas", "highway": "tertiary", "maxspeed": "50", "name": "Glorieta de los Sagrados Corazones", "oneway": "yes", "surface": "asphalt"}}, {"type": "way", "id": 11105762, "nodes": [98999476, 3611166086, 98999560], "tags": {"highway": "tertiary", "lanes": "2", "maxspeed": "50", "name": "Glorieta de los Sagrados Corazones", "oneway": "yes", "surface": "asphalt"}}, {"type": "way", "id": 11340533, "nodes": [100881579, 8440634342, 100882237], "tags": {"highway": "residential", "name": "Glorieta de los Sagrados Corazones", "oneway": "yes", "surface": "asphalt"}}, {"type": "way", "id": 11340552, "nodes": [100882385, 100881579], "tags": {"highway": "residential", "name": "Glorieta de los Sagrados Corazones", "oneway": "yes", "surface": "asphalt"}}, {"type": "way", "id": 11477389, "nodes": [100885381, 616265316], "tags": {"highway": "residential", "name": "Glorieta de los Sagrados Corazones", "oneway": "yes", "surface": "asphalt"}}, {"type": "way", "id": 31784478, "nodes": [98989153, 98989155], "tags": {"cycleway:right": "shared_lane", "highway": "secondary", "lanes": "4", "maxspeed:lanes": "50|50|50|30", "name": "Avenida de Concha Espina", "name:etymology:wikidata": "Q3751269", "oneway": "yes", "surface": "asphalt", "turn:lanes": "through|through|through|through"}}, {"type": "way", "id": 31784480, "nodes": [98989839, 98989840], "tags": {"cycleway:right": "shared_lane", "highway": "secondary", "lanes": "4", "maxspeed:lanes": "50|50|50|30", "name": "Avenida de Concha Espina", "name:etymology:wikidata": "Q3751269", "oneway": "yes", "surface": "asphalt", "turn:lanes": "through|through|through|through"}}, {"type": "way", "id": 31784481, "nodes": [98989840, 3167891778, 1280098506, 2623660323, 8088599721, 98989841], "tags": {"construction": "secondary", "cycleway:right": "no", "destination": "E-5 A-1 Burgos;Plaza de Lima", "fixme": "Restaurar (lanes=3, oneway=yes). Concha Espina a su paso por el Bernab\u00e9u est\u00e1 con \u00fanicamente 1 carril por sentido, por las obras del estadio, que se han tenido que reservar casi todos los carriles para la maquinaria. Duraci\u00f3n temporal (fecha prevista: 202", "highway": "construction", "lanes": "1", "maxspeed": "30", "name": "Avenida de Concha Espina", "name:etymology:wikidata": "Q3751269", "oneway": "yes", "surface": "asphalt"}}, {"type": "way", "id": 44335671, "nodes": [98989840, 98989153, 1719813961, 100882385], "tags": {"bicycle": "yes", "highway": "secondary", "maxspeed": "50", "name": "Glorieta de los Sagrados Corazones", "oneway": "yes", "surface": "asphalt"}}, {"type": "way", "id": 48503889, "nodes": [98999836, 11934829904, 11934831796, 11934831803, 11934831782, 11934829905, 616265307, 616265316], "tags": {"highway": "residential", "lanes": "1", "maxspeed": "50", "name": "Glorieta de los Sagrados Corazones", "oneway": "yes", "source:width": "ARCore", "surface": "asphalt", "width": "5.3"}}, {"type": "way", "id": 131504893, "nodes": [100882237, 100885381], "tags": {"bicycle": "yes", "highway": "secondary", "lane_markings": "no", "maxspeed": "50", "name": "Glorieta de los Sagrados Corazones", "oneway": "yes", "surface": "asphalt", "width": "10"}}, {"type": "way", "id": 261560482, "nodes": [616265316, 102193004, 102196415, 102195666, 102196413], "tags": {"highway": "residential", "name": "Calle del Darro", "name:etymology:wikidata": "Q1166701", "oneway": "yes", "postal_code": "28002", "surface": "asphalt"}}, {"type": "way", "id": 261560484, "nodes": [98999560, 98988250], "tags": {"bicycle": "yes", "highway": "secondary", "maxspeed": "50", "name": "Glorieta de los Sagrados Corazones", "oneway": "yes", "surface": "asphalt"}}, {"type": "way", "id": 262144293, "nodes": [98999578, 1719813967, 98999560], "tags": {"bicycle": "yes", "destination": "Plaza de la Madre Molas", "highway": "secondary", "maxspeed": "50", "name": "Glorieta de los Sagrados Corazones", "oneway": "yes", "surface": "asphalt"}}, {"type": "way", "id": 311203089, "nodes": [98984109, 1752467709, 102221078, 98984111, 98984112], "tags": {"bicycle": "yes", "fixme": "Restaurar valor de lanes=4, una vez finalicen las obras del Bernab\u00e9u (fecha prevista: 2023-02-06)", "highway": "tertiary", "lanes": "2", "maxspeed": "50", "name": "Calle del Padre Dami\u00e1n", "name:etymology:wikidata": "Q232785", "oneway": "no", "surface": "asphalt"}}, {"type": "way", "id": 311203091, "nodes": [98988033, 8088819476, 98989840], "tags": {"highway": "secondary", "maxspeed": "50", "name": "Glorieta de los Sagrados Corazones", "oneway": "yes", "surface": "asphalt"}}, {"type": "way", "id": 311203107, "nodes": [3167891782, 98984112, 3167891781], "tags": {"bicycle": "dismount", "crossing": "traffic_signals", "footway": "crossing", "highway": "footway"}}, {"type": "way", "id": 428266986, "nodes": [3167891781, 3167891779, 3167891778, 3167891776, 3611166049, 3167891773, 100881579, 3611166033, 3611166034, 616265316], "tags": {"bicycle": "dismount", "highway": "footway"}}, {"type": "way", "id": 428266992, "nodes": [4273947655, 3167891783, 3167891782], "tags": {"bicycle": "dismount", "highway": "footway", "surface": "paving_stones"}}, {"type": "way", "id": 1032962168, "nodes": [100881578, 11889899131, 101190157, 11889899135, 100881579], "tags": {"highway": "residential", "lanes": "4", "maxspeed": "50", "name": "Paseo de La Habana", "name:etymology:wikidata": "Q1563", "surface": "asphalt"}}, {"type": "way", "id": 1052240654, "nodes": [100882385, 1719813956, 100882237], "tags": {"bicycle": "yes", "highway": "secondary", "lane_markings": "no", "maxspeed": "50", "name": "Glorieta de los Sagrados Corazones", "oneway": "yes", "surface": "asphalt", "width": "10"}}, {"type": "way", "id": 1052240656, "nodes": [100885381, 98999837], "tags": {"bicycle": "yes", "highway": "secondary", "lane_markings": "no", "maxspeed": "50", "name": "Glorieta de los Sagrados Corazones", "oneway": "yes", "surface": "asphalt", "width": "8"}}, {"type": "way", "id": 1052240657, "nodes": [98988250, 1719813968, 98988033], "tags": {"highway": "secondary", "maxspeed": "50", "name": "Glorieta de los Sagrados Corazones", "oneway": "yes", "surface": "asphalt"}}, {"type": "way", "id": 1231462899, "nodes": [616265316, 11934829906, 11934833934, 11421077996], "tags": {"bicycle": "dismount", "highway": "footway", "surface": "paving_stones"}}, {"type": "way", "id": 1280982033, "nodes": [11889899135, 11889899105, 11889899104, 3167891773], "tags": {"footway": "sidewalk", "highway": "footway"}}, {"type": "way", "id": 1280982037, "nodes": [3611166033, 11889899137, 11889899136], "tags": {"footway": "sidewalk", "highway": "footway"}}]}