{"version": 0.6, "generator": "Overpass API 0.7.62.5 1bd436f1", "osm3s": {"timestamp_osm_base": "2025-03-23T14:30:16Z", "copyright": "The data included in this document is from www.openstreetmap.org. The data is made available under ODbL."}, "elements": [{"type": "node", "id": 306259462, "lat": 40.3439466, "lon": -3.7112578}, {"type": "node", "id": 306259464, "lat": 40.3437158, "lon": -3.7125718}, {"type": "node", "id": 306259477, "lat": 40.3429637, "lon": -3.7124327}, {"type": "node", "id": 306358785, "lat": 40.344703, "lon": -3.7127764}, {"type": "node", "id": 306358799, "lat": 40.3452918, "lon": -3.7109906}, {"type": "node", "id": 306358805, "lat": 40.3445222, "lon": -3.7127329}, {"type": "node", "id": 306358809, "lat": 40.3450415, "lon": -3.7120817}, {"type": "node", "id": 306358813, "lat": 40.3441572, "lon": -3.712661}, {"type": "node", "id": 306358814, "lat": 40.3448154, "lon": -3.7110508}, {"type": "node", "id": 306358816, "lat": 40.3443261, "lon": -3.7111684}, {"type": "node", "id": 306358817, "lat": 40.3453257, "lon": -3.712616}, {"type": "node", "id": 306358834, "lat": 40.3452185, "lon": -3.7109779}, {"type": "node", "id": 306358898, "lat": 40.345604, "lon": -3.712775}, {"type": "node", "id": 306358916, "lat": 40.3469233, "lon": -3.712688}, {"type": "node", "id": 306358974, "lat": 40.3433781, "lon": -3.7125156}, {"type": "node", "id": 306359370, "lat": 40.3463891, "lon": -3.7127201}, {"type": "node", "id": 306359545, "lat": 40.3442537, "lon": -3.7106907}, {"type": "node", "id": 306359546, "lat": 40.344273, "lon": -3.7104332}, {"type": "node", "id": 306359547, "lat": 40.3443479, "lon": -3.7103233}, {"type": "node", "id": 306359548, "lat": 40.3444415, "lon": -3.7102559}, {"type": "node", "id": 306359549, "lat": 40.3446958, "lon": -3.7101556}, {"type": "node", "id": 385329921, "lat": 40.3449803, "lon": -3.7099575}, {"type": "node", "id": 457481051, "lat": 40.3461213, "lon": -3.7127406}, {"type": "node", "id": 457481062, "lat": 40.3450098, "lon": -3.7128064}, {"type": "node", "id": 1367876425, "lat": 40.3449327, "lon": -3.712766, "tags": {"crossing": "uncontrolled", "highway": "crossing", "tactile_paving": "yes"}}, {"type": "node", "id": 1367876954, "lat": 40.344794, "lon": -3.7129607}, {"type": "node", "id": 1367877049, "lat": 40.3449142, "lon": -3.7126738}, {"type": "node", "id": 3556616840, "lat": 40.3442609, "lon": -3.7107579}, {"type": "node", "id": 3556616843, "lat": 40.3447543, "lon": -3.7128803, "tags": {"crossing": "uncontrolled", "highway": "crossing", "tactile_paving": "yes"}}, {"type": "node", "id": 3556616844, "lat": 40.3447998, "lon": -3.7111372, "tags": {"crossing": "uncontrolled", "highway": "crossing", "tactile_paving": "no"}}, {"type": "node", "id": 3556616851, "lat": 40.345271, "lon": -3.7110813, "tags": {"crossing": "uncontrolled", "highway": "crossing", "tactile_paving": "yes"}}, {"type": "node", "id": 3620963869, "lat": 40.3450222, "lon": -3.7119483}, {"type": "node", "id": 3620963870, "lat": 40.3450678, "lon": -3.7119669}, {"type": "node", "id": 3621303475, "lat": 40.3443164, "lon": -3.7112541, "tags": {"crossing": "uncontrolled", "highway": "crossing", "tactile_paving": "yes"}}, {"type": "node", "id": 3627378738, "lat": 40.345124, "lon": -3.7128004, "tags": {"highway": "give_way"}}, {"type": "node", "id": 3627378739, "lat": 40.345142, "lon": -3.7109917, "tags": {"crossing": "uncontrolled", "highway": "crossing", "tactile_paving": "yes"}}, {"type": "node", "id": 3627378741, "lat": 40.3452819, "lon": -3.7110338, "tags": {"highway": "give_way"}}, {"type": "node", "id": 3627378742, "lat": 40.3453182, "lon": -3.7127901, "tags": {"crossing": "uncontrolled", "highway": "crossing", "tactile_paving": "yes"}}, {"type": "node", "id": 3627378744, "lat": 40.3468597, "lon": -3.7126894, "tags": {"crossing": "uncontrolled", "highway": "crossing"}}, {"type": "node", "id": 3627472396, "lat": 40.343997, "lon": -3.7112459, "tags": {"crossing": "uncontrolled", "highway": "crossing", "tactile_paving": "yes"}}, {"type": "node", "id": 3627472397, "lat": 40.3441639, "lon": -3.7126016, "tags": {"crossing": "uncontrolled", "highway": "crossing", "tactile_paving": "yes"}}, {"type": "node", "id": 3627472398, "lat": 40.3442235, "lon": -3.7111926, "tags": {"crossing": "uncontrolled", "highway": "crossing", "tactile_paving": "yes"}}, {"type": "node", "id": 3627472399, "lat": 40.3443134, "lon": -3.7110885, "tags": {"crossing": "uncontrolled", "highway": "crossing", "tactile_paving": "yes"}}, {"type": "node", "id": 5375368761, "lat": 40.3464265, "lon": -3.712718}, {"type": "node", "id": 5375368762, "lat": 40.3465093, "lon": -3.7127133}, {"type": "node", "id": 5375368763, "lat": 40.3462988, "lon": -3.712727}, {"type": "node", "id": 5414443633, "lat": 40.344921, "lon": -3.7100692}, {"type": "node", "id": 8067185420, "lat": 40.3436755, "lon": -3.712564, "tags": {"crossing": "zebra", "highway": "crossing", "tactile_paving": "yes"}}, {"type": "node", "id": 9487958585, "lat": 40.3448697, "lon": -3.7100889}, {"type": "node", "id": 11768511246, "lat": 40.344136, "lon": -3.7125885}, {"type": "node", "id": 11768511247, "lat": 40.3441862, "lon": -3.7126052}, {"type": "node", "id": 11768532565, "lat": 40.3448923, "lon": -3.7127852}, {"type": "node", "id": 11768532566, "lat": 40.3449999, "lon": -3.7127154}, {"type": "node", "id": 11769874999, "lat": 40.3442249, "lon": -3.7111481}, {"type": "node", "id": 11769875000, "lat": 40.3442237, "lon": -3.7112369}, {"type": "node", "id": 11769875001, "lat": 40.3442793, "lon": -3.7112623}, {"type": "node", "id": 11769875002, "lat": 40.3443422, "lon": -3.7112385}, {"type": "node", "id": 12318576048, "lat": 40.3442515, "lon": -3.7105572}, {"type": "node", "id": 12318576057, "lat": 40.3440603, "lon": -3.7106443}, {"type": "node", "id": 12318576058, "lat": 40.3441434, "lon": -3.7112131}, {"type": "node", "id": 12318581328, "lat": 40.343853, "lon": -3.7106626}, {"type": "node", "id": 12318581329, "lat": 40.3440235, "lon": -3.7106182}, {"type": "node", "id": 12318581330, "lat": 40.3440455, "lon": -3.7106243}, {"type": "node", "id": 12318581331, "lat": 40.3440563, "lon": -3.710633}, {"type": "way", "id": 27893571, "nodes": [306259477, 306358974, 8067185420, 306259464, 306358813, 306358805], "tags": {"highway": "residential", "maxspeed": "30", "name": "Calle de Alberto Palacios", "oneway": "yes", "postal_code": "28021", "surface": "sett"}}, {"type": "way", "id": 27908667, "nodes": [457481062, 1367876425, 1367877049, 306358809, 3620963870, 3556616851, 3627378741, 306358799], "tags": {"highway": "residential", "lanes": "1", "maxspeed": "30", "name": "Calle de las Arenas", "oneway": "yes", "postal_code": "28021", "surface": "asphalt"}}, {"type": "way", "id": 27908669, "nodes": [306358813, 3627472397, 3621303475, 306358816], "tags": {"highway": "residential", "lanes": "1", "maxspeed": "30", "name": "Calle Angosta", "oneway": "yes", "postal_code": "28021", "surface": "asphalt"}}, {"type": "way", "id": 27908670, "nodes": [306358814, 3556616844, 306358805], "tags": {"highway": "residential", "lanes": "1", "maxspeed": "30", "name": "Calle de Nuestra Se\u00f1ora de Bego\u00f1a", "oneway": "yes", "postal_code": "28021", "surface": "asphalt"}}, {"type": "way", "id": 27908796, "nodes": [306358816, 3627472399, 3556616840, 306359545, 12318576048, 306359546, 306359547, 306359548, 306359549, 9487958585, 5414443633, 385329921], "tags": {"highway": "residential", "lanes": "1", "maxspeed": "30", "name": "Calle de Calamocha", "oneway": "yes", "postal_code": "28021", "surface": "asphalt"}}, {"type": "way", "id": 38622595, "nodes": [306358916, 3627378744, 5375368762, 5375368761, 306359370, 5375368763, 457481051, 306358898, 3627378742, 3627378738, 457481062], "tags": {"highway": "residential", "lanes": "1", "maxspeed": "30", "name": "Calle de Mart\u00ednez Seco", "oneway": "yes", "postal_code": "28021", "sidewalk": "both", "surface": "asphalt"}}, {"type": "way", "id": 38765248, "nodes": [306358799, 306358834, 3627378739, 306358814, 306358816], "tags": {"highway": "residential", "lane_markings": "no", "maxspeed": "30", "name": "Calle de Villastar", "oneway": "yes", "postal_code": "28021", "surface": "asphalt"}}, {"type": "way", "id": 177166587, "nodes": [306358817, 457481062], "tags": {"highway": "residential", "lanes": "1", "maxspeed": "30", "name": "Paseo de Alberto Palacios", "oneway": "no", "oneway:psv": "no", "postal_code": "28021", "surface": "asphalt"}}, {"type": "way", "id": 356682623, "nodes": [3620963869, 3620963870], "tags": {"highway": "service", "surface": "paving_stones"}}, {"type": "way", "id": 865501838, "nodes": [306358805, 306358785, 3556616843, 1367876954], "tags": {"highway": "residential", "lane_markings": "no", "name": "Calle de Alberto Palacios", "oneway": "yes", "postal_code": "28021", "surface": "paving_stones"}}, {"type": "way", "id": 1267057748, "nodes": [11768511247, 3627472397, 11768511246], "tags": {"footway": "crossing", "highway": "footway", "surface": "asphalt"}}, {"type": "way", "id": 1267057789, "nodes": [11768532566, 1367876425, 11768532565], "tags": {"footway": "crossing", "highway": "footway", "surface": "asphalt"}}, {"type": "way", "id": 1267229969, "nodes": [11769875000, 3627472398, 11769874999], "tags": {"footway": "crossing", "highway": "footway", "surface": "asphalt"}}, {"type": "way", "id": 1267229970, "nodes": [11769875002, 3621303475, 11769875001], "tags": {"footway": "crossing", "highway": "footway", "surface": "asphalt"}}, {"type": "way", "id": 1321444886, "nodes": [306358816, 3627472398, 12318576058, 3627472396, 306259462], "tags": {"highway": "residential", "lane_markings": "no", "maxspeed": "30", "name": "Calle de Villastar", "oneway": "yes", "postal_code": "28021", "sidewalk": "both", "surface": "asphalt"}}, {"type": "way", "id": 1331374818, "nodes": [12318576058, 12318576057, 12318581331, 12318581330, 12318581329, 12318581328], "tags": {"highway": "service"}}]}