{"version": 0.6, "generator": "Overpass API 0.7.62.5 1bd436f1", "osm3s": {"timestamp_osm_base": "2025-03-23T16:53:59Z", "copyright": "The data included in this document is from www.openstreetmap.org. The data is made available under ODbL."}, "elements": [{"type": "node", "id": 26514551, "lat": 40.4007046, "lon": -3.6909922}, {"type": "node", "id": 31009656, "lat": 40.4018072, "lon": -3.6923476}, {"type": "node", "id": 31010474, "lat": 40.4007716, "lon": -3.6924604}, {"type": "node", "id": 31010515, "lat": 40.4008227, "lon": -3.6936438}, {"type": "node", "id": 31010699, "lat": 40.400623, "lon": -3.6929789}, {"type": "node", "id": 319001515, "lat": 40.4008032, "lon": -3.6931547}, {"type": "node", "id": 319001588, "lat": 40.4018433, "lon": -3.693049}, {"type": "node", "id": 1865399011, "lat": 40.4004327, "lon": -3.6924963}, {"type": "node", "id": 2046063745, "lat": 40.4007109, "lon": -3.6911311, "tags": {"crossing": "traffic_signals", "crossing:markings": "dots", "highway": "traffic_signals"}}, {"type": "node", "id": 2046068744, "lat": 40.4007745, "lon": -3.6925257, "tags": {"crossing": "uncontrolled", "highway": "crossing"}}, {"type": "node", "id": 2046068745, "lat": 40.4007989, "lon": -3.6930595, "tags": {"button_operated": "no", "crossing": "traffic_signals", "crossing:markings": "dots", "highway": "traffic_signals", "tactile_paving": "yes", "traffic_signals:sound": "yes", "traffic_signals:vibration": "no"}}, {"type": "node", "id": 2046068751, "lat": 40.400766, "lon": -3.692338, "tags": {"crossing": "uncontrolled", "highway": "crossing"}}, {"type": "node", "id": 2112286505, "lat": 40.4005121, "lon": -3.693176}, {"type": "node", "id": 2112286509, "lat": 40.4006584, "lon": -3.6930673, "tags": {"button_operated": "no", "crossing": "traffic_signals", "crossing:markings": "dots", "highway": "crossing", "tactile_paving": "yes", "traffic_signals:sound": "no", "traffic_signals:vibration": "no"}}, {"type": "node", "id": 2119739541, "lat": 40.4004734, "lon": -3.6930584, "tags": {"access": "yes", "door": "hinged", "entrance": "main"}}, {"type": "node", "id": 3417781572, "lat": 40.4006289, "lon": -3.6935297}, {"type": "node", "id": 3417781575, "lat": 40.4006677, "lon": -3.6931001, "tags": {"highway": "traffic_signals"}}, {"type": "node", "id": 3417781576, "lat": 40.4006834, "lon": -3.6938435}, {"type": "node", "id": 8122197354, "lat": 40.4011405, "lon": -3.6931521}, {"type": "node", "id": 8122197355, "lat": 40.4012015, "lon": -3.6931465}, {"type": "node", "id": 8122197356, "lat": 40.4008821, "lon": -3.6931758}, {"type": "node", "id": 8122197357, "lat": 40.400881, "lon": -3.6931468, "tags": {"crossing": "uncontrolled", "crossing:markings": "zebra", "highway": "crossing"}}, {"type": "node", "id": 8122197358, "lat": 40.4008619, "lon": -3.6930582}, {"type": "node", "id": 8122197359, "lat": 40.4012064, "lon": -3.6932591}, {"type": "node", "id": 8122197360, "lat": 40.4011452, "lon": -3.6932634}, {"type": "node", "id": 8122197365, "lat": 40.4012022, "lon": -3.6931629, "tags": {"entrance": "main"}}, {"type": "node", "id": 8122197366, "lat": 40.4011412, "lon": -3.6931686, "tags": {"entrance": "main"}}, {"type": "node", "id": 8373377558, "lat": 40.4007687, "lon": -3.6934553, "tags": {"bus": "yes", "public_transport": "stop_position"}}, {"type": "node", "id": 8496984800, "lat": 40.4008539, "lon": -3.6924514, "tags": {"crossing": "zebra", "highway": "crossing"}}, {"type": "node", "id": 9611783284, "lat": 40.4002948, "lon": -3.6926927, "tags": {"access": "customers", "highway": "elevator", "indoor": "yes", "level": "0;-1"}}, {"type": "node", "id": 9611783285, "lat": 40.4003284, "lon": -3.6926711}, {"type": "node", "id": 9611783286, "lat": 40.4003449, "lon": -3.692719}, {"type": "node", "id": 9611783287, "lat": 40.4003838, "lon": -3.6928206}, {"type": "node", "id": 11703522963, "lat": 40.4018024, "lon": -3.6930531, "tags": {"crossing": "zebra", "highway": "crossing"}}, {"type": "node", "id": 11703597671, "lat": 40.4017734, "lon": -3.6923513, "tags": {"crossing": "uncontrolled", "crossing:markings": "zebra", "highway": "crossing"}}, {"type": "node", "id": 11716601723, "lat": 40.4005136, "lon": -3.6924877, "tags": {"crossing": "zebra", "highway": "crossing"}}, {"type": "node", "id": 11812646275, "lat": 40.4018004, "lon": -3.6930169}, {"type": "node", "id": 11812646276, "lat": 40.4018045, "lon": -3.6930907}, {"type": "node", "id": 11812646286, "lat": 40.4004046, "lon": -3.6932302}, {"type": "node", "id": 11812646293, "lat": 40.4012847, "lon": -3.6930786}, {"type": "node", "id": 11812646294, "lat": 40.4012877, "lon": -3.6931336}, {"type": "node", "id": 11812646295, "lat": 40.4008823, "lon": -3.6931108}, {"type": "node", "id": 11812646296, "lat": 40.4008362, "lon": -3.6925206}, {"type": "node", "id": 11812646297, "lat": 40.400725, "lon": -3.6931376}, {"type": "node", "id": 11812646298, "lat": 40.4007475, "lon": -3.693143}, {"type": "node", "id": 11812646299, "lat": 40.4007679, "lon": -3.6931269}, {"type": "node", "id": 11812646300, "lat": 40.4007729, "lon": -3.6930609}, {"type": "node", "id": 11812646301, "lat": 40.400742, "lon": -3.692529}, {"type": "node", "id": 11812646302, "lat": 40.4006944, "lon": -3.6930653}, {"type": "node", "id": 11812646303, "lat": 40.4005687, "lon": -3.6927514}, {"type": "node", "id": 11812646304, "lat": 40.4007658, "lon": -3.6936244}, {"type": "node", "id": 11812646305, "lat": 40.4006217, "lon": -3.6930946}, {"type": "node", "id": 11812646306, "lat": 40.4004983, "lon": -3.6927608}, {"type": "node", "id": 11812646308, "lat": 40.4007832, "lon": -3.6937792}, {"type": "node", "id": 11812646309, "lat": 40.4008914, "lon": -3.693761}, {"type": "node", "id": 11812646310, "lat": 40.40087, "lon": -3.6932181}, {"type": "node", "id": 11812646311, "lat": 40.4008925, "lon": -3.6937881}, {"type": "node", "id": 11979184714, "lat": 40.4006654, "lon": -3.6936991}, {"type": "way", "id": 4824693, "nodes": [31010515, 8373377558, 3417781575, 2112286509, 31010699, 1865399011], "tags": {"highway": "secondary", "lanes": "2", "lit": "yes", "maxspeed": "40", "name": "Calle de Ram\u00edrez de Prado", "name:etymology:wikidata": "Q1870229", "oneway": "yes", "postal_code": "28045"}}, {"type": "way", "id": 29007149, "nodes": [319001588, 11703522963, 8122197357, 319001515], "tags": {"highway": "residential", "lanes": "1", "lit": "yes", "name": "Calle Jos\u00e9 Mar\u00eda Roquero", "name:etymology:wikidata": "Q110733832", "oneway": "yes", "postal_code": "28045", "surface": "asphalt"}}, {"type": "way", "id": 30661700, "nodes": [31010515, 319001515, 2046068745, 2046068744, 31010474, 2046068751, 2046063745, 26514551], "tags": {"highway": "residential", "lanes": "1", "lit": "yes", "maxspeed": "50", "maxspeed:type": "sign", "name": "Calle de Bustamante", "oneway": "yes", "postal_code": "28045", "surface": "asphalt"}}, {"type": "way", "id": 201273448, "nodes": [3417781576, 11979184714, 3417781572, 2112286505, 2119739541], "tags": {"highway": "footway", "lit": "yes", "surface": "paving_stones"}}, {"type": "way", "id": 201273449, "nodes": [11812646302, 2112286509, 11812646305], "tags": {"footway": "crossing", "highway": "footway", "lit": "yes", "surface": "paving_stones"}}, {"type": "way", "id": 872031515, "nodes": [8122197359, 8122197365, 8122197355], "tags": {"highway": "footway"}}, {"type": "way", "id": 872031516, "nodes": [8122197360, 8122197366, 8122197354], "tags": {"highway": "footway"}}, {"type": "way", "id": 1044596396, "nodes": [2119739541, 9611783287, 9611783286, 9611783285, 9611783284], "tags": {"covered": "yes", "highway": "footway", "lit": "yes", "surface": "paving_stones"}}, {"type": "way", "id": 1272096455, "nodes": [11812646286, 2112286505], "tags": {"handrail": "yes", "highway": "steps", "lit": "yes", "ramp": "no", "surface": "paving_stones"}}, {"type": "way", "id": 1272096465, "nodes": [11812646305, 2112286505], "tags": {"highway": "footway", "lit": "yes", "surface": "paving_stones"}}, {"type": "way", "id": 1272096466, "nodes": [8122197358, 2046068745, 11812646300], "tags": {"footway": "crossing", "highway": "footway", "lit": "yes", "surface": "paving_stones"}}, {"type": "way", "id": 1272096467, "nodes": [11812646295, 8122197358], "tags": {"footway": "sidewalk", "highway": "footway", "lit": "yes", "surface": "paving_stones"}}, {"type": "way", "id": 1272096468, "nodes": [11812646275, 11812646293, 11812646295], "tags": {"footway": "sidewalk", "highway": "footway", "lit": "yes", "surface": "paving_stones"}}, {"type": "way", "id": 1272096469, "nodes": [11812646276, 11812646294, 8122197355], "tags": {"footway": "sidewalk", "highway": "footway", "lit": "yes", "surface": "paving_stones"}}, {"type": "way", "id": 1272096470, "nodes": [8122197356, 8122197357, 11812646295], "tags": {"footway": "crossing", "highway": "footway", "lit": "yes", "surface": "paving_stones"}}, {"type": "way", "id": 1272096471, "nodes": [2046068744, 11812646296, 8122197358], "tags": {"footway": "sidewalk", "highway": "footway", "lit": "yes"}}, {"type": "way", "id": 1272096472, "nodes": [2046068744, 11812646301, 11812646300, 11812646299, 11812646298, 11812646297, 11812646302], "tags": {"footway": "sidewalk", "highway": "footway", "lit": "yes"}}, {"type": "way", "id": 1272096473, "nodes": [11812646303, 11812646302], "tags": {"footway": "sidewalk", "highway": "footway"}}, {"type": "way", "id": 1272096474, "nodes": [11812646306, 11812646305, 11812646304, 11812646308], "tags": {"footway": "sidewalk", "highway": "footway", "lit": "yes"}}, {"type": "way", "id": 1272096477, "nodes": [8122197355, 8122197354, 8122197356], "tags": {"footway": "sidewalk", "highway": "footway", "lit": "yes", "surface": "paving_stones"}}, {"type": "way", "id": 1272096480, "nodes": [8122197356, 11812646310, 11812646309, 11812646311], "tags": {"footway": "sidewalk", "highway": "footway", "lit": "yes"}}, {"type": "way", "id": 1331895287, "nodes": [31009656, 11703597671, 8496984800, 31010474, 11716601723, 1865399011], "tags": {"cycleway:both": "no", "highway": "residential", "lanes": "1", "lit": "yes", "maxspeed": "50", "name": "Calle de Rafael de Riego", "name:etymology:wikidata": "Q203036", "oneway": "yes", "postal_code": "28045", "sidewalk": "both", "surface": "asphalt"}}]}