{"version": 0.6, "generator": "Overpass API 0.7.62.5 1bd436f1", "osm3s": {"timestamp_osm_base": "2025-03-23T13:53:30Z", "copyright": "The data included in this document is from www.openstreetmap.org. The data is made available under ODbL."}, "elements": [{"type": "node", "id": 283577865, "lat": 40.4933504, "lon": -3.6554936}, {"type": "node", "id": 283577948, "lat": 40.4962436, "lon": -3.6523496}, {"type": "node", "id": 283577949, "lat": 40.4957028, "lon": -3.6515007}, {"type": "node", "id": 283577970, "lat": 40.494211, "lon": -3.653143}, {"type": "node", "id": 283578024, "lat": 40.4952728, "lon": -3.6548155}, {"type": "node", "id": 283578100, "lat": 40.4958013, "lon": -3.655655}, {"type": "node", "id": 283587349, "lat": 40.4947522, "lon": -3.6539799}, {"type": "node", "id": 283595180, "lat": 40.4928176, "lon": -3.6546463}, {"type": "node", "id": 283595481, "lat": 40.4931321, "lon": -3.6514491}, {"type": "node", "id": 283595483, "lat": 40.4936847, "lon": -3.6523002}, {"type": "node", "id": 293609711, "lat": 40.4953553, "lon": -3.654738}, {"type": "node", "id": 293609712, "lat": 40.4948295, "lon": -3.6538967}, {"type": "node", "id": 293609714, "lat": 40.4942867, "lon": -3.6530461}, {"type": "node", "id": 293609715, "lat": 40.4932217, "lon": -3.651353}, {"type": "node", "id": 293609716, "lat": 40.4958773, "lon": -3.6555734}, {"type": "node", "id": 299316295, "lat": 40.4937856, "lon": -3.6550178}, {"type": "node", "id": 299316296, "lat": 40.4932535, "lon": -3.6541748}, {"type": "node", "id": 2686618639, "lat": 40.4932732, "lon": -3.6516672, "tags": {"highway": "crossing"}}, {"type": "node", "id": 2686618642, "lat": 40.4933612, "lon": -3.6515747, "tags": {"highway": "crossing"}}, {"type": "node", "id": 2686618667, "lat": 40.4937961, "lon": -3.6524807, "tags": {"crossing": "uncontrolled", "highway": "crossing"}}, {"type": "node", "id": 2686618691, "lat": 40.4938756, "lon": -3.6523925, "tags": {"crossing": "uncontrolled", "highway": "crossing"}}, {"type": "node", "id": 2686618709, "lat": 40.4940759, "lon": -3.6532813, "tags": {"crossing": "uncontrolled", "crossing:island": "no", "highway": "crossing", "tactile_paving": "yes"}}, {"type": "node", "id": 2686618757, "lat": 40.4943211, "lon": -3.6533132, "tags": {"highway": "crossing"}}, {"type": "node", "id": 2686618772, "lat": 40.4944028, "lon": -3.6532281, "tags": {"highway": "crossing"}}, {"type": "node", "id": 2686618776, "lat": 40.4944247, "lon": -3.6528954, "tags": {"crossing": "uncontrolled", "highway": "crossing"}}, {"type": "node", "id": 2686618828, "lat": 40.4949871, "lon": -3.6522813, "tags": {"highway": "crossing"}}, {"type": "node", "id": 3978763788, "lat": 40.4934867, "lon": -3.6553445, "tags": {"highway": "crossing"}}, {"type": "node", "id": 4934334173, "lat": 40.4929544, "lon": -3.6544983, "tags": {"highway": "crossing"}}, {"type": "node", "id": 8214161792, "lat": 40.4952393, "lon": -3.6545524, "tags": {"crossing": "uncontrolled", "highway": "crossing"}}, {"type": "node", "id": 8214161793, "lat": 40.4951643, "lon": -3.6546413, "tags": {"crossing": "uncontrolled", "highway": "crossing"}}, {"type": "node", "id": 8214161794, "lat": 40.4946127, "lon": -3.6541297, "tags": {"crossing": "uncontrolled", "crossing:island": "no", "highway": "crossing", "tactile_paving": "yes"}}, {"type": "node", "id": 8214161795, "lat": 40.494959, "lon": -3.653755, "tags": {"crossing": "uncontrolled", "highway": "crossing"}}, {"type": "node", "id": 8214161796, "lat": 40.4960731, "lon": -3.6525362, "tags": {"crossing": "uncontrolled", "crossing:island": "no", "highway": "crossing", "tactile_paving": "yes"}}, {"type": "node", "id": 8214161797, "lat": 40.4955269, "lon": -3.6531337, "tags": {"crossing": "uncontrolled", "highway": "crossing"}}, {"type": "node", "id": 12219858613, "lat": 40.4957682, "lon": -3.6553988, "tags": {"crossing": "marked", "crossing:markings": "yes", "highway": "crossing"}}, {"type": "node", "id": 12219858616, "lat": 40.4956915, "lon": -3.6554806, "tags": {"crossing": "marked", "crossing:markings": "yes", "highway": "crossing"}}, {"type": "way", "id": 25994332, "nodes": [283577949, 2686618828, 2686618776, 293609714], "tags": {"highway": "residential", "lanes": "2", "lanes:backward": "1", "lanes:forward": "1", "maxspeed": "50", "name": "Calle de Octavio Paz", "name:etymology:wikidata": "Q46739", "oneway": "no", "postal_code": "28050", "source:maxspeed": "sign", "surface": "asphalt"}}, {"type": "way", "id": 25994333, "nodes": [283577865, 3978763788, 299316295, 8214161794, 283587349], "tags": {"highway": "residential", "lanes": "2", "lanes:backward": "1", "lanes:forward": "1", "lit": "yes", "name": "Calle de Vicente Blasco Ib\u00e1\u00f1ez", "name:etymology:wikidata": "Q219646", "oneway": "no", "postal_code": "28050", "surface": "asphalt"}}, {"type": "way", "id": 25994521, "nodes": [283578100, 12219858616, 283578024, 8214161793, 283587349, 2686618757, 283577970, 2686618667, 283595483, 2686618639, 283595481], "tags": {"highway": "residential", "lanes": "2", "maxspeed": "50", "name": "Calle de Isabel Clara Eugenia", "name:etymology:wikidata": "Q158256", "oneway": "yes", "postal_code": "28050", "source:maxspeed": "sign", "surface": "asphalt"}}, {"type": "way", "id": 25995321, "nodes": [283595180, 4934334173, 299316296, 2686618709, 283577970], "tags": {"highway": "residential", "lanes": "2", "lanes:backward": "1", "lanes:forward": "1", "lit": "yes", "name": "Calle de Octavio Paz", "name:etymology:wikidata": "Q46739", "oneway": "no", "postal_code": "28050", "surface": "asphalt"}}, {"type": "way", "id": 26768443, "nodes": [293609715, 2686618642, 2686618691, 293609714, 2686618772, 293609712, 8214161792, 293609711, 12219858613, 293609716], "tags": {"highway": "residential", "lanes": "2", "maxspeed": "50", "name": "Calle de Isabel Clara Eugenia", "name:etymology:wikidata": "Q158256", "oneway": "yes", "postal_code": "28050", "source:maxspeed": "sign", "surface": "asphalt"}}, {"type": "way", "id": 27268907, "nodes": [293609712, 8214161795, 8214161797, 8214161796, 283577948], "tags": {"highway": "residential", "lanes": "2", "lanes:backward": "1", "lanes:forward": "1", "maxspeed": "50", "name": "Calle de Vicente Blasco Ib\u00e1\u00f1ez", "name:etymology:wikidata": "Q219646", "oneway": "no", "postal_code": "28050", "source:maxspeed": "sign", "surface": "asphalt"}}]}