{"version": 0.6, "generator": "Overpass API 0.7.62.5 1bd436f1", "osm3s": {"timestamp_osm_base": "2025-03-23T12:40:35Z", "copyright": "The data included in this document is from www.openstreetmap.org. The data is made available under ODbL."}, "elements": [{"type": "node", "id": 21318582, "lat": 40.393116, "lon": -3.6296128}, {"type": "node", "id": 21318830, "lat": 40.3920824, "lon": -3.6299377}, {"type": "node", "id": 29275127, "lat": 40.3946449, "lon": -3.639764, "tags": {"highway": "motorway_junction", "ref": "6"}}, {"type": "node", "id": 29428751, "lat": 40.3915202, "lon": -3.6254643}, {"type": "node", "id": 29428857, "lat": 40.3910722, "lon": -3.622506, "tags": {"destination": "M-40; R-3 Valencia; A-2 R-2 A-1 M-607", "highway": "motorway_junction", "ref": "6"}}, {"type": "node", "id": 29430221, "lat": 40.3927906, "lon": -3.6326741}, {"type": "node", "id": 29433887, "lat": 40.3924648, "lon": -3.6312255}, {"type": "node", "id": 29433888, "lat": 40.3924713, "lon": -3.6317344}, {"type": "node", "id": 29433901, "lat": 40.3924273, "lon": -3.6308244}, {"type": "node", "id": 29463919, "lat": 40.3922249, "lon": -3.6303976}, {"type": "node", "id": 29465461, "lat": 40.3938339, "lon": -3.6326648}, {"type": "node", "id": 29465462, "lat": 40.3938053, "lon": -3.6323642}, {"type": "node", "id": 29465463, "lat": 40.3937541, "lon": -3.6321604}, {"type": "node", "id": 29465464, "lat": 40.3936586, "lon": -3.6319076}, {"type": "node", "id": 29465465, "lat": 40.393554, "lon": -3.6317188}, {"type": "node", "id": 29465466, "lat": 40.3934363, "lon": -3.6315042}, {"type": "node", "id": 29465467, "lat": 40.3933056, "lon": -3.6312811}, {"type": "node", "id": 29465468, "lat": 40.3931944, "lon": -3.6310236}, {"type": "node", "id": 29465469, "lat": 40.393116, "lon": -3.6307575}, {"type": "node", "id": 29466046, "lat": 40.3926841, "lon": -3.6288996}, {"type": "node", "id": 29466062, "lat": 40.3930523, "lon": -3.6303773}, {"type": "node", "id": 29466092, "lat": 40.3935192, "lon": -3.6297881}, {"type": "node", "id": 29466093, "lat": 40.3937236, "lon": -3.6297768}, {"type": "node", "id": 29466094, "lat": 40.3939001, "lon": -3.6298312}, {"type": "node", "id": 29466095, "lat": 40.3940311, "lon": -3.629951}, {"type": "node", "id": 29466096, "lat": 40.3941354, "lon": -3.6301487}, {"type": "node", "id": 29466097, "lat": 40.3941681, "lon": -3.6303547}, {"type": "node", "id": 29466098, "lat": 40.3941485, "lon": -3.630595}, {"type": "node", "id": 29466099, "lat": 40.394057, "lon": -3.6308354}, {"type": "node", "id": 29466100, "lat": 40.3939001, "lon": -3.6309899}, {"type": "node", "id": 29466101, "lat": 40.3937105, "lon": -3.6310671}, {"type": "node", "id": 29466102, "lat": 40.393534, "lon": -3.6310414}, {"type": "node", "id": 29466103, "lat": 40.3933575, "lon": -3.6309212}, {"type": "node", "id": 29466104, "lat": 40.3931794, "lon": -3.6307072}, {"type": "node", "id": 29466105, "lat": 40.3931623, "lon": -3.6298708}, {"type": "node", "id": 295756318, "lat": 40.3961906, "lon": -3.6281266, "tags": {"destination": "M-30;Av. del Mediterr\u00e1neo", "highway": "motorway_junction", "ref": "15A"}}, {"type": "node", "id": 316754666, "lat": 40.393795, "lon": -3.634935}, {"type": "node", "id": 355534353, "lat": 40.3945991, "lon": -3.6394791}, {"type": "node", "id": 1168641422, "lat": 40.3938148, "lon": -3.6331681}, {"type": "node", "id": 1224507709, "lat": 40.3924878, "lon": -3.6314737}, {"type": "node", "id": 1838511583, "lat": 40.3931027, "lon": -3.6293441}, {"type": "node", "id": 1838511584, "lat": 40.3939047, "lon": -3.6294366}, {"type": "node", "id": 1838511586, "lat": 40.3921235, "lon": -3.6301527}, {"type": "node", "id": 1838511587, "lat": 40.3957595, "lon": -3.6283852}, {"type": "node", "id": 1838511593, "lat": 40.3952856, "lon": -3.6286513}, {"type": "node", "id": 2537037310, "lat": 40.3940877, "lon": -3.6293326}, {"type": "node", "id": 2537037327, "lat": 40.394691, "lon": -3.6289895}, {"type": "node", "id": 4731025467, "lat": 40.3933879, "lon": -3.6338654}, {"type": "node", "id": 4731025468, "lat": 40.3935444, "lon": -3.6338147}, {"type": "node", "id": 4731025470, "lat": 40.3933872, "lon": -3.6351763}, {"type": "node", "id": 6352717800, "lat": 40.3931255, "lon": -3.6341138}, {"type": "way", "id": 4636299, "nodes": [29466062, 29466104, 29466103, 29466102, 29466101, 29466100, 29466099, 29466098, 29466097, 29466096, 29466095, 29466094, 29466093], "tags": {"highway": "motorway_link", "lanes": "2", "maxspeed": "40", "oneway": "yes", "surface": "asphalt"}}, {"type": "way", "id": 28907071, "nodes": [29466105, 29463919], "tags": {"bridge": "yes", "highway": "motorway_link", "lanes": "3", "layer": "1", "oneway": "yes", "surface": "asphalt"}}, {"type": "way", "id": 106431178, "nodes": [4731025470, 6352717800, 29430221, 29433901], "tags": {"highway": "motorway_link", "lanes": "2", "maxspeed": "50", "oneway": "yes", "surface": "asphalt"}}, {"type": "way", "id": 173022555, "nodes": [295756318, 1838511587, 1838511593, 2537037327, 2537037310, 1838511584, 29466105], "tags": {"destination": "E-901 A-3;Valencia;M-40;R-4 A-4 C\u00f3rdoba;A-42 R-5 A-5 A-6", "highway": "motorway_link", "lanes": "1", "oneway": "yes", "surface": "asphalt"}}, {"type": "way", "id": 173022557, "nodes": [21318582, 1838511586], "tags": {"bridge": "yes", "highway": "motorway", "int_ref": "E 05;E 90", "lanes": "3", "layer": "1", "maxspeed": "100", "name": "M-40", "name:etymology:wikidata": "Q2872994", "oneway": "yes", "ref": "M-40", "ref:colour": "blue", "source:name": "common knowledge", "surface": "asphalt", "wikidata": "Q2872994", "wikipedia": "es:M-40"}}, {"type": "way", "id": 173022560, "nodes": [21318830, 1838511583], "tags": {"bridge": "yes", "highway": "motorway", "int_ref": "E 05;E 90", "lanes": "3", "layer": "1", "maxspeed": "100", "name": "M-40", "name:etymology:wikidata": "Q2872994", "oneway": "yes", "ref": "M-40", "ref:colour": "blue", "surface": "asphalt"}}, {"type": "way", "id": 226002646, "nodes": [29465469, 29465468, 29465467, 29465466, 29465465, 29465464, 29465463, 29465462, 29465461, 1168641422], "tags": {"highway": "motorway_link", "lanes": "2", "maxspeed": "70", "oneway": "yes", "surface": "asphalt"}}, {"type": "way", "id": 246292507, "nodes": [29433888, 1224507709, 29433887, 29433901], "tags": {"highway": "motorway_link", "lanes": "1", "oneway": "yes", "surface": "asphalt"}}, {"type": "way", "id": 246292532, "nodes": [29275127, 355534353, 4731025467, 29428751], "tags": {"alt_name": "Avenida del Mediterr\u00e1neo", "highway": "motorway", "int_ref": "E 901", "lanes": "3", "lit": "yes", "maxspeed": "100", "name": "Autov\u00eda del Este", "oneway": "yes", "ref": "A-3", "surface": "asphalt"}}, {"type": "way", "id": 246293683, "nodes": [29428857, 4731025468, 316754666], "tags": {"highway": "motorway", "int_ref": "E 901", "lanes": "3", "lit": "yes", "maxspeed": "100", "name": "Autov\u00eda del Este", "oneway": "yes", "ref": "A-3", "surface": "asphalt"}}, {"type": "way", "id": 246697510, "nodes": [29466093, 29466092, 29466105], "tags": {"highway": "motorway_link", "lanes": "1", "maxspeed": "40", "oneway": "yes", "surface": "asphalt"}}, {"type": "way", "id": 252014959, "nodes": [29466062, 29465469], "tags": {"highway": "motorway_link", "lanes": "2", "maxspeed": "70", "oneway": "yes", "surface": "asphalt"}}, {"type": "way", "id": 480076171, "nodes": [29466046, 29466062], "tags": {"highway": "motorway_link", "lanes": "3", "maxspeed": "70", "oneway": "yes", "surface": "asphalt", "turn:lanes": "through|through|slight_right"}}]}