{"version": 0.6, "generator": "Overpass API 0.7.62.5 1bd436f1", "osm3s": {"timestamp_osm_base": "2025-03-23T11:13:15Z", "copyright": "The data included in this document is from www.openstreetmap.org. The data is made available under ODbL."}, "elements": [{"type": "node", "id": 308619372, "lat": 40.3715811, "lon": -3.6184997}, {"type": "node", "id": 309889067, "lat": 40.3720313, "lon": -3.6171307}, {"type": "node", "id": 309889081, "lat": 40.3718153, "lon": -3.6177788}, {"type": "node", "id": 309889082, "lat": 40.3718574, "lon": -3.6170429, "tags": {"noexit": "yes", "source": "PNOA", "source:date": "2009"}}, {"type": "node", "id": 309889704, "lat": 40.3708466, "lon": -3.61793}, {"type": "node", "id": 309889705, "lat": 40.3716, "lon": -3.6161784}, {"type": "node", "id": 309889706, "lat": 40.3711268, "lon": -3.6158202}, {"type": "node", "id": 309889707, "lat": 40.3708842, "lon": -3.6163713}, {"type": "node", "id": 819551571, "lat": 40.3719633, "lon": -3.6153366}, {"type": "node", "id": 1538868121, "lat": 40.3706922, "lon": -3.6154916}, {"type": "node", "id": 1538868276, "lat": 40.3704084, "lon": -3.6160118}, {"type": "node", "id": 1538868341, "lat": 40.370166, "lon": -3.6165642}, {"type": "node", "id": 1538868398, "lat": 40.3711239, "lon": -3.6172828}, {"type": "node", "id": 1538868421, "lat": 40.3713581, "lon": -3.6167294}, {"type": "node", "id": 1758322228, "lat": 40.3706403, "lon": -3.61692, "tags": {"highway": "crossing"}}, {"type": "node", "id": 2684950060, "lat": 40.3709049, "lon": -3.617787, "tags": {"highway": "crossing"}}, {"type": "node", "id": 3638047814, "lat": 40.3718634, "lon": -3.6155626, "tags": {"crossing:island": "no", "crossing:markings": "yes", "crossing:signals": "no", "highway": "crossing", "source": "PNOA", "source:date": "2011", "tactile_paving": "yes"}}, {"type": "node", "id": 3972367902, "lat": 40.3715537, "lon": -3.6162818, "tags": {"highway": "crossing", "source": "PNOA", "source:date": "2011"}}, {"type": "node", "id": 3972367906, "lat": 40.3716677, "lon": -3.6160238, "tags": {"crossing:island": "no", "crossing:markings": "yes", "crossing:signals": "no", "highway": "crossing", "source": "PNOA", "source:date": "2011", "tactile_paving": "yes"}}, {"type": "node", "id": 5209232761, "lat": 40.371598, "lon": -3.6184126, "tags": {"crossing": "zebra", "highway": "crossing"}}, {"type": "node", "id": 8008116461, "lat": 40.3717873, "lon": -3.6178649, "tags": {"highway": "crossing"}}, {"type": "node", "id": 8008116467, "lat": 40.3715875, "lon": -3.6184632, "tags": {"highway": "give_way"}}, {"type": "node", "id": 11775079541, "lat": 40.3710591, "lon": -3.6171667}, {"type": "node", "id": 11775079542, "lat": 40.3710373, "lon": -3.6172178, "tags": {"highway": "crossing"}}, {"type": "node", "id": 11775079543, "lat": 40.3710162, "lon": -3.6172526}, {"type": "node", "id": 11775079544, "lat": 40.371288, "lon": -3.6166276}, {"type": "node", "id": 11775079545, "lat": 40.3712705, "lon": -3.6166632, "tags": {"highway": "crossing"}}, {"type": "node", "id": 11775079546, "lat": 40.3712563, "lon": -3.6167027}, {"type": "node", "id": 11775079547, "lat": 40.3709805, "lon": -3.616413}, {"type": "node", "id": 11775079548, "lat": 40.370966, "lon": -3.6164331, "tags": {"crossing:markings": "yes", "crossing:signals": "no", "highway": "crossing", "tactile_paving": "yes"}}, {"type": "node", "id": 11775079549, "lat": 40.3709427, "lon": -3.6164841}, {"type": "node", "id": 11775079551, "lat": 40.3716231, "lon": -3.6159959}, {"type": "node", "id": 11775079552, "lat": 40.3717192, "lon": -3.6160603}, {"type": "node", "id": 11775079553, "lat": 40.3715302, "lon": -3.6162615}, {"type": "node", "id": 11775079554, "lat": 40.3715874, "lon": -3.6163071}, {"type": "node", "id": 11775079555, "lat": 40.3715302, "lon": -3.6160737}, {"type": "node", "id": 11775079556, "lat": 40.3715142, "lon": -3.6161134, "tags": {"crossing:island": "no", "crossing:markings": "yes", "crossing:signals": "no", "highway": "crossing", "tactile_paving": "yes"}}, {"type": "node", "id": 11775079557, "lat": 40.3714944, "lon": -3.6161569}, {"type": "node", "id": 11775079559, "lat": 40.3712021, "lon": -3.6158772, "tags": {"crossing:island": "no", "crossing:markings": "yes", "crossing:signals": "no", "highway": "crossing", "tactile_paving": "yes"}}, {"type": "node", "id": 11775093380, "lat": 40.3706567, "lon": -3.6168831}, {"type": "node", "id": 11775093382, "lat": 40.3710164, "lon": -3.6157367, "tags": {"crossing:island": "no", "crossing:markings": "yes", "crossing:signals": "no", "highway": "crossing", "tactile_paving": "yes"}}, {"type": "node", "id": 11775093384, "lat": 40.3707894, "lon": -3.6162481}, {"type": "node", "id": 11775093385, "lat": 40.370774, "lon": -3.6162881, "tags": {"crossing:markings": "yes", "crossing:signals": "no", "highway": "crossing", "tactile_paving": "yes"}}, {"type": "node", "id": 11775093386, "lat": 40.3707669, "lon": -3.6163138}, {"type": "node", "id": 11775093388, "lat": 40.370509, "lon": -3.6160878, "tags": {"highway": "crossing"}}, {"type": "node", "id": 11775093400, "lat": 40.3702606, "lon": -3.6166352, "tags": {"highway": "crossing"}}, {"type": "node", "id": 11775957607, "lat": 40.3719956, "lon": -3.6171127, "tags": {"highway": "crossing"}}, {"type": "node", "id": 11775957610, "lat": 40.372017, "lon": -3.6171735, "tags": {"highway": "crossing"}}, {"type": "node", "id": 12187532698, "lat": 40.3716837, "lon": -3.6160351}, {"type": "node", "id": 12187532699, "lat": 40.3716509, "lon": -3.6160133}, {"type": "node", "id": 12187543131, "lat": 40.371504, "lon": -3.6161358}, {"type": "node", "id": 12187543132, "lat": 40.3715228, "lon": -3.6160921}, {"type": "node", "id": 12187545239, "lat": 40.3709559, "lon": -3.6164552}, {"type": "node", "id": 12187549138, "lat": 40.3707823, "lon": -3.6162666}, {"type": "way", "id": 28214031, "nodes": [309889704, 2684950060, 1538868398, 1538868421, 3972367902, 309889705, 3972367906, 3638047814, 819551571], "tags": {"highway": "residential", "name": "Calle Villar del Pozo", "postal_code": "28031", "surface": "asphalt"}}, {"type": "way", "id": 67909773, "nodes": [309889705, 11775079556, 11775079559, 309889706, 11775093382, 1538868121], "tags": {"highway": "residential", "name": "Calle de Torredonjimeno", "surface": "asphalt"}}, {"type": "way", "id": 83377073, "nodes": [309889067, 11775957610, 309889081, 8008116461, 5209232761, 8008116467, 308619372], "tags": {"highway": "residential", "name": "Calle de la Sierra de Tortejada", "oneway": "yes", "postal_code": "28031", "source": "PNOA", "source:date": "2009", "surface": "asphalt"}}, {"type": "way", "id": 140462864, "nodes": [1538868398, 11775079542, 1758322228, 11775093400, 1538868341], "tags": {"highway": "residential", "name": "Calle de Torre de Juan Abad", "surface": "asphalt"}}, {"type": "way", "id": 140462871, "nodes": [1538868276, 11775093388, 11775093385, 309889707, 11775079548, 11775079545, 1538868421], "tags": {"highway": "residential", "lanes": "1", "name": "Calle de Muela de San Juan", "oneway": "yes", "surface": "asphalt"}}, {"type": "way", "id": 140462885, "nodes": [309889706, 309889707], "tags": {"highway": "residential", "name": "Calle Villalba de la Sierra", "surface": "asphalt"}}, {"type": "way", "id": 140513066, "nodes": [309889067, 11775957607, 309889082], "tags": {"highway": "service", "service": "parking_aisle"}}, {"type": "way", "id": 1267866076, "nodes": [11775079543, 11775079542, 11775079541], "tags": {"footway": "crossing", "highway": "footway"}}, {"type": "way", "id": 1267866077, "nodes": [11775079546, 11775079545, 11775079544], "tags": {"footway": "crossing", "highway": "footway"}}, {"type": "way", "id": 1267866078, "nodes": [12187545239, 11775079548, 11775079547], "tags": {"footway": "crossing", "highway": "footway", "surface": "asphalt"}}, {"type": "way", "id": 1267866080, "nodes": [12187532698, 3972367906, 12187532699], "tags": {"footway": "crossing", "highway": "footway", "surface": "asphalt"}}, {"type": "way", "id": 1267866081, "nodes": [11775079554, 3972367902, 11775079553], "tags": {"footway": "crossing", "highway": "footway"}}, {"type": "way", "id": 1267866082, "nodes": [12187543131, 11775079556, 12187543132], "tags": {"footway": "crossing", "highway": "footway", "surface": "asphalt"}}, {"type": "way", "id": 1267866094, "nodes": [309889707, 11775093380], "tags": {"highway": "pedestrian"}}, {"type": "way", "id": 1267866096, "nodes": [11775093386, 11775093385, 12187549138], "tags": {"footway": "crossing", "highway": "footway", "surface": "asphalt"}}, {"type": "way", "id": 1316849301, "nodes": [12187549138, 11775093384], "tags": {"footway": "crossing", "highway": "footway", "surface": "paving_stones"}}, {"type": "way", "id": 1316849379, "nodes": [11775079549, 12187545239], "tags": {"footway": "crossing", "highway": "footway", "surface": "paving_stones"}}, {"type": "way", "id": 1316850219, "nodes": [11775079557, 12187543131], "tags": {"footway": "crossing", "highway": "footway", "surface": "paving_stones"}}, {"type": "way", "id": 1316850220, "nodes": [12187543132, 11775079555], "tags": {"footway": "crossing", "highway": "footway", "surface": "paving_stones"}}, {"type": "way", "id": 1316850327, "nodes": [11775079552, 12187532698], "tags": {"footway": "crossing", "highway": "footway", "surface": "paving_stones"}}, {"type": "way", "id": 1316850328, "nodes": [12187532699, 11775079551], "tags": {"footway": "crossing", "highway": "footway", "surface": "paving_stones"}}]}