{"version": 0.6, "generator": "Overpass API 0.7.62.5 1bd436f1", "osm3s": {"timestamp_osm_base": "2025-03-23T14:42:29Z", "copyright": "The data included in this document is from www.openstreetmap.org. The data is made available under ODbL."}, "elements": [{"type": "node", "id": 25901923, "lat": 40.4235291, "lon": -3.6929138, "tags": {"source": "yahoo_maps"}}, {"type": "node", "id": 25906140, "lat": 40.4256672, "lon": -3.6929399, "tags": {"source": "yahoo_maps"}}, {"type": "node", "id": 25906150, "lat": 40.4254922, "lon": -3.6921521, "tags": {"source": "yahoo_maps"}}, {"type": "node", "id": 25906153, "lat": 40.424841, "lon": -3.693255, "tags": {"source": "yahoo_maps"}}, {"type": "node", "id": 370503465, "lat": 40.4257689, "lon": -3.6920459}, {"type": "node", "id": 370503475, "lat": 40.4249783, "lon": -3.6938763, "tags": {"barrier": "lift_gate", "foot": "yes"}}, {"type": "node", "id": 370503496, "lat": 40.4246979, "lon": -3.692607}, {"type": "node", "id": 370503497, "lat": 40.4246894, "lon": -3.6925697}, {"type": "node", "id": 370503507, "lat": 40.4250912, "lon": -3.6923075}, {"type": "node", "id": 370503508, "lat": 40.4251093, "lon": -3.6924042, "tags": {"amenity": "parking", "capacity": "342", "fee": "yes", "layer": "-1", "name": "Villa de Par\u00eds", "park_ride": "no", "parking": "underground"}}, {"type": "node", "id": 390582262, "lat": 40.4249644, "lon": -3.6923566}, {"type": "node", "id": 390582264, "lat": 40.4249207, "lon": -3.6921427, "tags": {"amenity": "parking", "layer": "-1", "name": "Centro Col\u00f3n", "parking": "underground"}}, {"type": "node", "id": 3424801043, "lat": 40.4236177, "lon": -3.6928785, "tags": {"button_operated": "no", "crossing": "traffic_signals", "highway": "crossing", "tactile_paving": "yes", "traffic_signals:sound": "no", "traffic_signals:vibration": "no"}}, {"type": "node", "id": 3424801051, "lat": 40.4249841, "lon": -3.6939025, "tags": {"highway": "crossing"}}, {"type": "node", "id": 3424801052, "lat": 40.4250664, "lon": -3.6931662, "tags": {"highway": "crossing"}}, {"type": "node", "id": 3428425015, "lat": 40.4256336, "lon": -3.6920974, "tags": {"crossing": "uncontrolled", "crossing:markings": "zebra", "highway": "crossing", "tactile_paving": "yes"}}, {"type": "node", "id": 9397718488, "lat": 40.4251038, "lon": -3.692375, "tags": {"highway": "crossing"}}, {"type": "node", "id": 9397983006, "lat": 40.4251361, "lon": -3.6928071, "tags": {"highway": "street_lamp"}}, {"type": "node", "id": 9397983007, "lat": 40.4252522, "lon": -3.6925531, "tags": {"highway": "street_lamp"}}, {"type": "node", "id": 9397983008, "lat": 40.4252932, "lon": -3.6927615, "tags": {"highway": "street_lamp"}}, {"type": "node", "id": 9397983009, "lat": 40.425099, "lon": -3.6926131, "tags": {"highway": "street_lamp"}}, {"type": "node", "id": 9398011424, "lat": 40.4250072, "lon": -3.6940072}, {"type": "way", "id": 7972362, "nodes": [370503496, 25906153, 370503475, 3424801051, 9398011424], "tags": {"access": "private", "foot": "yes", "highway": "pedestrian", "lit": "yes", "name": "Plaza de la Villa de Par\u00eds", "name:etymology:wikidata": "Q6080233", "postal_code": "28004", "sidewalk": "both", "surface": "asphalt"}}, {"type": "way", "id": 32897810, "nodes": [370503465, 3428425015, 25906150, 370503507, 390582262, 3424801043, 25901923], "tags": {"highway": "residential", "maxspeed": "50", "name": "Calle del Marqu\u00e9s de la Ensenada", "oneway": "yes", "postal_code": "28004", "sidewalk": "both", "surface": "asphalt"}}, {"type": "way", "id": 32897817, "nodes": [370503496, 370503497], "tags": {"created_by": "JOSM", "highway": "steps"}}, {"type": "way", "id": 32897828, "nodes": [370503507, 9397718488, 370503508], "tags": {"highway": "service"}}, {"type": "way", "id": 32897840, "nodes": [25906140, 3424801052, 25906153], "tags": {"access": "private", "foot": "yes", "highway": "pedestrian", "oneway": "yes", "surface": "paving_stones"}}, {"type": "way", "id": 34083902, "nodes": [390582262, 390582264], "tags": {"highway": "service"}}]}