{"version": 0.6, "generator": "Overpass API 0.7.62.5 1bd436f1", "osm3s": {"timestamp_osm_base": "2025-03-23T14:16:01Z", "copyright": "The data included in this document is from www.openstreetmap.org. The data is made available under ODbL."}, "elements": [{"type": "node", "id": 306256105, "lat": 40.3461229, "lon": -3.7112895}, {"type": "node", "id": 306266964, "lat": 40.3456987, "lon": -3.7103939}, {"type": "node", "id": 306358799, "lat": 40.3452918, "lon": -3.7109906}, {"type": "node", "id": 306358805, "lat": 40.3445222, "lon": -3.7127329}, {"type": "node", "id": 306358809, "lat": 40.3450415, "lon": -3.7120817}, {"type": "node", "id": 306358814, "lat": 40.3448154, "lon": -3.7110508}, {"type": "node", "id": 306358816, "lat": 40.3443261, "lon": -3.7111684}, {"type": "node", "id": 306358817, "lat": 40.3453257, "lon": -3.712616}, {"type": "node", "id": 306358822, "lat": 40.3456162, "lon": -3.7110983}, {"type": "node", "id": 306358830, "lat": 40.3453795, "lon": -3.7110232}, {"type": "node", "id": 306358834, "lat": 40.3452185, "lon": -3.7109779}, {"type": "node", "id": 306358838, "lat": 40.3450259, "lon": -3.7101309}, {"type": "node", "id": 306358839, "lat": 40.3450329, "lon": -3.7097553}, {"type": "node", "id": 306358840, "lat": 40.3450274, "lon": -3.709541, "tags": {"crossing": "uncontrolled", "highway": "crossing", "tactile_paving": "no"}}, {"type": "node", "id": 306358845, "lat": 40.3452832, "lon": -3.7102489}, {"type": "node", "id": 306359545, "lat": 40.3442537, "lon": -3.7106907}, {"type": "node", "id": 306359546, "lat": 40.344273, "lon": -3.7104332}, {"type": "node", "id": 306359547, "lat": 40.3443479, "lon": -3.7103233}, {"type": "node", "id": 306359548, "lat": 40.3444415, "lon": -3.7102559}, {"type": "node", "id": 306359549, "lat": 40.3446958, "lon": -3.7101556}, {"type": "node", "id": 316022521, "lat": 40.3451367, "lon": -3.7097535}, {"type": "node", "id": 384846803, "lat": 40.3458332, "lon": -3.7104374}, {"type": "node", "id": 385329921, "lat": 40.3449803, "lon": -3.7099575}, {"type": "node", "id": 457481062, "lat": 40.3450098, "lon": -3.7128064}, {"type": "node", "id": 459688029, "lat": 40.3460083, "lon": -3.7112313}, {"type": "node", "id": 459689080, "lat": 40.3462407, "lon": -3.7113558}, {"type": "node", "id": 1367876425, "lat": 40.3449327, "lon": -3.712766, "tags": {"crossing": "uncontrolled", "highway": "crossing", "tactile_paving": "yes"}}, {"type": "node", "id": 1367877049, "lat": 40.3449142, "lon": -3.7126738}, {"type": "node", "id": 1876194515, "lat": 40.3453467, "lon": -3.7125234, "tags": {"crossing": "uncontrolled", "highway": "crossing", "tactile_paving": "yes"}}, {"type": "node", "id": 3223695806, "lat": 40.34537, "lon": -3.7109472, "tags": {"crossing": "zebra", "highway": "crossing", "tactile_paving": "yes"}}, {"type": "node", "id": 3556616840, "lat": 40.3442609, "lon": -3.7107579}, {"type": "node", "id": 3556616844, "lat": 40.3447998, "lon": -3.7111372, "tags": {"crossing": "uncontrolled", "highway": "crossing", "tactile_paving": "no"}}, {"type": "node", "id": 3556616845, "lat": 40.3448234, "lon": -3.7105714}, {"type": "node", "id": 3556616846, "lat": 40.3448829, "lon": -3.7109006, "tags": {"noexit": "yes"}}, {"type": "node", "id": 3556616851, "lat": 40.345271, "lon": -3.7110813, "tags": {"crossing": "uncontrolled", "highway": "crossing", "tactile_paving": "yes"}}, {"type": "node", "id": 3620963870, "lat": 40.3450678, "lon": -3.7119669}, {"type": "node", "id": 3620963873, "lat": 40.3456054, "lon": -3.7111548, "tags": {"crossing": "uncontrolled", "highway": "crossing", "tactile_paving": "yes"}}, {"type": "node", "id": 3627378739, "lat": 40.345142, "lon": -3.7109917, "tags": {"crossing": "uncontrolled", "highway": "crossing", "tactile_paving": "yes"}}, {"type": "node", "id": 3627378740, "lat": 40.3452001, "lon": -3.7108934, "tags": {"crossing": "uncontrolled", "highway": "crossing", "tactile_paving": "yes"}}, {"type": "node", "id": 3627378741, "lat": 40.3452819, "lon": -3.7110338, "tags": {"highway": "give_way"}}, {"type": "node", "id": 3627472399, "lat": 40.3443134, "lon": -3.7110885, "tags": {"crossing": "uncontrolled", "highway": "crossing", "tactile_paving": "yes"}}, {"type": "node", "id": 5383019222, "lat": 40.3458793, "lon": -3.710455}, {"type": "node", "id": 5383019225, "lat": 40.3458251, "lon": -3.7106551}, {"type": "node", "id": 5383019226, "lat": 40.3456544, "lon": -3.7107678}, {"type": "node", "id": 5383019227, "lat": 40.3456147, "lon": -3.7107566}, {"type": "node", "id": 5383019228, "lat": 40.3455324, "lon": -3.7106651}, {"type": "node", "id": 5383019229, "lat": 40.3454842, "lon": -3.7105934}, {"type": "node", "id": 5383019230, "lat": 40.3454908, "lon": -3.7106726}, {"type": "node", "id": 5383019231, "lat": 40.3456355, "lon": -3.7106468}, {"type": "node", "id": 5383019232, "lat": 40.3458164, "lon": -3.710698}, {"type": "node", "id": 5383019269, "lat": 40.3455913, "lon": -3.7108799}, {"type": "node", "id": 5383019270, "lat": 40.3456409, "lon": -3.7106183}, {"type": "node", "id": 5383019274, "lat": 40.3456634, "lon": -3.7109178}, {"type": "node", "id": 5383019275, "lat": 40.3456485, "lon": -3.7110016}, {"type": "node", "id": 5383019276, "lat": 40.345642, "lon": -3.7110378}, {"type": "node", "id": 5383019277, "lat": 40.3456362, "lon": -3.7110702}, {"type": "node", "id": 5383019278, "lat": 40.3456804, "lon": -3.7108228, "tags": {"access": "private", "amenity": "parking_entrance", "parking": "underground"}}, {"type": "node", "id": 5414443633, "lat": 40.344921, "lon": -3.7100692}, {"type": "node", "id": 5416555649, "lat": 40.3455074, "lon": -3.7091832}, {"type": "node", "id": 5418413773, "lat": 40.3455164, "lon": -3.7092411, "tags": {"crossing": "unmarked", "highway": "crossing", "tactile_paving": "no"}}, {"type": "node", "id": 5418413790, "lat": 40.3457071, "lon": -3.7103519, "tags": {"crossing": "unmarked", "highway": "crossing", "tactile_paving": "yes"}}, {"type": "node", "id": 5418413791, "lat": 40.3456578, "lon": -3.7102977}, {"type": "node", "id": 5418413792, "lat": 40.3455249, "lon": -3.7092976}, {"type": "node", "id": 5418413793, "lat": 40.3457469, "lon": -3.7103659}, {"type": "node", "id": 5418413794, "lat": 40.3458108, "lon": -3.7103885}, {"type": "node", "id": 5418413797, "lat": 40.3456358, "lon": -3.7103266}, {"type": "node", "id": 5418413808, "lat": 40.3456007, "lon": -3.7092671}, {"type": "node", "id": 9487958585, "lat": 40.3448697, "lon": -3.7100889}, {"type": "node", "id": 10809124311, "lat": 40.3462012, "lon": -3.7113419}, {"type": "node", "id": 10809124314, "lat": 40.3460509, "lon": -3.7112463}, {"type": "node", "id": 10809124317, "lat": 40.3461604, "lon": -3.7113248}, {"type": "node", "id": 10809124318, "lat": 40.3460798, "lon": -3.7112563}, {"type": "node", "id": 11768532525, "lat": 40.345567, "lon": -3.7111497}, {"type": "node", "id": 11768532526, "lat": 40.3456443, "lon": -3.7111608}, {"type": "node", "id": 11769875003, "lat": 40.3447593, "lon": -3.7111354}, {"type": "node", "id": 11769875004, "lat": 40.3448379, "lon": -3.7111306}, {"type": "node", "id": 11769875005, "lat": 40.3451257, "lon": -3.7109117}, {"type": "node", "id": 11769875006, "lat": 40.345151, "lon": -3.711045}, {"type": "node", "id": 11769875007, "lat": 40.3453239, "lon": -3.7109355}, {"type": "node", "id": 11769875008, "lat": 40.3454001, "lon": -3.7109641}, {"type": "node", "id": 11769875009, "lat": 40.3451619, "lon": -3.7108975}, {"type": "node", "id": 11769875010, "lat": 40.3452393, "lon": -3.7108864}, {"type": "node", "id": 11769875011, "lat": 40.3452369, "lon": -3.7110593}, {"type": "node", "id": 11769875012, "lat": 40.3453118, "lon": -3.7110799}, {"type": "node", "id": 11869717517, "lat": 40.3455844, "lon": -3.7094502}, {"type": "node", "id": 12318576048, "lat": 40.3442515, "lon": -3.7105572}, {"type": "way", "id": 27893567, "nodes": [459689080, 10809124311, 10809124317, 306256105, 10809124318, 10809124314, 459688029, 306358822], "tags": {"highway": "pedestrian", "name": "Calle de la Aladierna", "surface": "paving_stones"}}, {"type": "way", "id": 27908667, "nodes": [457481062, 1367876425, 1367877049, 306358809, 3620963870, 3556616851, 3627378741, 306358799], "tags": {"highway": "residential", "lanes": "1", "maxspeed": "30", "name": "Calle de las Arenas", "oneway": "yes", "postal_code": "28021", "surface": "asphalt"}}, {"type": "way", "id": 27908670, "nodes": [306358814, 3556616844, 306358805], "tags": {"highway": "residential", "lanes": "1", "maxspeed": "30", "name": "Calle de Nuestra Se\u00f1ora de Bego\u00f1a", "oneway": "yes", "postal_code": "28021", "surface": "asphalt"}}, {"type": "way", "id": 27908673, "nodes": [306358822, 3620963873, 1876194515, 306358817], "tags": {"highway": "residential", "lanes": "1", "maxspeed": "30", "name": "Calle del Oasis", "oneway": "yes", "postal_code": "28021", "surface": "asphalt"}}, {"type": "way", "id": 27908678, "nodes": [306358834, 3627378740, 306358838, 385329921, 306358839, 306358840], "tags": {"highway": "residential", "lanes": "1", "maxspeed": "30", "name": "Calle de Monterde", "oneway": "yes", "postal_code": "28021", "surface": "asphalt"}}, {"type": "way", "id": 27908680, "nodes": [306266964, 384846803, 5383019222], "tags": {"highway": "residential", "lane_markings": "no", "maxspeed": "30", "name": "Paseo de las Moreras", "surface": "paving_stones"}}, {"type": "way", "id": 27908796, "nodes": [306358816, 3627472399, 3556616840, 306359545, 12318576048, 306359546, 306359547, 306359548, 306359549, 9487958585, 5414443633, 385329921], "tags": {"highway": "residential", "lanes": "1", "maxspeed": "30", "name": "Calle de Calamocha", "oneway": "yes", "postal_code": "28021", "surface": "asphalt"}}, {"type": "way", "id": 38673615, "nodes": [306358840, 316022521, 306358845, 3223695806, 306358830], "tags": {"highway": "residential", "lanes": "1", "maxspeed": "30", "name": "Calle de Escand\u00f3n", "oneway": "yes", "postal_code": "28021", "surface": "asphalt"}}, {"type": "way", "id": 38765248, "nodes": [306358799, 306358834, 3627378739, 306358814, 306358816], "tags": {"highway": "residential", "lane_markings": "no", "maxspeed": "30", "name": "Calle de Villastar", "oneway": "yes", "postal_code": "28021", "surface": "asphalt"}}, {"type": "way", "id": 38765558, "nodes": [306358830, 306358822], "tags": {"highway": "residential", "lanes": "1", "maxspeed": "30", "name": "Calle de la Aladierna", "oneway": "yes", "postal_code": "28021", "surface": "asphalt"}}, {"type": "way", "id": 38765590, "nodes": [306358830, 306358799], "tags": {"highway": "residential", "lanes": "1", "maxspeed": "30", "name": "Calle de la Aladierna", "oneway": "yes", "surface": "asphalt"}}, {"type": "way", "id": 349877740, "nodes": [3556616840, 3556616845], "tags": {"highway": "service", "name": "Calle de Tortajada", "service": "parking_aisle", "surface": "dirt"}}, {"type": "way", "id": 356682624, "nodes": [5383019276, 5383019275, 5383019274], "tags": {"highway": "service", "incline": "down", "maxheight:signed": "no", "service": "driveway", "tunnel": "building_passage"}}, {"type": "way", "id": 558257318, "nodes": [5383019227, 5383019226], "tags": {"highway": "footway"}}, {"type": "way", "id": 558257319, "nodes": [5383019229, 5383019228], "tags": {"highway": "footway"}}, {"type": "way", "id": 558257320, "nodes": [5383019225, 5383019232, 5383019231, 5383019228, 5383019230], "tags": {"highway": "footway"}}, {"type": "way", "id": 558257336, "nodes": [5383019270, 5383019231, 5383019227, 5383019269], "tags": {"highway": "footway"}}, {"type": "way", "id": 558257338, "nodes": [5383019274, 5383019278], "tags": {"highway": "service", "incline": "down", "service": "driveway"}}, {"type": "way", "id": 558257339, "nodes": [306358822, 5383019277, 5383019276], "tags": {"highway": "service", "service": "driveway"}}, {"type": "way", "id": 562010718, "nodes": [306358845, 306266964], "tags": {"highway": "residential", "lanes": "1", "maxspeed": "30", "name": "Paseo de las Moreras", "oneway": "yes", "postal_code": "28021", "sidewalk": "both", "surface": "asphalt"}}, {"type": "way", "id": 562010723, "nodes": [5418413797, 5418413791], "tags": {"highway": "footway", "surface": "asphalt"}}, {"type": "way", "id": 562010724, "nodes": [5418413791, 5418413792, 5418413773, 5416555649], "tags": {"highway": "footway", "surface": "paving_stones"}}, {"type": "way", "id": 562010725, "nodes": [5418413794, 5418413793, 5418413790, 5418413797], "tags": {"highway": "footway", "surface": "paving_stones"}}, {"type": "way", "id": 562010728, "nodes": [5418413808, 5418413793], "tags": {"highway": "footway", "surface": "paving_stones"}}, {"type": "way", "id": 1029112825, "nodes": [3556616845, 9487958585], "tags": {"highway": "footway", "name": "Calle de Terriente", "surface": "dirt"}}, {"type": "way", "id": 1029112826, "nodes": [3556616845, 3556616846], "tags": {"highway": "service", "name": "Calle de Terriente", "service": "parking_aisle", "surface": "dirt"}}, {"type": "way", "id": 1267057775, "nodes": [11768532526, 3620963873, 11768532525], "tags": {"footway": "crossing", "highway": "footway", "surface": "asphalt"}}, {"type": "way", "id": 1267229971, "nodes": [11769875004, 3556616844, 11769875003], "tags": {"footway": "crossing", "highway": "footway", "surface": "asphalt"}}, {"type": "way", "id": 1267229972, "nodes": [11769875006, 3627378739, 11769875005], "tags": {"footway": "crossing", "highway": "footway", "surface": "asphalt"}}, {"type": "way", "id": 1267229973, "nodes": [11769875008, 3223695806, 11769875007], "tags": {"footway": "crossing", "highway": "footway", "surface": "asphalt"}}, {"type": "way", "id": 1267229974, "nodes": [11769875010, 3627378740, 11769875009], "tags": {"footway": "crossing", "highway": "footway", "surface": "asphalt"}}, {"type": "way", "id": 1267229975, "nodes": [11769875012, 3556616851, 11769875011], "tags": {"footway": "crossing", "highway": "footway", "surface": "asphalt"}}, {"type": "way", "id": 1278586991, "nodes": [306266964, 5418413790, 11869717517], "tags": {"highway": "residential", "lane_markings": "no", "maxspeed": "30", "name": "Calle de Parvillas Bajas", "oneway": "yes", "postal_code": "28021", "surface": "asphalt"}}]}