{"version": 0.6, "generator": "Overpass API 0.7.62.5 1bd436f1", "osm3s": {"timestamp_osm_base": "2025-03-23T15:46:56Z", "copyright": "The data included in this document is from www.openstreetmap.org. The data is made available under ODbL."}, "elements": [{"type": "node", "id": 24969409, "lat": 40.4291088, "lon": -3.6237494}, {"type": "node", "id": 24969412, "lat": 40.4289153, "lon": -3.6239303}, {"type": "node", "id": 24969415, "lat": 40.428676, "lon": -3.624169}, {"type": "node", "id": 334541621, "lat": 40.4294277, "lon": -3.6269139}, {"type": "node", "id": 334541665, "lat": 40.4292869, "lon": -3.6258902}, {"type": "node", "id": 334541864, "lat": 40.4299932, "lon": -3.6263361}, {"type": "node", "id": 1596099468, "lat": 40.4281994, "lon": -3.6257564}, {"type": "node", "id": 1596099470, "lat": 40.429654, "lon": -3.624841}, {"type": "node", "id": 1596099472, "lat": 40.4293386, "lon": -3.626255}, {"type": "node", "id": 1596099486, "lat": 40.4297817, "lon": -3.6245137}, {"type": "node", "id": 1596099494, "lat": 40.430487, "lon": -3.6254225}, {"type": "node", "id": 1596099503, "lat": 40.4293636, "lon": -3.6254682}, {"type": "node", "id": 1602163815, "lat": 40.4293554, "lon": -3.6242046}, {"type": "node", "id": 1602163847, "lat": 40.4303882, "lon": -3.6249302}, {"type": "node", "id": 1602163857, "lat": 40.4292389, "lon": -3.6240008}, {"type": "node", "id": 1602163863, "lat": 40.4293308, "lon": -3.6261971}, {"type": "node", "id": 1602163864, "lat": 40.4293767, "lon": -3.6265365}, {"type": "node", "id": 2455932725, "lat": 40.4287867, "lon": -3.6255914}, {"type": "node", "id": 2455932746, "lat": 40.4290473, "lon": -3.6248164}, {"type": "node", "id": 2455932769, "lat": 40.4292721, "lon": -3.6246034}, {"type": "node", "id": 2455932806, "lat": 40.4297712, "lon": -3.6253001, "tags": {"noexit": "yes"}}, {"type": "node", "id": 2455932828, "lat": 40.4302084, "lon": -3.6260693}, {"type": "node", "id": 2455932837, "lat": 40.4303574, "lon": -3.6257236}, {"type": "node", "id": 4893983102, "lat": 40.4301646, "lon": -3.6260373, "tags": {"highway": "crossing"}}, {"type": "node", "id": 4893987354, "lat": 40.4303204, "lon": -3.6256987, "tags": {"highway": "crossing"}}, {"type": "node", "id": 4893990189, "lat": 40.4292177, "lon": -3.6258377}, {"type": "node", "id": 4893990190, "lat": 40.4293467, "lon": -3.6258741, "tags": {"highway": "crossing"}}, {"type": "node", "id": 4893992586, "lat": 40.4292832, "lon": -3.6254643, "tags": {"crossing": "zebra", "highway": "crossing"}}, {"type": "node", "id": 4893992587, "lat": 40.4292687, "lon": -3.6257259}, {"type": "node", "id": 4893993943, "lat": 40.4297053, "lon": -3.6248768, "tags": {"highway": "crossing"}}, {"type": "node", "id": 4893993944, "lat": 40.4294444, "lon": -3.6255114, "tags": {"highway": "crossing"}}, {"type": "node", "id": 4894948634, "lat": 40.4289577, "lon": -3.6240104, "tags": {"crossing": "uncontrolled", "highway": "crossing"}}, {"type": "node", "id": 4894948637, "lat": 40.42915, "lon": -3.623829, "tags": {"crossing": "uncontrolled", "highway": "crossing"}}, {"type": "node", "id": 4894951048, "lat": 40.4287205, "lon": -3.624247, "tags": {"crossing": "uncontrolled", "highway": "crossing"}}, {"type": "node", "id": 4900471521, "lat": 40.4283506, "lon": -3.6260531}, {"type": "node", "id": 4902677045, "lat": 40.4303926, "lon": -3.6253566, "tags": {"highway": "crossing"}}, {"type": "node", "id": 4902679080, "lat": 40.430327, "lon": -3.624889, "tags": {"highway": "crossing"}}, {"type": "node", "id": 4935720557, "lat": 40.4282975, "lon": -3.6257288, "tags": {"highway": "crossing"}}, {"type": "node", "id": 5607940358, "lat": 40.4297146, "lon": -3.6246856}, {"type": "node", "id": 12100496632, "lat": 40.4292802, "lon": -3.6254512}, {"type": "node", "id": 12100496633, "lat": 40.4292868, "lon": -3.6254974}, {"type": "node", "id": 12100496634, "lat": 40.429199, "lon": -3.6257279}, {"type": "way", "id": 30337218, "nodes": [334541665, 4893990190, 334541864], "tags": {"highway": "residential", "lanes": "1", "lit": "yes", "name": "Calle Zarzosa", "oneway": "yes", "postal_code": "28037", "surface": "asphalt"}}, {"type": "way", "id": 146346924, "nodes": [5607940358, 1596099470], "tags": {"highway": "residential", "lanes": "1", "lit": "yes", "name": "Calle Zarat\u00e1n", "oneway": "no", "postal_code": "28037", "surface": "asphalt"}}, {"type": "way", "id": 146346932, "nodes": [1596099503, 4893992586, 2455932725, 4935720557, 1596099468], "tags": {"highway": "residential", "lanes": "1", "lit": "yes", "name": "Calle Zarat\u00e1n", "oneway": "yes", "surface": "asphalt"}}, {"type": "way", "id": 146346939, "nodes": [334541621, 1602163864, 1596099472, 1602163863, 334541665, 4893992587, 1596099503], "tags": {"highway": "residential", "lanes": "1", "lit": "yes", "name": "Calle Zapardiel", "oneway": "yes", "surface": "asphalt"}}, {"type": "way", "id": 147022303, "nodes": [24969409, 4894948637, 1602163857, 1602163815, 1596099486, 4902679080, 1602163847], "tags": {"highway": "residential", "lit": "yes", "name": "Calle Zabalza", "postal_code": "28037", "surface": "asphalt"}}, {"type": "way", "id": 237715533, "nodes": [2455932837, 4893987354, 2455932806], "tags": {"highway": "residential", "lanes": "1", "lit": "yes", "name": "Calle Yanguas", "postal_code": "28037", "surface": "asphalt"}}, {"type": "way", "id": 237715536, "nodes": [24969415, 4894951048, 2455932746], "tags": {"highway": "residential", "name": "Calle Zalamea", "postal_code": "28037"}}, {"type": "way", "id": 237715537, "nodes": [24969412, 4894948634, 2455932769], "tags": {"highway": "residential", "name": "Calle Zamudio", "postal_code": "28037", "sidewalk": "both"}}, {"type": "way", "id": 237715539, "nodes": [1596099503, 4893993944, 4893983102, 2455932828], "tags": {"highway": "residential", "lanes": "1", "lit": "yes", "name": "Calle Zubieta", "oneway": "yes", "postal_code": "28037", "surface": "asphalt"}}, {"type": "way", "id": 497901302, "nodes": [4893990189, 4900471521], "tags": {"highway": "pedestrian", "lit": "yes", "name": "Calle Zub\u00eda", "surface": "asphalt"}}, {"type": "way", "id": 587033207, "nodes": [5607940358, 1596099486], "tags": {"highway": "footway", "name": "Calle Zarat\u00e1n"}}, {"type": "way", "id": 587033208, "nodes": [1596099494, 4902677045, 4893993943, 1596099470], "tags": {"highway": "residential", "lanes": "1", "name": "Calle Zald\u00edvar", "oneway": "yes", "postal_code": "28037", "surface": "asphalt"}}, {"type": "way", "id": 661140274, "nodes": [1596099470, 1596099503], "tags": {"highway": "residential", "lanes": "1", "lit": "yes", "name": "Calle Zarat\u00e1n", "oneway": "yes", "postal_code": "28037", "surface": "asphalt"}}, {"type": "way", "id": 1306565299, "nodes": [12100496632, 4893992586, 12100496633], "tags": {"crossing": "uncontrolled", "crossing:markings": "yes", "footway": "crossing", "highway": "footway"}}, {"type": "way", "id": 1306565300, "nodes": [12100496633, 12100496634, 4893990189], "tags": {"highway": "footway"}}]}