{"version": 0.6, "generator": "Overpass API 0.7.62.5 1bd436f1", "osm3s": {"timestamp_osm_base": "2025-03-23T14:33:16Z", "copyright": "The data included in this document is from www.openstreetmap.org. The data is made available under ODbL."}, "elements": [{"type": "node", "id": 26784072, "lat": 40.4221479, "lon": -3.6690331}, {"type": "node", "id": 60134599, "lat": 40.4223215, "lon": -3.6727593}, {"type": "node", "id": 60134600, "lat": 40.4224069, "lon": -3.6743175}, {"type": "node", "id": 158849456, "lat": 40.4213504, "lon": -3.6711944, "tags": {"crossing": "no", "highway": "traffic_signals"}}, {"type": "node", "id": 254504442, "lat": 40.4222441, "lon": -3.6711182}, {"type": "node", "id": 2533411727, "lat": 40.4221285, "lon": -3.6691439, "tags": {"highway": "crossing", "source": "Bing"}}, {"type": "node", "id": 2697225526, "lat": 40.422289, "lon": -3.6720291}, {"type": "node", "id": 2702178795, "lat": 40.4223562, "lon": -3.6734001}, {"type": "node", "id": 2702178799, "lat": 40.4223595, "lon": -3.6734695}, {"type": "node", "id": 3484774667, "lat": 40.4214735, "lon": -3.6720804}, {"type": "node", "id": 3484776629, "lat": 40.422403, "lon": -3.6742474, "tags": {"crossing": "uncontrolled", "highway": "crossing"}}, {"type": "node", "id": 3484776630, "lat": 40.4224045, "lon": -3.6742739, "tags": {"highway": "give_way"}}, {"type": "node", "id": 4280252466, "lat": 40.4214796, "lon": -3.672586}, {"type": "node", "id": 7537616112, "lat": 40.4221322, "lon": -3.6690667}, {"type": "node", "id": 7537616113, "lat": 40.4221281, "lon": -3.6691009}, {"type": "node", "id": 8625858284, "lat": 40.4214419, "lon": -3.6718867}, {"type": "node", "id": 8625858285, "lat": 40.4214617, "lon": -3.6717838}, {"type": "node", "id": 8625858286, "lat": 40.4214392, "lon": -3.6712554}, {"type": "node", "id": 8625858287, "lat": 40.422208, "lon": -3.6711964}, {"type": "node", "id": 8625858288, "lat": 40.4222448, "lon": -3.6718562}, {"type": "node", "id": 8625858289, "lat": 40.4221445, "lon": -3.6710707}, {"type": "node", "id": 8625858290, "lat": 40.4221512, "lon": -3.6712008}, {"type": "node", "id": 8625858291, "lat": 40.4221474, "lon": -3.6711264, "tags": {"crossing": "zebra", "highway": "crossing"}}, {"type": "node", "id": 8625858293, "lat": 40.4218781, "lon": -3.6712217}, {"type": "node", "id": 8625858294, "lat": 40.4218747, "lon": -3.6711497, "tags": {"crossing": "zebra", "highway": "crossing"}}, {"type": "node", "id": 8625858295, "lat": 40.4214619, "lon": -3.6711141}, {"type": "node", "id": 8625858296, "lat": 40.4214692, "lon": -3.6712531}, {"type": "node", "id": 8625858297, "lat": 40.4214656, "lon": -3.6711846, "tags": {"crossing": "zebra", "highway": "crossing"}}, {"type": "node", "id": 9427869803, "lat": 40.4214516, "lon": -3.6720833, "tags": {"highway": "crossing"}}, {"type": "node", "id": 9610638565, "lat": 40.4219399, "lon": -3.6720183}, {"type": "node", "id": 9610638566, "lat": 40.4217879, "lon": -3.6720606}, {"type": "node", "id": 9610638567, "lat": 40.4219323, "lon": -3.6720515}, {"type": "node", "id": 9610638568, "lat": 40.4219734, "lon": -3.6719975, "tags": {"amenity": "parking_entrance", "name": "Parking Novotel"}}, {"type": "node", "id": 9610638569, "lat": 40.421727, "lon": -3.6720222, "tags": {"amenity": "parking_entrance", "name": "Parking Novotel"}}, {"type": "node", "id": 9610638570, "lat": 40.422227, "lon": -3.672033}, {"type": "node", "id": 9610638571, "lat": 40.4219757, "lon": -3.6720488}, {"type": "node", "id": 9610638572, "lat": 40.4217291, "lon": -3.6720644}, {"type": "node", "id": 11585330902, "lat": 40.4218772, "lon": -3.6710681, "tags": {"entrance": "main"}}, {"type": "node", "id": 11585330903, "lat": 40.4218718, "lon": -3.6710881}, {"type": "node", "id": 11585453816, "lat": 40.4218475, "lon": -3.670918, "tags": {"highway": "elevator", "level": "-1;0;1;2;3;4"}}, {"type": "way", "id": 23500574, "nodes": [26784072, 7537616112, 7537616113, 2533411727, 254504442, 2697225526, 60134599, 2702178795, 2702178799, 3484776629, 3484776630, 60134600], "tags": {"highway": "residential", "lanes": "1", "lit": "yes", "maxspeed": "30", "name": "Calle del Duque de Sesto", "name:etymology:wikidata": "Q5940663", "oneway": "yes", "postal_code": "28009"}}, {"type": "way", "id": 23500579, "nodes": [158849456, 8625858297, 8625858294, 8625858291, 254504442], "tags": {"highway": "residential", "lit": "yes", "maxspeed": "30", "name": "Calle del Maestro Vives", "oneway": "yes", "postal_code": "28009", "surface": "asphalt"}}, {"type": "way", "id": 930261793, "nodes": [4280252466, 9427869803, 8625858284, 8625858285, 8625858286, 8625858296, 8625858293, 8625858290, 8625858287, 8625858288], "tags": {"footway": "sidewalk", "highway": "footway"}}, {"type": "way", "id": 930261794, "nodes": [8625858289, 8625858291, 8625858290], "tags": {"crossing": "zebra", "footway": "crossing", "highway": "footway", "lit": "yes"}}, {"type": "way", "id": 930261795, "nodes": [11585330902, 11585330903, 8625858294, 8625858293], "tags": {"crossing": "zebra", "footway": "crossing", "highway": "footway", "lit": "yes"}}, {"type": "way", "id": 1044453192, "nodes": [9610638569, 9610638566], "tags": {"access": "private", "highway": "service", "layer": "-1", "oneway": "yes", "surface": "asphalt"}}, {"type": "way", "id": 1044453193, "nodes": [9610638567, 9610638565, 9610638568], "tags": {"access": "private", "highway": "service", "layer": "-1", "oneway": "yes", "surface": "asphalt"}}, {"type": "way", "id": 1044453194, "nodes": [9610638572, 3484774667], "tags": {"access": "private", "highway": "service", "layer": "-1", "surface": "asphalt", "tunnel": "building_passage"}}, {"type": "way", "id": 1044453195, "nodes": [9610638571, 9610638567, 9610638566, 9610638572], "tags": {"access": "private", "highway": "service", "layer": "-1", "surface": "asphalt"}}, {"type": "way", "id": 1044453196, "nodes": [9610638570, 9610638571], "tags": {"access": "private", "highway": "service", "layer": "-1", "surface": "asphalt", "tunnel": "building_passage"}}, {"type": "way", "id": 1044453197, "nodes": [2697225526, 9610638570], "tags": {"access": "private", "highway": "service", "surface": "asphalt"}}, {"type": "way", "id": 1246176713, "nodes": [8625858295, 11585330903, 8625858289], "tags": {"highway": "footway", "lit": "yes"}}]}