{"version": 0.6, "generator": "Overpass API 0.7.62.5 1bd436f1", "osm3s": {"timestamp_osm_base": "2025-03-23T14:11:00Z", "copyright": "The data included in this document is from www.openstreetmap.org. The data is made available under ODbL."}, "elements": [{"type": "node", "id": 309694360, "lat": 40.3648553, "lon": -3.7605924}, {"type": "node", "id": 309694620, "lat": 40.3662294, "lon": -3.7614098}, {"type": "node", "id": 309892474, "lat": 40.3640618, "lon": -3.7624917}, {"type": "node", "id": 309892475, "lat": 40.364728, "lon": -3.7605223, "tags": {"highway": "traffic_signals", "traffic_signals": "signal"}}, {"type": "node", "id": 316448970, "lat": 40.3640454, "lon": -3.7608462, "tags": {"crossing": "zebra", "highway": "crossing"}}, {"type": "node", "id": 316448971, "lat": 40.3642866, "lon": -3.7610864}, {"type": "node", "id": 316448972, "lat": 40.3644922, "lon": -3.7612184}, {"type": "node", "id": 316449033, "lat": 40.3657953, "lon": -3.7626567}, {"type": "node", "id": 316449094, "lat": 40.3640057, "lon": -3.7607992}, {"type": "node", "id": 316457504, "lat": 40.3646891, "lon": -3.7606316, "tags": {"crossing": "traffic_signals", "crossing:markings": "yes", "crossing:signals": "yes", "highway": "crossing"}}, {"type": "node", "id": 356241125, "lat": 40.3668092, "lon": -3.7617513}, {"type": "node", "id": 356245882, "lat": 40.365261, "lon": -3.7623387}, {"type": "node", "id": 356245950, "lat": 40.3656393, "lon": -3.7611869, "tags": {"crossing": "marked", "crossing:markings": "yes", "highway": "crossing"}}, {"type": "node", "id": 356245951, "lat": 40.365674, "lon": -3.7610811}, {"type": "node", "id": 356245979, "lat": 40.3654502, "lon": -3.7617763}, {"type": "node", "id": 356245984, "lat": 40.3650198, "lon": -3.7615269}, {"type": "node", "id": 356246002, "lat": 40.3645816, "lon": -3.7627997}, {"type": "node", "id": 1838624667, "lat": 40.3648306, "lon": -3.7620893}, {"type": "node", "id": 1888134685, "lat": 40.3641591, "lon": -3.760982}, {"type": "node", "id": 2048545686, "lat": 40.3641035, "lon": -3.7623657, "tags": {"crossing": "traffic_signals", "crossing:island": "no", "crossing:markings": "dots", "highway": "crossing", "tactile_paving": "yes"}}, {"type": "node", "id": 3675518166, "lat": 40.3667592, "lon": -3.7617201, "tags": {"crossing": "marked", "crossing:island": "no", "crossing:markings": "yes", "highway": "crossing", "kerb": "flush", "tactile_paving": "yes"}}, {"type": "node", "id": 4435283902, "lat": 40.3646778, "lon": -3.7606664, "tags": {"button_operated": "no", "crossing": "traffic_signals", "crossing:island": "no", "crossing:markings": "zebra", "crossing:signals": "yes", "highway": "crossing", "tactile_paving": "yes", "traffic_signals:sound": "yes"}}, {"type": "node", "id": 4435283903, "lat": 40.3645482, "lon": -3.7612511, "tags": {"highway": "give_way"}}, {"type": "node", "id": 4435283904, "lat": 40.3646038, "lon": -3.7612835, "tags": {"crossing": "zebra", "highway": "crossing"}}, {"type": "node", "id": 4435283925, "lat": 40.3654664, "lon": -3.7617296, "tags": {"highway": "give_way"}}, {"type": "node", "id": 4435283926, "lat": 40.3654115, "lon": -3.7617529, "tags": {"crossing": "zebra", "highway": "crossing"}}, {"type": "node", "id": 4435283940, "lat": 40.365624, "lon": -3.7610513, "tags": {"crossing": "zebra", "crossing:island": "no", "highway": "crossing", "tactile_paving": "yes"}}, {"type": "node", "id": 4435283958, "lat": 40.3647678, "lon": -3.7607221}, {"type": "node", "id": 4435283959, "lat": 40.3645885, "lon": -3.7613279}, {"type": "node", "id": 4435283960, "lat": 40.3646222, "lon": -3.7612274}, {"type": "node", "id": 4435283961, "lat": 40.3649699, "lon": -3.7614982, "tags": {"crossing": "zebra", "highway": "crossing"}}, {"type": "node", "id": 4435283962, "lat": 40.3649548, "lon": -3.7615405}, {"type": "node", "id": 4435283963, "lat": 40.3649936, "lon": -3.7614342}, {"type": "node", "id": 4435283964, "lat": 40.3645984, "lon": -3.7612093}, {"type": "node", "id": 4435283965, "lat": 40.365447, "lon": -3.7616974}, {"type": "node", "id": 4435283966, "lat": 40.3656148, "lon": -3.7611952}, {"type": "node", "id": 4435283967, "lat": 40.3647732, "lon": -3.7607068}, {"type": "node", "id": 4435283968, "lat": 40.3654313, "lon": -3.7616883}, {"type": "node", "id": 4435283969, "lat": 40.3653932, "lon": -3.7618122}, {"type": "node", "id": 4435283970, "lat": 40.3656327, "lon": -3.7612077, "tags": {"crossing": "zebra", "crossing:markings": "zebra", "highway": "crossing"}}, {"type": "node", "id": 4435283971, "lat": 40.3656943, "lon": -3.7612481}, {"type": "node", "id": 4435283972, "lat": 40.3655864, "lon": -3.7611787}, {"type": "node", "id": 4435283973, "lat": 40.3656661, "lon": -3.7609185}, {"type": "node", "id": 4456804204, "lat": 40.3657266, "lon": -3.7626176, "tags": {"crossing": "zebra", "highway": "crossing"}}, {"type": "node", "id": 4456804205, "lat": 40.3657649, "lon": -3.7626393, "tags": {"highway": "give_way"}}, {"type": "node", "id": 4456804206, "lat": 40.3652952, "lon": -3.7623589, "tags": {"crossing": "zebra", "highway": "crossing", "tactile_paving": "yes"}}, {"type": "node", "id": 4456804210, "lat": 40.3648784, "lon": -3.7621184, "tags": {"crossing": "zebra", "highway": "crossing"}}, {"type": "node", "id": 4456804211, "lat": 40.3648133, "lon": -3.7621363, "tags": {"crossing": "zebra", "highway": "crossing"}}, {"type": "node", "id": 4456804212, "lat": 40.364627, "lon": -3.7626732, "tags": {"crossing": "zebra", "highway": "crossing"}}, {"type": "node", "id": 4456804215, "lat": 40.3645894, "lon": -3.76265}, {"type": "node", "id": 4456804216, "lat": 40.364668, "lon": -3.7626983}, {"type": "node", "id": 4456804217, "lat": 40.3648221, "lon": -3.7621116, "tags": {"highway": "give_way"}}, {"type": "node", "id": 4456804218, "lat": 40.3647756, "lon": -3.7621146}, {"type": "node", "id": 4456804219, "lat": 40.3648467, "lon": -3.7621541}, {"type": "node", "id": 4456804226, "lat": 40.3646118, "lon": -3.7627136}, {"type": "node", "id": 4456804241, "lat": 40.3657128, "lon": -3.7626583}, {"type": "node", "id": 4456804252, "lat": 40.3657048, "lon": -3.7626837}, {"type": "node", "id": 4456804254, "lat": 40.3657408, "lon": -3.7625756}, {"type": "node", "id": 4456804257, "lat": 40.3652774, "lon": -3.7624048}, {"type": "node", "id": 4456804258, "lat": 40.3653109, "lon": -3.7623155}, {"type": "node", "id": 4457225038, "lat": 40.3644696, "lon": -3.7612881, "tags": {"crossing": "zebra", "highway": "crossing"}}, {"type": "node", "id": 4457225055, "lat": 40.3640928, "lon": -3.7623981, "tags": {"bicycle": "yes", "crossing": "traffic_signals", "highway": "crossing"}}, {"type": "node", "id": 4457225084, "lat": 40.364969, "lon": -3.7615484}, {"type": "node", "id": 4457225591, "lat": 40.3650056, "lon": -3.7615697, "tags": {"crossing": "zebra", "highway": "crossing"}}, {"type": "node", "id": 4457225592, "lat": 40.3650416, "lon": -3.7615926}, {"type": "node", "id": 4504313820, "lat": 40.3640266, "lon": -3.7608227, "tags": {"highway": "give_way"}}, {"type": "node", "id": 4504313839, "lat": 40.3644117, "lon": -3.7611653, "tags": {"crossing": "zebra", "highway": "crossing"}}, {"type": "node", "id": 5203137602, "lat": 40.365592, "lon": -3.7611607}, {"type": "node", "id": 8423356490, "lat": 40.3660998, "lon": -3.7613355, "tags": {"crossing": "marked", "crossing:island": "no", "crossing:markings": "yes", "highway": "crossing"}}, {"type": "node", "id": 8423356491, "lat": 40.3660588, "lon": -3.7613107, "tags": {"bus": "yes", "public_transport": "stop_position"}}, {"type": "node", "id": 11817115153, "lat": 40.3644461, "lon": -3.7598294}, {"type": "node", "id": 11817226907, "lat": 40.3646641, "lon": -3.7603435}, {"type": "node", "id": 11817226909, "lat": 40.3654199, "lon": -3.7607856}, {"type": "node", "id": 11817226910, "lat": 40.365001, "lon": -3.7605603}, {"type": "node", "id": 11817226928, "lat": 40.3644093, "lon": -3.7598428}, {"type": "node", "id": 11817226929, "lat": 40.3644073, "lon": -3.7599139}, {"type": "node", "id": 11817226930, "lat": 40.3644216, "lon": -3.759993}, {"type": "node", "id": 11817226931, "lat": 40.364443, "lon": -3.7600762}, {"type": "node", "id": 11817226932, "lat": 40.3644808, "lon": -3.7601553}, {"type": "node", "id": 11817226933, "lat": 40.3645258, "lon": -3.7602304}, {"type": "node", "id": 11817226934, "lat": 40.3645728, "lon": -3.7602773}, {"type": "node", "id": 11817226935, "lat": 40.36463, "lon": -3.7603216}, {"type": "node", "id": 11916440069, "lat": 40.3661045, "lon": -3.7611712}, {"type": "node", "id": 11916494645, "lat": 40.3657609, "lon": -3.7612752}, {"type": "node", "id": 11916494646, "lat": 40.3657608, "lon": -3.7611328, "tags": {"crossing": "marked", "crossing:island": "no", "crossing:markings": "yes", "highway": "crossing", "tactile_paving": "yes"}}, {"type": "node", "id": 11916494647, "lat": 40.3658053, "lon": -3.7609988}, {"type": "node", "id": 11916494648, "lat": 40.3657261, "lon": -3.7612542}, {"type": "node", "id": 11916494649, "lat": 40.3656985, "lon": -3.7612381}, {"type": "node", "id": 11916494650, "lat": 40.365351, "lon": -3.7622951}, {"type": "node", "id": 11916494651, "lat": 40.3656869, "lon": -3.7612733}, {"type": "node", "id": 11916494652, "lat": 40.3657093, "lon": -3.7625579}, {"type": "node", "id": 11916494653, "lat": 40.3648675, "lon": -3.7620721}, {"type": "node", "id": 11916494654, "lat": 40.364932, "lon": -3.7620945}, {"type": "node", "id": 11916494655, "lat": 40.3652153, "lon": -3.7622553}, {"type": "node", "id": 11916494656, "lat": 40.3650229, "lon": -3.7616346}, {"type": "node", "id": 11916494657, "lat": 40.3648846, "lon": -3.7620375}, {"type": "node", "id": 11916494658, "lat": 40.3653589, "lon": -3.7617747}, {"type": "node", "id": 11916494659, "lat": 40.3653971, "lon": -3.7618577}, {"type": "node", "id": 11916494660, "lat": 40.3652667, "lon": -3.7622398}, {"type": "node", "id": 11916494661, "lat": 40.3654296, "lon": -3.7618376, "tags": {"highway": "crossing"}}, {"type": "node", "id": 11916494662, "lat": 40.3654932, "lon": -3.7618663}, {"type": "node", "id": 11916494663, "lat": 40.3652756, "lon": -3.7622952, "tags": {"highway": "crossing"}}, {"type": "node", "id": 11916494664, "lat": 40.3652482, "lon": -3.7622709}, {"type": "node", "id": 11916494665, "lat": 40.3648991, "lon": -3.7620773}, {"type": "node", "id": 11916494666, "lat": 40.3648749, "lon": -3.7621705}, {"type": "node", "id": 11916551072, "lat": 40.3661216, "lon": -3.7615551}, {"type": "node", "id": 11916551079, "lat": 40.3661268, "lon": -3.7615067}, {"type": "node", "id": 11916551080, "lat": 40.3659948, "lon": -3.7614173}, {"type": "node", "id": 11916551081, "lat": 40.3662303, "lon": -3.7612318}, {"type": "node", "id": 11916551085, "lat": 40.3661315, "lon": -3.7615335}, {"type": "node", "id": 12136732051, "lat": 40.3661462, "lon": -3.7611913}, {"type": "node", "id": 12136732052, "lat": 40.3660652, "lon": -3.7614606}, {"type": "node", "id": 12219556778, "lat": 40.36616, "lon": -3.761504}, {"type": "node", "id": 12219556780, "lat": 40.3656638, "lon": -3.7612273}, {"type": "node", "id": 12219556781, "lat": 40.3657294, "lon": -3.7612418}, {"type": "node", "id": 12219556782, "lat": 40.3657422, "lon": -3.7611966}, {"type": "node", "id": 12219556783, "lat": 40.3657831, "lon": -3.7610632}, {"type": "node", "id": 12219556784, "lat": 40.3660692, "lon": -3.7614487}, {"type": "node", "id": 12219556787, "lat": 40.3656748, "lon": -3.7612099}, {"type": "node", "id": 12219556788, "lat": 40.3656346, "lon": -3.7611843}, {"type": "node", "id": 12219556789, "lat": 40.3647525, "lon": -3.7606688}, {"type": "way", "id": 28214383, "nodes": [309892474, 4457225055, 2048545686, 4457225038, 316448972, 4435283902, 316457504, 309892475], "tags": {"highway": "residential", "lanes": "4", "lit": "yes", "maxspeed": "50", "name": "Calle del Pinar de San Jos\u00e9", "postal_code": "28054", "surface": "asphalt"}}, {"type": "way", "id": 28779560, "nodes": [356245984, 4435283926, 356245979], "tags": {"highway": "residential", "lit": "yes", "maxspeed": "50", "name": "Calle del Parque de Garajonai", "oneway": "yes", "postal_code": "28054", "surface": "asphalt"}}, {"type": "way", "id": 28779571, "nodes": [356245882, 4456804210, 1838624667], "tags": {"highway": "residential", "lit": "yes", "maxspeed": "50", "name": "Calle Palmeral de Elche", "oneway": "yes", "postal_code": "28054", "surface": "asphalt"}}, {"type": "way", "id": 31815227, "nodes": [356245951, 356245950, 4435283970, 4435283925, 356245979, 11916494661, 11916494663, 356245882], "tags": {"highway": "residential", "lit": "yes", "maxspeed": "50", "name": "Calle de la Universidad de Alcal\u00e1 de Henares", "oneway": "yes", "postal_code": "28054", "surface": "asphalt"}}, {"type": "way", "id": 31815229, "nodes": [356246002, 4456804226, 4456804212, 4456804211, 4456804217, 1838624667, 4457225591, 356245984], "tags": {"highway": "residential", "lit": "yes", "maxspeed": "50", "name": "Calle Real Alc\u00e1zar de Sevilla", "oneway": "yes", "postal_code": "28054", "surface": "asphalt"}}, {"type": "way", "id": 44703301, "nodes": [309892475, 309694360, 4435283940, 356245951, 11916494646, 8423356491, 8423356490, 309694620, 3675518166, 356241125], "tags": {"highway": "residential", "lanes": "4", "lit": "yes", "maxspeed": "50", "name": "Calle del Jacobeo", "postal_code": "28054", "surface": "asphalt"}}, {"type": "way", "id": 446200140, "nodes": [356245984, 4435283961, 4435283904, 4435283903, 316448972, 4504313839, 316448971, 1888134685, 316448970, 4504313820, 316449094], "tags": {"highway": "residential", "lit": "yes", "maxspeed": "50", "name": "Calle del Parque de Garajonai", "oneway": "yes", "postal_code": "28054", "surface": "asphalt"}}, {"type": "way", "id": 446200145, "nodes": [4435283959, 4435283904, 4435283960], "tags": {"crossing": "zebra", "footway": "crossing", "highway": "footway", "lit": "yes", "name": "Calle del Parque de Garajonai", "surface": "asphalt"}}, {"type": "way", "id": 446200146, "nodes": [4435283962, 4435283961, 4435283963], "tags": {"crossing": "zebra", "footway": "crossing", "highway": "footway", "lit": "yes", "name": "Calle del Parque de Garajonai", "surface": "asphalt"}}, {"type": "way", "id": 446200147, "nodes": [4435283966, 4435283972, 4435283967, 4435283958], "tags": {"footway": "sidewalk", "highway": "footway", "lit": "yes", "name": "Calle del Jacobeo", "surface": "paving_stones"}}, {"type": "way", "id": 446200148, "nodes": [4435283968, 4435283926, 4435283969], "tags": {"crossing": "zebra", "footway": "crossing", "highway": "footway", "lit": "yes", "name": "Calle del Parque de Garajonai"}}, {"type": "way", "id": 446200149, "nodes": [4435283966, 4435283970, 12219556780], "tags": {"crossing": "zebra", "crossing:markings": "zebra", "footway": "crossing", "highway": "footway", "lit": "yes", "name": "Calle de la Universidad de Alcal\u00e1 de Henares", "surface": "asphalt"}}, {"type": "way", "id": 446200150, "nodes": [4435283972, 5203137602, 4435283940, 4435283973], "tags": {"crossing": "zebra", "footway": "crossing", "highway": "footway", "lit": "yes", "name": "Calle del Jacobeo", "surface": "asphalt"}}, {"type": "way", "id": 448693915, "nodes": [356245882, 4456804206, 4456804204, 4456804205, 316449033], "tags": {"highway": "residential", "lit": "yes", "maxspeed": "50", "name": "Calle Palmeral de Elche", "oneway": "yes", "postal_code": "28054", "surface": "asphalt"}}, {"type": "way", "id": 448693918, "nodes": [4456804218, 4456804211, 4456804219], "tags": {"crossing": "zebra", "footway": "crossing", "highway": "footway", "lit": "yes", "name": "Calle Real Alc\u00e1zar de Sevilla", "surface": "asphalt"}}, {"type": "way", "id": 448693919, "nodes": [4456804219, 11916494666, 4456804257, 4456804241, 4456804252], "tags": {"footway": "sidewalk", "highway": "footway", "lit": "yes", "name": "Calle Palmeral de Elche", "surface": "paving_stones"}}, {"type": "way", "id": 448693927, "nodes": [4456804257, 4456804206, 4456804258], "tags": {"crossing": "zebra", "footway": "crossing", "highway": "footway", "lit": "yes", "name": "Calle Palmeral de Elche", "surface": "asphalt"}}, {"type": "way", "id": 448740658, "nodes": [4457225084, 4457225591, 4457225592], "tags": {"crossing": "zebra", "footway": "crossing", "highway": "footway", "lit": "yes", "name": "Calle Real Alc\u00e1zar de Sevilla", "surface": "asphalt"}}, {"type": "way", "id": 1272582177, "nodes": [4435283959, 4435283962], "tags": {"footway": "sidewalk", "highway": "footway", "lit": "yes", "name": "Calle del Parque de Garajonai", "surface": "paving_stones"}}, {"type": "way", "id": 1272582179, "nodes": [4435283962, 4457225084, 4456804218, 4456804215], "tags": {"footway": "sidewalk", "highway": "footway", "lit": "yes", "name": "Calle Real Alc\u00e1zar de Sevilla", "surface": "paving_stones"}}, {"type": "way", "id": 1272594235, "nodes": [4435283973, 11817226909, 11817226910, 11817226907, 11817226935, 11817226934, 11817226933, 11817226932, 11817226931, 11817226930, 11817226929, 11817226928, 11817115153], "tags": {"footway": "sidewalk", "highway": "footway", "lit": "yes", "name": "Calle del Jacobeo", "surface": "paving_stones"}}, {"type": "way", "id": 1284446502, "nodes": [4456804216, 4456804219], "tags": {"footway": "sidewalk", "highway": "footway", "lit": "yes", "name": "Calle Real Alc\u00e1zar de Sevilla", "surface": "paving_stones"}}, {"type": "way", "id": 1284467308, "nodes": [4435283963, 4435283968], "tags": {"footway": "sidewalk", "highway": "footway", "lit": "yes", "name": "Calle del Parque de Garajonai", "surface": "paving_stones"}}, {"type": "way", "id": 1284467318, "nodes": [11916551081, 12136732051, 11916440069, 11916494647, 4435283973], "tags": {"footway": "sidewalk", "highway": "footway", "lit": "yes", "name": "Calle del Jacobeo", "surface": "paving_stones"}}, {"type": "way", "id": 1284467319, "nodes": [4435283968, 4435283965, 4435283966], "tags": {"footway": "sidewalk", "highway": "footway", "lit": "yes", "name": "Calle de la Universidad de Alcal\u00e1 de Henares", "surface": "paving_stones"}}, {"type": "way", "id": 1284467320, "nodes": [4435283960, 4435283963], "tags": {"footway": "sidewalk", "highway": "footway", "lit": "yes", "name": "Calle del Parque de Garajonai", "surface": "paving_stones"}}, {"type": "way", "id": 1284467321, "nodes": [4435283958, 4435283964, 4435283960], "tags": {"footway": "sidewalk", "highway": "footway", "lit": "yes", "name": "Calle del Pinar de San Jos\u00e9", "surface": "paving_stones"}}, {"type": "way", "id": 1284484495, "nodes": [12219556783, 11916494646, 12219556782], "tags": {"crossing": "marked", "crossing:markings": "yes", "footway": "crossing", "highway": "footway", "lit": "yes", "name": "Calle del Jacobeo", "surface": "asphalt"}}, {"type": "way", "id": 1284484496, "nodes": [11916494648, 11916494649, 4435283971, 11916494651, 11916494662, 11916494650, 4456804258], "tags": {"footway": "sidewalk", "highway": "footway", "lit": "yes", "name": "Calle de la Universidad de Alcal\u00e1 de Henares", "surface": "paving_stones"}}, {"type": "way", "id": 1284484497, "nodes": [4456804254, 11916494652, 4456804258], "tags": {"footway": "sidewalk", "highway": "footway", "lit": "yes", "name": "Calle Palmeral de Elche"}}, {"type": "way", "id": 1284484498, "nodes": [11916494664, 11916494655, 11916494654, 11916494665, 11916494653, 11916494657], "tags": {"footway": "sidewalk", "highway": "footway", "lit": "yes", "name": "Calle Palmeral de Elche", "surface": "paving_stones"}}, {"type": "way", "id": 1284484499, "nodes": [11916494657, 11916494656, 4457225592], "tags": {"footway": "sidewalk", "highway": "footway", "lit": "yes", "name": "Calle Real Alc\u00e1zar de Sevilla", "surface": "paving_stones"}}, {"type": "way", "id": 1284484500, "nodes": [4435283969, 11916494658, 4457225592], "tags": {"footway": "sidewalk", "highway": "footway", "lit": "yes", "name": "Calle del Parque de Garajonai", "surface": "paving_stones"}}, {"type": "way", "id": 1284484501, "nodes": [11916494664, 11916494660, 11916494659, 4435283969], "tags": {"footway": "sidewalk", "highway": "footway", "lit": "yes", "name": "Calle de la Universidad de Alcal\u00e1 de Henares"}}, {"type": "way", "id": 1284484502, "nodes": [11916494662, 11916494661, 4435283969], "tags": {"footway": "crossing", "highway": "footway", "lit": "yes", "name": "Calle de la Universidad de Alcal\u00e1 de Henares"}}, {"type": "way", "id": 1284484503, "nodes": [11916494664, 11916494663, 4456804258], "tags": {"footway": "crossing", "highway": "footway", "lit": "yes", "name": "Calle de la Universidad de Alcal\u00e1 de Henares"}}, {"type": "way", "id": 1284484504, "nodes": [11916494666, 4456804210, 11916494665], "tags": {"footway": "crossing", "highway": "footway", "lit": "yes", "name": "Calle Palmeral de Elche", "surface": "asphalt"}}, {"type": "way", "id": 1284484507, "nodes": [11916551085, 11916551072, 4456804254], "tags": {"footway": "sidewalk", "highway": "footway", "lit": "yes", "name": "Calle de la Lonja de la Seda", "surface": "paving_stones"}}, {"type": "way", "id": 1284484509, "nodes": [11916494648, 11916494645, 11916551080, 12136732052, 11916551079, 11916551085], "tags": {"footway": "sidewalk", "highway": "footway", "lit": "yes", "name": "Calle del Jacobeo", "surface": "paving_stones"}}, {"type": "way", "id": 1320493621, "nodes": [12219556780, 4435283971], "tags": {"footway": "crossing", "highway": "footway", "lit": "yes", "name": "Calle de la Universidad de Alcal\u00e1 de Henares", "surface": "paving_stones"}}, {"type": "way", "id": 1320493622, "nodes": [11916494647, 12219556783], "tags": {"footway": "crossing", "highway": "footway", "lit": "yes", "name": "Calle del Jacobeo", "surface": "paving_stones"}}, {"type": "way", "id": 1320493623, "nodes": [12219556782, 12219556781, 11916494648], "tags": {"footway": "crossing", "highway": "footway", "lit": "yes", "name": "Calle del Jacobeo", "surface": "paving_stones"}}, {"type": "way", "id": 1320493626, "nodes": [12219556787, 12219556781, 12219556784, 12219556778], "tags": {"highway": "cycleway", "lit": "yes", "surface": "paving_stones"}}, {"type": "way", "id": 1320493627, "nodes": [12219556788, 356245950, 12219556787], "tags": {"crossing": "marked", "crossing:markings": "yes", "cycleway": "crossing", "highway": "cycleway", "lit": "yes", "surface": "paving_stones"}}, {"type": "way", "id": 1320493628, "nodes": [12219556789, 5203137602, 12219556788], "tags": {"highway": "cycleway", "lit": "yes", "surface": "paving_stones"}}]}