{"version": 0.6, "generator": "Overpass API 0.7.62.5 1bd436f1", "osm3s": {"timestamp_osm_base": "2025-03-23T15:21:15Z", "copyright": "The data included in this document is from www.openstreetmap.org. The data is made available under ODbL."}, "elements": [{"type": "node", "id": 25531128, "lat": 40.4330508, "lon": -3.6486639}, {"type": "node", "id": 100974959, "lat": 40.430101, "lon": -3.6461094}, {"type": "node", "id": 101010584, "lat": 40.4316723, "lon": -3.6471282}, {"type": "node", "id": 101010585, "lat": 40.4311324, "lon": -3.6466796}, {"type": "node", "id": 101010587, "lat": 40.4304148, "lon": -3.6461948}, {"type": "node", "id": 101010776, "lat": 40.4298419, "lon": -3.646052}, {"type": "node", "id": 101023775, "lat": 40.432301, "lon": -3.6484422}, {"type": "node", "id": 101023776, "lat": 40.4317624, "lon": -3.6482708}, {"type": "node", "id": 101023777, "lat": 40.4312326, "lon": -3.6481485}, {"type": "node", "id": 101023778, "lat": 40.4307041, "lon": -3.6480338}, {"type": "node", "id": 101023779, "lat": 40.4301721, "lon": -3.6479136}, {"type": "node", "id": 101023780, "lat": 40.4296121, "lon": -3.6477979}, {"type": "node", "id": 101023781, "lat": 40.4290958, "lon": -3.6476826}, {"type": "node", "id": 101023782, "lat": 40.4289545, "lon": -3.6476501}, {"type": "node", "id": 101025022, "lat": 40.4305872, "lon": -3.6489088}, {"type": "node", "id": 101025024, "lat": 40.4300586, "lon": -3.6487863}, {"type": "node", "id": 101025025, "lat": 40.4295124, "lon": -3.6486707}, {"type": "node", "id": 101025641, "lat": 40.4304758, "lon": -3.6497728}, {"type": "node", "id": 101025643, "lat": 40.4299448, "lon": -3.6496633}, {"type": "node", "id": 101025645, "lat": 40.4294005, "lon": -3.6495434}, {"type": "node", "id": 101034261, "lat": 40.4303691, "lon": -3.6505902}, {"type": "node", "id": 101034939, "lat": 40.4307862, "lon": -3.6473666}, {"type": "node", "id": 101035389, "lat": 40.4302601, "lon": -3.6472528}, {"type": "node", "id": 101035840, "lat": 40.430033, "lon": -3.647194}, {"type": "node", "id": 101036103, "lat": 40.4300019, "lon": -3.6469852}, {"type": "node", "id": 101040418, "lat": 40.4297344, "lon": -3.646922}, {"type": "node", "id": 101040573, "lat": 40.4292025, "lon": -3.6468}, {"type": "node", "id": 101040574, "lat": 40.4290701, "lon": -3.6467683}, {"type": "node", "id": 1377849339, "lat": 40.4308304, "lon": -3.6472107}, {"type": "node", "id": 1377849344, "lat": 40.4327689, "lon": -3.6485922}, {"type": "node", "id": 1439706405, "lat": 40.4303007, "lon": -3.6479912, "tags": {"bus": "yes", "highway": "bus_stop", "name": "Jos\u00e9 Mar\u00eda Pereda-Carlos Hern\u00e1ndez", "operator": "EMT Madrid", "public_transport": "platform", "ref": "3107", "source": "https://navegapormadrid.emtmadrid.es/app/"}}, {"type": "node", "id": 3172731889, "lat": 40.4299852, "lon": -3.6471399}, {"type": "node", "id": 3172731891, "lat": 40.4299892, "lon": -3.6471623}, {"type": "node", "id": 3172731892, "lat": 40.4299977, "lon": -3.6471783}, {"type": "node", "id": 3172731893, "lat": 40.4300094, "lon": -3.6471891}, {"type": "node", "id": 3173122120, "lat": 40.4291611, "lon": -3.6476987, "tags": {"button_operated": "no", "crossing": "traffic_signals", "crossing:markings": "dots", "highway": "crossing", "kerb": "flush", "tactile_paving": "yes", "traffic_signals:sound": "no", "traffic_signals:vibration": "no"}}, {"type": "node", "id": 3173122123, "lat": 40.4292642, "lon": -3.6468193, "tags": {"button_operated": "no", "crossing": "traffic_signals", "crossing:markings": "dots", "highway": "crossing", "kerb": "lowered", "tactile_paving": "yes", "traffic_signals:sound": "no", "traffic_signals:vibration": "no"}}, {"type": "node", "id": 3173122127, "lat": 40.4296252, "lon": -3.6477205, "tags": {"crossing": "uncontrolled", "crossing:markings": "zebra", "highway": "crossing", "kerb": "flush", "tactile_paving": "yes"}}, {"type": "node", "id": 3173122129, "lat": 40.4296836, "lon": -3.6469166, "tags": {"crossing": "uncontrolled", "crossing:markings": "zebra", "highway": "crossing", "kerb": "flush", "tactile_paving": "yes"}}, {"type": "node", "id": 3173122131, "lat": 40.4297011, "lon": -3.6469205, "tags": {"highway": "give_way"}}, {"type": "node", "id": 3173122133, "lat": 40.4298189, "lon": -3.6469463, "tags": {"crossing": "uncontrolled", "crossing:markings": "zebra", "highway": "crossing", "kerb": "flush", "tactile_paving": "yes"}}, {"type": "node", "id": 3173122134, "lat": 40.429966, "lon": -3.6469775, "tags": {"highway": "give_way"}}, {"type": "node", "id": 3173122135, "lat": 40.4300196, "lon": -3.6468556, "tags": {"crossing": "uncontrolled", "crossing:markings": "zebra", "highway": "crossing", "kerb": "flush", "tactile_paving": "yes"}}, {"type": "node", "id": 3173122136, "lat": 40.4301053, "lon": -3.646226, "tags": {"crossing": "uncontrolled", "crossing:markings": "zebra", "highway": "crossing", "kerb": "lowered", "tactile_paving": "yes"}}, {"type": "node", "id": 3173122138, "lat": 40.4301143, "lon": -3.6479006, "tags": {"crossing": "uncontrolled", "crossing:markings": "zebra", "highway": "crossing"}}, {"type": "node", "id": 3173122142, "lat": 40.4301563, "lon": -3.6480214, "tags": {"crossing": "uncontrolled", "crossing:markings": "zebra", "highway": "crossing"}}, {"type": "node", "id": 3173122148, "lat": 40.4301914, "lon": -3.6472299, "tags": {"crossing": "uncontrolled", "crossing:markings": "zebra", "highway": "crossing", "kerb": "raised", "tactile_paving": "yes"}}, {"type": "node", "id": 3173122156, "lat": 40.4302208, "lon": -3.6472371, "tags": {"highway": "give_way"}}, {"type": "node", "id": 3173122268, "lat": 40.4303264, "lon": -3.6467526}, {"type": "node", "id": 3173122271, "lat": 40.4303897, "lon": -3.6467676, "tags": {"crossing": "uncontrolled", "crossing:island": "no", "crossing:markings": "zebra", "highway": "crossing", "kerb": "flush", "tactile_paving": "yes"}}, {"type": "node", "id": 3173122272, "lat": 40.4303927, "lon": -3.6462524, "tags": {"crossing": "uncontrolled", "crossing:markings": "zebra", "highway": "crossing", "kerb": "flush", "tactile_paving": "yes"}}, {"type": "node", "id": 3173122274, "lat": 40.4304159, "lon": -3.6467738, "tags": {"direction": "forward", "highway": "give_way", "traffic_sign": "ES:R1"}}, {"type": "node", "id": 3173122279, "lat": 40.4304811, "lon": -3.6461771}, {"type": "node", "id": 3173122280, "lat": 40.4305141, "lon": -3.6462054}, {"type": "node", "id": 3173122281, "lat": 40.4307206, "lon": -3.6468442, "tags": {"noexit": "yes"}}, {"type": "node", "id": 3176633046, "lat": 40.4306027, "lon": -3.6473333}, {"type": "node", "id": 3176633048, "lat": 40.4307981, "lon": -3.6472972}, {"type": "node", "id": 3176782156, "lat": 40.429745, "lon": -3.6472095}, {"type": "node", "id": 3176784266, "lat": 40.4298481, "lon": -3.6472327}, {"type": "node", "id": 3176784271, "lat": 40.4299505, "lon": -3.6472557}, {"type": "node", "id": 3176784474, "lat": 40.4303992, "lon": -3.6462253}, {"type": "node", "id": 3176784476, "lat": 40.4304051, "lon": -3.6462097}, {"type": "node", "id": 3176784484, "lat": 40.4304326, "lon": -3.6461835}, {"type": "node", "id": 3176784493, "lat": 40.4304569, "lon": -3.6461764}, {"type": "node", "id": 3176784577, "lat": 40.4306852, "lon": -3.6474223}, {"type": "node", "id": 3176784585, "lat": 40.430694, "lon": -3.6473624}, {"type": "node", "id": 3176784593, "lat": 40.4307049, "lon": -3.6472888}, {"type": "node", "id": 3176784608, "lat": 40.4307385, "lon": -3.6474344}, {"type": "node", "id": 3176784618, "lat": 40.4307562, "lon": -3.6473004}, {"type": "node", "id": 3176784928, "lat": 40.4320316, "lon": -3.6483326}, {"type": "node", "id": 3176784932, "lat": 40.4320823, "lon": -3.6483468}, {"type": "node", "id": 3176784936, "lat": 40.4321444, "lon": -3.6483746, "tags": {"bus": "yes", "public_transport": "stop_position"}}, {"type": "node", "id": 3176784959, "lat": 40.4322517, "lon": -3.6484207}, {"type": "node", "id": 3176785005, "lat": 40.4326267, "lon": -3.6485491}, {"type": "node", "id": 3177430555, "lat": 40.4301492, "lon": -3.6480712, "tags": {"highway": "give_way"}}, {"type": "node", "id": 3177430556, "lat": 40.4307152, "lon": -3.6479435, "tags": {"crossing": "uncontrolled", "crossing:markings": "zebra", "highway": "crossing"}}, {"type": "node", "id": 3177430557, "lat": 40.4307194, "lon": -3.6479097, "tags": {"highway": "give_way"}}, {"type": "node", "id": 3177430558, "lat": 40.4310845, "lon": -3.6467638, "tags": {"crossing": "uncontrolled", "crossing:markings": "zebra", "highway": "crossing", "kerb": "flush", "tactile_paving": "yes"}}, {"type": "node", "id": 3177436382, "lat": 40.4329572, "lon": -3.6486398, "tags": {"crossing": "uncontrolled", "crossing:markings": "zebra", "highway": "crossing", "tactile_paving": "yes"}}, {"type": "node", "id": 3200176875, "lat": 40.4294147, "lon": -3.6494326, "tags": {"crossing": "uncontrolled", "crossing:markings": "zebra", "highway": "crossing"}}, {"type": "node", "id": 3200176876, "lat": 40.4294183, "lon": -3.6494045, "tags": {"highway": "give_way"}}, {"type": "node", "id": 3200176879, "lat": 40.4295184, "lon": -3.6485567, "tags": {"crossing": "uncontrolled", "crossing:markings": "zebra", "highway": "crossing"}}, {"type": "node", "id": 3200176880, "lat": 40.4295247, "lon": -3.6485114, "tags": {"highway": "give_way"}}, {"type": "node", "id": 3200176884, "lat": 40.4299547, "lon": -3.6495572, "tags": {"crossing": "uncontrolled", "crossing:markings": "zebra", "highway": "crossing"}}, {"type": "node", "id": 3200176886, "lat": 40.4300454, "lon": -3.6488843, "tags": {"highway": "give_way"}}, {"type": "node", "id": 3200176887, "lat": 40.4304616, "lon": -3.649867, "tags": {"crossing": "uncontrolled", "crossing:markings": "zebra", "highway": "crossing"}}, {"type": "node", "id": 3200176888, "lat": 40.430489, "lon": -3.6496702, "tags": {"crossing": "uncontrolled", "crossing:markings": "zebra", "highway": "crossing"}}, {"type": "node", "id": 3200176889, "lat": 40.4304923, "lon": -3.6496448, "tags": {"highway": "give_way"}}, {"type": "node", "id": 3200176890, "lat": 40.4306021, "lon": -3.6487975, "tags": {"highway": "give_way"}}, {"type": "node", "id": 3201886758, "lat": 40.4303815, "lon": -3.6504933, "tags": {"crossing": "uncontrolled", "crossing:markings": "zebra", "highway": "crossing"}}, {"type": "node", "id": 3201886759, "lat": 40.4303863, "lon": -3.6504559, "tags": {"highway": "give_way"}}, {"type": "node", "id": 3262170664, "lat": 40.4296923, "lon": -3.6471981}, {"type": "node", "id": 3262170675, "lat": 40.4307762, "lon": -3.6474482}, {"type": "node", "id": 8505039680, "lat": 40.4303068, "lon": -3.6479444, "tags": {"bus": "yes", "public_transport": "stop_position"}}, {"type": "node", "id": 11917682352, "lat": 40.4296288, "lon": -3.6476924, "tags": {"highway": "give_way"}}, {"type": "node", "id": 11917682353, "lat": 40.4295985, "lon": -3.6479091, "tags": {"crossing": "uncontrolled", "crossing:markings": "zebra", "highway": "crossing", "kerb": "flush", "tactile_paving": "yes"}}, {"type": "way", "id": 11356000, "nodes": [25531128, 3177436382, 1377849344, 3176785005, 101023775, 3176784959, 3176784936, 3176784932, 3176784928, 101023776, 101023777, 101023778, 8505039680, 101023779, 3173122138, 101023780, 3173122120, 101023781, 101023782], "tags": {"access": "yes", "bicycle": "yes", "cycleway": "no", "foot": "yes", "highway": "residential", "lanes": "1", "maxspeed": "50", "name": "Calle de Jos\u00e9 Mar\u00eda de Pereda", "name:etymology:wikidata": "Q4115628", "oneway": "yes", "postal_code": "28017", "sidewalk": "both", "surface": "asphalt"}}, {"type": "way", "id": 11357911, "nodes": [3176633046, 101035389], "tags": {"highway": "residential", "lanes": "2", "maxspeed": "40", "name": "Calle de Juan Arolas", "postal_code": "28017", "sidewalk": "both", "surface": "asphalt"}}, {"type": "way", "id": 11357963, "nodes": [100974959, 3173122136, 3173122135, 101036103, 3172731889, 3172731891, 3172731892, 3172731893, 101035840], "tags": {"highway": "residential", "lanes": "1", "maxspeed": "40", "name": "Calle de Carolina Coronado", "name:etymology:wikidata": "Q941605", "oneway": "yes", "postal_code": "28017", "sidewalk": "both", "surface": "asphalt"}}, {"type": "way", "id": 147011604, "nodes": [101010585, 3177430558, 1377849339, 3176633048, 101034939, 3262170675, 3177430557, 3177430556, 101023778, 3200176890, 101025022, 3200176889, 3200176888, 101025641, 3200176887, 3201886759, 3201886758, 101034261], "tags": {"highway": "residential", "lanes": "1", "maxspeed": "40", "name": "Calle de Carlos Hern\u00e1ndez", "oneway": "yes", "postal_code": "28017", "sidewalk": "both", "surface": "asphalt"}}, {"type": "way", "id": 311614373, "nodes": [101035840, 3173122148, 3173122156, 101035389], "tags": {"highway": "residential", "lanes": "1", "maxspeed": "40", "name": "Calle de Juan Arolas", "oneway": "yes", "postal_code": "28017", "sidewalk": "both", "surface": "asphalt"}}, {"type": "way", "id": 311614375, "nodes": [101010776, 101040418, 3262170664, 11917682352, 3173122127, 101023780, 11917682353, 3200176880, 3200176879, 101025025, 3200176876, 3200176875, 101025645], "tags": {"highway": "residential", "lanes": "1", "maxspeed": "40", "name": "Calle de Servando Batanero", "oneway": "yes", "postal_code": "28017", "sidewalk": "both", "surface": "asphalt"}}, {"type": "way", "id": 311614379, "nodes": [3173122281, 3173122274, 3173122271, 3173122268], "tags": {"highway": "residential", "lanes": "1", "maxspeed": "40", "name": "Callej\u00f3n de Murcia", "postal_code": "28017", "sidewalk": "both", "surface": "asphalt"}}, {"type": "way", "id": 311902844, "nodes": [3173122279, 3173122280, 101010585, 101010584], "tags": {"highway": "residential", "lanes": "1", "maxspeed": "40", "name": "Calle del Lago Constanza", "name:etymology:wikidata": "Q4127", "oneway": "yes", "postal_code": "28017", "sidewalk": "both", "surface": "asphalt"}}, {"type": "way", "id": 311915217, "nodes": [3176784593, 3176784618], "tags": {"handrail": "yes", "highway": "steps", "incline": "up", "ramp": "yes", "ramp:wheelchair": "yes", "step_count": "9", "surface": "paving_stones", "tactile_paving": "no"}}, {"type": "way", "id": 311915219, "nodes": [3176784577, 3176784608], "tags": {"handrail": "yes", "highway": "steps", "incline": "up", "ramp": "yes", "ramp:wheelchair": "yes", "step_count": "9", "surface": "paving_stones", "tactile_paving": "no"}}, {"type": "way", "id": 311915220, "nodes": [3176633046, 3176784585], "tags": {"handrail": "yes", "highway": "steps", "incline": "up", "ramp": "yes", "ramp:wheelchair": "yes", "step_count": "8", "surface": "paving_stones", "tactile_paving": "no"}}, {"type": "way", "id": 311915222, "nodes": [3262170664, 3176782156, 3176784266, 3176784271, 3172731892], "tags": {"highway": "footway", "surface": "paving_stones"}}, {"type": "way", "id": 311915223, "nodes": [3176784577, 3176784585, 3176784593], "tags": {"check_date:surface": "2024-09-08", "highway": "footway", "surface": "paving_stones"}}, {"type": "way", "id": 314115434, "nodes": [101025643, 3200176884, 3200176886, 101025024, 3177430555, 3173122142, 101023779, 101035389, 3173122268, 3173122272, 3176784474, 3176784476, 101010587, 3176784484, 3176784493, 3173122279], "tags": {"highway": "residential", "lanes": "1", "maxspeed": "40", "name": "Calle de Sor Mar\u00eda de \u00c1greda", "oneway": "yes", "postal_code": "28017", "sidewalk": "both", "surface": "asphalt"}}, {"type": "way", "id": 319579089, "nodes": [101040574, 101040573, 3173122123, 3173122129, 3173122131, 101040418, 3173122133, 3173122134, 101036103], "tags": {"highway": "residential", "lanes": "1", "maxspeed": "40", "name": "Calle de Ledesma", "name:etymology:wikidata": "Q965028", "oneway": "yes", "postal_code": "28017", "sidewalk": "both", "surface": "asphalt"}}, {"type": "way", "id": 319755020, "nodes": [3176784608, 3176784618], "tags": {"check_date:surface": "2024-09-08", "highway": "footway", "surface": "paving_stones"}}, {"type": "way", "id": 319755042, "nodes": [3262170675, 3176784608], "tags": {"check_date:surface": "2024-09-08", "highway": "footway", "surface": "paving_stones"}}]}