{"version": 0.6, "generator": "Overpass API 0.7.62.5 1bd436f1", "osm3s": {"timestamp_osm_base": "2025-03-23T15:28:30Z", "copyright": "The data included in this document is from www.openstreetmap.org. The data is made available under ODbL."}, "elements": [{"type": "node", "id": 259645640, "lat": 40.3702156, "lon": -3.7531739}, {"type": "node", "id": 259651471, "lat": 40.3718636, "lon": -3.7496657}, {"type": "node", "id": 306098044, "lat": 40.3705257, "lon": -3.7521638}, {"type": "node", "id": 306098259, "lat": 40.3714112, "lon": -3.7505281}, {"type": "node", "id": 306098282, "lat": 40.3703187, "lon": -3.7501899}, {"type": "node", "id": 306098290, "lat": 40.3711569, "lon": -3.7510112}, {"type": "node", "id": 306098322, "lat": 40.3702958, "lon": -3.75078}, {"type": "node", "id": 306098329, "lat": 40.3709318, "lon": -3.7492601}, {"type": "node", "id": 306098378, "lat": 40.3707368, "lon": -3.7503201}, {"type": "node", "id": 306098379, "lat": 40.3706078, "lon": -3.7508625}, {"type": "node", "id": 306098381, "lat": 40.3704733, "lon": -3.751468}, {"type": "node", "id": 306098382, "lat": 40.370824, "lon": -3.7516291}, {"type": "node", "id": 316250349, "lat": 40.3710527, "lon": -3.7504164}, {"type": "node", "id": 316250353, "lat": 40.3712361, "lon": -3.7494358}, {"type": "node", "id": 316250354, "lat": 40.369988, "lon": -3.7494658}, {"type": "node", "id": 316250355, "lat": 40.370849, "lon": -3.7497163}, {"type": "node", "id": 316250368, "lat": 40.3702416, "lon": -3.7500164}, {"type": "node", "id": 1200406561, "lat": 40.3719156, "lon": -3.7494377}, {"type": "node", "id": 1200406631, "lat": 40.3705123, "lon": -3.7515384}, {"type": "node", "id": 1200406725, "lat": 40.3703768, "lon": -3.7525572}, {"type": "node", "id": 1200406747, "lat": 40.3723802, "lon": -3.7489652}, {"type": "node", "id": 1200406822, "lat": 40.3719639, "lon": -3.7493692}, {"type": "node", "id": 1402255251, "lat": 40.3712838, "lon": -3.7504884}, {"type": "node", "id": 2614125560, "lat": 40.3712635, "lon": -3.7508087}, {"type": "node", "id": 5228643461, "lat": 40.3718756, "lon": -3.7496129, "tags": {"crossing": "uncontrolled", "highway": "crossing"}}, {"type": "node", "id": 5228643462, "lat": 40.3718399, "lon": -3.7497108, "tags": {"crossing": "uncontrolled", "highway": "crossing"}}, {"type": "node", "id": 5228643464, "lat": 40.3723357, "lon": -3.7490084, "tags": {"crossing": "uncontrolled", "highway": "crossing"}}, {"type": "node", "id": 10132925923, "lat": 40.3702468, "lon": -3.7530307}, {"type": "node", "id": 11831681275, "lat": 40.3702384, "lon": -3.7530692, "tags": {"crossing:island": "no", "crossing:signals": "yes", "highway": "crossing", "tactile_paving": "yes"}}, {"type": "node", "id": 12145146807, "lat": 40.3696946, "lon": -3.7488981}, {"type": "node", "id": 12145146808, "lat": 40.3702775, "lon": -3.7502056}, {"type": "way", "id": 27879891, "nodes": [306098259, 1402255251, 316250349, 306098378], "tags": {"highway": "residential", "lit": "yes", "name": "Calle de Baltan\u00e1s", "oneway": "yes", "postal_code": "28044", "surface": "asphalt"}}, {"type": "way", "id": 27879893, "nodes": [306098322, 306098379], "tags": {"highway": "residential", "lanes": "1", "lit": "yes", "maxspeed": "50", "name": "Calle de la Telegraf\u00eda", "oneway": "no", "postal_code": "28044", "surface": "asphalt"}}, {"type": "way", "id": 27879904, "nodes": [306098378, 316250355, 306098329], "tags": {"highway": "residential", "lanes": "1", "lit": "yes", "maxspeed": "50", "name": "Calle de Nuestra Se\u00f1ora de la Soledad", "oneway": "yes", "postal_code": "28044", "surface": "asphalt"}}, {"type": "way", "id": 28763728, "nodes": [316250349, 316250353], "tags": {"highway": "residential", "lit": "yes", "name": "Calle de Agustina Fierra", "oneway": "yes", "postal_code": "28044", "surface": "asphalt"}}, {"type": "way", "id": 44703292, "nodes": [259645640, 11831681275, 10132925923, 1200406725, 306098044, 306098382], "tags": {"highway": "residential", "lanes": "2", "lit": "yes", "maxspeed": "50", "name": "Calle de la Chirimoya", "oneway": "no", "postal_code": "28044", "surface": "asphalt"}}, {"type": "way", "id": 731833123, "nodes": [306098378, 306098282, 316250368, 316250354], "tags": {"highway": "residential", "lit": "yes", "name": "Calle de Baltan\u00e1s", "oneway": "yes", "postal_code": "28044", "surface": "asphalt"}}, {"type": "way", "id": 731833124, "nodes": [306098378, 306098379], "tags": {"highway": "residential", "lanes": "1", "lit": "yes", "maxspeed": "50", "name": "Calle de Nuestra Se\u00f1ora de la Soledad", "oneway": "yes", "postal_code": "28044", "surface": "asphalt"}}, {"type": "way", "id": 731833465, "nodes": [306098382, 306098290, 2614125560, 306098259, 5228643462, 259651471, 5228643461, 1200406561, 1200406822, 5228643464, 1200406747], "tags": {"highway": "residential", "lit": "yes", "name": "Calle de la Chirimoya", "oneway": "yes", "postal_code": "28044", "surface": "asphalt"}}, {"type": "way", "id": 731834178, "nodes": [306098379, 306098290], "tags": {"highway": "residential", "lanes": "1", "lit": "yes", "maxspeed": "50", "name": "Calle de la Telegraf\u00eda", "oneway": "yes", "postal_code": "28044", "surface": "asphalt"}}, {"type": "way", "id": 731834179, "nodes": [306098379, 306098381, 1200406631, 306098382], "tags": {"highway": "residential", "lanes": "1", "lit": "yes", "maxspeed": "50", "name": "Calle de Nuestra Se\u00f1ora de la Soledad", "oneway": "yes", "postal_code": "28044", "surface": "asphalt"}}, {"type": "way", "id": 1312118715, "nodes": [12145146808, 12145146807], "tags": {"footway": "sidewalk", "highway": "footway", "lit": "yes"}}]}