{"version": 0.6, "generator": "Overpass API 0.7.62.5 1bd436f1", "osm3s": {"timestamp_osm_base": "2025-03-23T13:54:30Z", "copyright": "The data included in this document is from www.openstreetmap.org. The data is made available under ODbL."}, "elements": [{"type": "node", "id": 143671554, "lat": 40.4445862, "lon": -3.6823691}, {"type": "node", "id": 143671641, "lat": 40.4473678, "lon": -3.6797177}, {"type": "node", "id": 143671977, "lat": 40.4467908, "lon": -3.6802813}, {"type": "node", "id": 143672074, "lat": 40.4464925, "lon": -3.6805932}, {"type": "node", "id": 143672175, "lat": 40.446131, "lon": -3.6809679}, {"type": "node", "id": 143672227, "lat": 40.4454128, "lon": -3.6815461, "tags": {"highway": "crossing"}}, {"type": "node", "id": 143672327, "lat": 40.4457957, "lon": -3.6823947}, {"type": "node", "id": 143672478, "lat": 40.4453503, "lon": -3.6816002}, {"type": "node", "id": 143672739, "lat": 40.4458121, "lon": -3.680436}, {"type": "node", "id": 143672740, "lat": 40.4454249, "lon": -3.6807691}, {"type": "node", "id": 143672741, "lat": 40.4452786, "lon": -3.6809281}, {"type": "node", "id": 143672742, "lat": 40.4452053, "lon": -3.6813079}, {"type": "node", "id": 143672754, "lat": 40.4449519, "lon": -3.6819166}, {"type": "node", "id": 143672897, "lat": 40.4442597, "lon": -3.6812612}, {"type": "node", "id": 143672903, "lat": 40.4444887, "lon": -3.6802705}, {"type": "node", "id": 143685154, "lat": 40.445017, "lon": -3.6801647}, {"type": "node", "id": 143685238, "lat": 40.4452174, "lon": -3.6804423}, {"type": "node", "id": 143685239, "lat": 40.4456421, "lon": -3.680574}, {"type": "node", "id": 143685505, "lat": 40.4468693, "lon": -3.6802066}, {"type": "node", "id": 3388973467, "lat": 40.4451053, "lon": -3.6803337}, {"type": "node", "id": 3388973469, "lat": 40.4451965, "lon": -3.6811316}, {"type": "node", "id": 3388973471, "lat": 40.4452272, "lon": -3.6810125}, {"type": "node", "id": 3388973475, "lat": 40.4453207, "lon": -3.6805154}, {"type": "node", "id": 3388973490, "lat": 40.445446, "lon": -3.68056}, {"type": "node", "id": 3484519309, "lat": 40.4446099, "lon": -3.6823336, "tags": {"highway": "give_way"}}, {"type": "node", "id": 3484519310, "lat": 40.4446488, "lon": -3.6822887, "tags": {"crossing": "uncontrolled", "highway": "crossing"}}, {"type": "node", "id": 3484519311, "lat": 40.4453838, "lon": -3.681661, "tags": {"crossing": "uncontrolled", "highway": "crossing"}}, {"type": "way", "id": 14579126, "nodes": [143672478, 143672227, 143672175, 143672074, 143671977, 143685505, 143671641], "tags": {"highway": "residential", "lanes": "1", "name": "Calle de Rodr\u00edguez Mar\u00edn", "oneway": "no", "postal_code": "28002"}}, {"type": "way", "id": 14579249, "nodes": [143672897, 143672754], "tags": {"highway": "living_street", "maxspeed": "20", "name": "Calle Franco", "oneway": "yes", "postal_code": "28002", "surface": "sett"}}, {"type": "way", "id": 14580010, "nodes": [143672327, 3484519311, 143672478], "tags": {"bicycle": "yes", "bicycle:source": "enbicipormadrid", "highway": "residential", "name": "Calle Helecho", "oneway": "yes", "postal_code": "28002", "surface": "asphalt"}}, {"type": "way", "id": 56323513, "nodes": [143685154, 3388973467, 143685238, 3388973475, 3388973490, 143685239], "tags": {"bicycle": "yes", "bicycle:source": "enbicipormadrid", "highway": "living_street", "lanes": "1", "maxspeed": "20", "name": "Calle Dur\u00e1n", "oneway": "yes", "postal_code": "28002", "surface": "paving_stones"}}, {"type": "way", "id": 56323515, "nodes": [143672742, 3388973469, 3388973471, 143672741, 143672740, 143685239], "tags": {"highway": "living_street", "lanes": "1", "maxspeed": "20", "name": "Calle Gallarza", "oneway": "yes", "surface": "paving_stones"}}, {"type": "way", "id": 303487044, "nodes": [143685239, 143672739], "tags": {"bicycle": "yes", "bicycle:source": "enbicipormadrid", "highway": "living_street", "lanes": "1", "maxspeed": "20", "name": "Calle Gallarza", "oneway": "yes", "surface": "paving_stones"}}, {"type": "way", "id": 325114893, "nodes": [143672478, 143672742, 143672903], "tags": {"bicycle": "yes", "bicycle:source": "enbicipormadrid", "highway": "living_street", "lanes": "1", "maxspeed": "20", "name": "Calle Loriga", "oneway": "yes", "postal_code": "28002", "surface": "paving_stones"}}, {"type": "way", "id": 915298936, "nodes": [143672478, 143672754, 3484519310, 3484519309, 143671554], "tags": {"highway": "residential", "lanes": "1", "name": "Calle de Rodr\u00edguez Mar\u00edn", "oneway": "yes", "postal_code": "28002"}}]}