{"version": 0.6, "generator": "Overpass API 0.7.62.5 1bd436f1", "osm3s": {"timestamp_osm_base": "2025-03-23T14:56:45Z", "copyright": "The data included in this document is from www.openstreetmap.org. The data is made available under ODbL."}, "elements": [{"type": "node", "id": 248137209, "lat": 40.3918698, "lon": -3.6614314}, {"type": "node", "id": 316637557, "lat": 40.3919972, "lon": -3.6596541}, {"type": "node", "id": 316637561, "lat": 40.3924575, "lon": -3.6605296}, {"type": "node", "id": 316637575, "lat": 40.3917062, "lon": -3.6599185}, {"type": "node", "id": 316637593, "lat": 40.3921675, "lon": -3.6607999}, {"type": "node", "id": 316637594, "lat": 40.3922997, "lon": -3.6610526}, {"type": "node", "id": 317586860, "lat": 40.3899709, "lon": -3.6596831}, {"type": "node", "id": 317587847, "lat": 40.3920905, "lon": -3.6606528}, {"type": "node", "id": 317587848, "lat": 40.3916649, "lon": -3.6610366}, {"type": "node", "id": 857535958, "lat": 40.3906901, "lon": -3.6602648}, {"type": "node", "id": 857536000, "lat": 40.3912996, "lon": -3.6602039}, {"type": "node", "id": 857536031, "lat": 40.3910254, "lon": -3.6599639}, {"type": "node", "id": 857536034, "lat": 40.3912721, "lon": -3.6603481, "tags": {"crossing": "no", "highway": "traffic_signals"}}, {"type": "node", "id": 857536046, "lat": 40.3911022, "lon": -3.6599382, "tags": {"crossing": "no", "highway": "traffic_signals"}}, {"type": "node", "id": 857536066, "lat": 40.3911642, "lon": -3.6603572}, {"type": "node", "id": 857536069, "lat": 40.3911679, "lon": -3.6599746}, {"type": "node", "id": 857536089, "lat": 40.3913062, "lon": -3.6602776}, {"type": "node", "id": 857536104, "lat": 40.3910057, "lon": -3.6600684}, {"type": "node", "id": 1224767460, "lat": 40.3908474, "lon": -3.6601719}, {"type": "node", "id": 1224767543, "lat": 40.3909448, "lon": -3.6602844, "tags": {"crossing": "traffic_signals", "highway": "traffic_signals"}}, {"type": "node", "id": 1224767664, "lat": 40.3910935, "lon": -3.6602898}, {"type": "node", "id": 1224767716, "lat": 40.391035, "lon": -3.659644}, {"type": "node", "id": 1224767808, "lat": 40.3910362, "lon": -3.6598257, "tags": {"crossing": "traffic_signals", "highway": "traffic_signals"}}, {"type": "node", "id": 1224767954, "lat": 40.3909032, "lon": -3.660132, "tags": {"crossing": "traffic_signals", "highway": "traffic_signals"}}, {"type": "node", "id": 1224768116, "lat": 40.3909311, "lon": -3.6591905}, {"type": "node", "id": 1224768296, "lat": 40.3910074, "lon": -3.660021}, {"type": "node", "id": 1224768424, "lat": 40.3913728, "lon": -3.6604737, "tags": {"crossing": "traffic_signals", "highway": "traffic_signals"}}, {"type": "node", "id": 1224768427, "lat": 40.3910315, "lon": -3.6601737}, {"type": "node", "id": 1224768536, "lat": 40.3908388, "lon": -3.6587599, "tags": {"crossing": "traffic_signals", "highway": "traffic_signals"}}, {"type": "node", "id": 1224768559, "lat": 40.3928695, "lon": -3.6588906}, {"type": "node", "id": 1224768604, "lat": 40.3912198, "lon": -3.6603656}, {"type": "node", "id": 1224768607, "lat": 40.3910117, "lon": -3.6599856}, {"type": "node", "id": 1423303760, "lat": 40.3909431, "lon": -3.6602081}, {"type": "node", "id": 1423303761, "lat": 40.3910141, "lon": -3.6601058, "tags": {"crossing": "no", "highway": "traffic_signals"}}, {"type": "node", "id": 1423303762, "lat": 40.3910627, "lon": -3.6599438}, {"type": "node", "id": 1423303763, "lat": 40.3911113, "lon": -3.6598358, "tags": {"crossing": "traffic_signals", "highway": "traffic_signals"}}, {"type": "node", "id": 1423303765, "lat": 40.3912421, "lon": -3.6601033, "tags": {"crossing": "no", "highway": "traffic_signals"}}, {"type": "node", "id": 1423303767, "lat": 40.391401, "lon": -3.6601463, "tags": {"crossing": "traffic_signals", "highway": "traffic_signals"}}, {"type": "node", "id": 1423303769, "lat": 40.3917463, "lon": -3.6611875}, {"type": "node", "id": 1439708701, "lat": 40.3919905, "lon": -3.6594753, "tags": {"bus": "yes", "highway": "bus_stop", "operator": "EMT Madrid", "public_transport": "platform", "ref": "1109", "source": "https://navegapormadrid.emtmadrid.es/app/"}}, {"type": "node", "id": 1558689087, "lat": 40.3927517, "lon": -3.6589947, "tags": {"crossing": "traffic_signals", "crossing:markings": "dots", "highway": "crossing"}}, {"type": "node", "id": 4089880053, "lat": 40.3922815, "lon": -3.6594056}, {"type": "node", "id": 5199944196, "lat": 40.3926789, "lon": -3.6588551, "tags": {"barrier": "kerb", "kerb": "lowered", "tactile_paving": "yes"}}, {"type": "node", "id": 5199944198, "lat": 40.3914634, "lon": -3.6602711}, {"type": "node", "id": 5199944199, "lat": 40.3913612, "lon": -3.6600673}, {"type": "node", "id": 8238592323, "lat": 40.3920567, "lon": -3.6595999, "tags": {"bus": "yes", "public_transport": "stop_position"}}, {"type": "node", "id": 8325527117, "lat": 40.3909706, "lon": -3.6598252}, {"type": "node", "id": 8325527118, "lat": 40.390918, "lon": -3.6599793}, {"type": "node", "id": 8325527119, "lat": 40.3908609, "lon": -3.6600513}, {"type": "node", "id": 8325527120, "lat": 40.3914278, "lon": -3.6604226}, {"type": "node", "id": 8325527121, "lat": 40.3913887, "lon": -3.6603435}, {"type": "node", "id": 8325527122, "lat": 40.3912894, "lon": -3.6600572}, {"type": "node", "id": 8325527123, "lat": 40.3911835, "lon": -3.6598455}, {"type": "node", "id": 8441342362, "lat": 40.3917269, "lon": -3.6611512, "tags": {"bus": "yes", "public_transport": "stop_position"}}, {"type": "node", "id": 8441342370, "lat": 40.3916426, "lon": -3.6609969, "tags": {"bus": "yes", "public_transport": "stop_position"}}, {"type": "node", "id": 8504487905, "lat": 40.3908846, "lon": -3.6589736}, {"type": "node", "id": 8504487907, "lat": 40.3907917, "lon": -3.659942}, {"type": "node", "id": 8504487908, "lat": 40.3906648, "lon": -3.6599599}, {"type": "node", "id": 8504487909, "lat": 40.3905261, "lon": -3.6599756}, {"type": "node", "id": 8504487910, "lat": 40.3904873, "lon": -3.6599125}, {"type": "node", "id": 8504487911, "lat": 40.3904117, "lon": -3.6598254}, {"type": "node", "id": 8504487912, "lat": 40.39009, "lon": -3.6597301}, {"type": "node", "id": 8504488332, "lat": 40.3905026, "lon": -3.6599374}, {"type": "node", "id": 8504488338, "lat": 40.3902878, "lon": -3.6597887}, {"type": "node", "id": 11903307915, "lat": 40.3926215, "lon": -3.6589097}, {"type": "node", "id": 12311218472, "lat": 40.3921692, "lon": -3.6604789}, {"type": "node", "id": 12311218473, "lat": 40.3919597, "lon": -3.6600831}, {"type": "node", "id": 12311218474, "lat": 40.3920765, "lon": -3.6603058}, {"type": "node", "id": 12311218475, "lat": 40.3919618, "lon": -3.6604038}, {"type": "way", "id": 23198137, "nodes": [1224768559, 1558689087, 4089880053, 8238592323, 316637557, 316637575, 1423303767, 857536000], "tags": {"highway": "residential", "lanes": "4", "maxspeed": "50", "name": "Calle del Payaso Fof\u00f3", "name:etymology:wikidata": "Q3645440", "oneway": "no", "postal_code": "28018", "surface": "asphalt"}}, {"type": "way", "id": 28798574, "nodes": [316637557, 316637561], "tags": {"highway": "residential", "name": "Calle Sierra de la Loba", "postal_code": "28053"}}, {"type": "way", "id": 28798579, "nodes": [316637575, 12311218475, 317587847, 316637593, 316637594], "tags": {"highway": "residential", "name": "Calle Pe\u00f1a Trevinca", "postal_code": "28018"}}, {"type": "way", "id": 28892267, "nodes": [317587848, 317587847], "tags": {"highway": "residential", "name": "Calle Sierra de Almijara", "oneway": "yes", "postal_code": "28018"}}, {"type": "way", "id": 72136953, "nodes": [1224767664, 1224767543, 857535958], "tags": {"highway": "residential", "name": "Calle del Payaso Fof\u00f3", "name:etymology:wikidata": "Q3645440", "oneway": "yes", "postal_code": "28018"}}, {"type": "way", "id": 72136962, "nodes": [857536031, 1224767808, 1224767716], "tags": {"highway": "tertiary", "maxspeed": "50", "name": "Calle del Arroyo del Olivar", "oneway": "yes", "postal_code": "28018"}}, {"type": "way", "id": 72136984, "nodes": [857536000, 857536089], "tags": {"highway": "tertiary", "junction": "circular", "maxspeed": "50", "oneway": "yes", "postal_code": "28018", "surface": "asphalt"}}, {"type": "way", "id": 72137008, "nodes": [1224767664, 1224768427, 1423303761, 857536104, 1224768296], "tags": {"highway": "tertiary", "junction": "circular", "maxspeed": "50", "oneway": "yes", "postal_code": "28018", "surface": "asphalt"}}, {"type": "way", "id": 106466986, "nodes": [1224768424, 1224768604], "tags": {"highway": "tertiary", "maxspeed": "50", "name": "Calle del Arroyo del Olivar", "oneway": "yes", "postal_code": "28018"}}, {"type": "way", "id": 106466991, "nodes": [857536089, 1224768424], "tags": {"highway": "tertiary", "maxspeed": "50", "name": "Calle del Arroyo del Olivar", "oneway": "yes", "postal_code": "28018", "surface": "asphalt"}}, {"type": "way", "id": 106466997, "nodes": [857535958, 1224767460, 1224767954, 1224768296], "tags": {"highway": "residential", "name": "Calle del Payaso Fof\u00f3", "name:etymology:wikidata": "Q3645440", "oneway": "yes", "postal_code": "28018"}}, {"type": "way", "id": 106467006, "nodes": [1224767716, 1224768116, 8504487905, 1224768536], "tags": {"highway": "tertiary", "lanes": "2", "maxspeed": "50", "name": "Calle del Arroyo del Olivar", "postal_code": "28018"}}, {"type": "way", "id": 106467015, "nodes": [1224767716, 1423303763, 857536069], "tags": {"highway": "tertiary", "maxspeed": "50", "name": "Calle del Arroyo del Olivar", "oneway": "yes", "postal_code": "28018"}}, {"type": "way", "id": 128915775, "nodes": [8325527123, 1423303763, 1224767808, 8325527117], "tags": {"footway": "crossing", "highway": "footway"}}, {"type": "way", "id": 128915778, "nodes": [1224767543, 1423303760, 1224767954, 8325527119], "tags": {"footway": "crossing", "highway": "footway"}}, {"type": "way", "id": 179212419, "nodes": [1224768296, 1224768607, 857536031], "tags": {"highway": "tertiary", "junction": "circular", "maxspeed": "50", "oneway": "yes", "postal_code": "28018", "surface": "asphalt"}}, {"type": "way", "id": 179212420, "nodes": [857536069, 1423303765, 857536000], "tags": {"highway": "tertiary", "junction": "circular", "maxspeed": "50", "oneway": "yes", "postal_code": "28018"}}, {"type": "way", "id": 179212422, "nodes": [857536089, 857536034, 1224768604], "tags": {"highway": "tertiary", "junction": "circular", "maxspeed": "50", "oneway": "yes", "postal_code": "28018", "surface": "asphalt"}}, {"type": "way", "id": 179212424, "nodes": [857536031, 1423303762, 857536046, 857536069], "tags": {"highway": "tertiary", "junction": "circular", "maxspeed": "50", "oneway": "yes", "postal_code": "28018", "surface": "asphalt"}}, {"type": "way", "id": 179212425, "nodes": [1224768604, 857536066, 1224767664], "tags": {"highway": "tertiary", "junction": "circular", "maxspeed": "50", "oneway": "yes", "postal_code": "28018", "surface": "asphalt"}}, {"type": "way", "id": 417107557, "nodes": [248137209, 1423303769, 8441342362, 317587848, 8441342370, 1224768424], "tags": {"highway": "tertiary", "lanes": "2", "maxspeed": "50", "name": "Calle del Arroyo del Olivar", "oneway": "no", "postal_code": "28018"}}, {"type": "way", "id": 536884132, "nodes": [5199944198, 1423303767, 5199944199], "tags": {"crossing": "traffic_signals", "footway": "crossing", "highway": "footway"}}, {"type": "way", "id": 536884133, "nodes": [8325527123, 8325527122, 5199944199, 11903307915, 5199944196], "tags": {"footway": "sidewalk", "highway": "footway"}}, {"type": "way", "id": 895664032, "nodes": [8325527119, 8325527118, 8325527117], "tags": {"footway": "sidewalk", "highway": "footway"}}, {"type": "way", "id": 895664033, "nodes": [8325527120, 8325527121, 5199944198], "tags": {"crossing": "traffic_signals", "footway": "sidewalk", "highway": "footway"}}, {"type": "way", "id": 895664034, "nodes": [1224768424, 8325527120], "tags": {"crossing": "traffic_signals", "footway": "crossing", "highway": "footway"}}, {"type": "way", "id": 915547285, "nodes": [8325527119, 8504487907, 8504487908, 8504487909, 8504488332, 8504487910, 8504487911, 8504488338, 8504487912, 317586860], "tags": {"highway": "footway"}}, {"type": "way", "id": 1330564506, "nodes": [12311218474, 12311218472], "tags": {"highway": "service"}}, {"type": "way", "id": 1330564507, "nodes": [12311218475, 12311218474, 12311218473], "tags": {"highway": "service"}}]}