{"version": 0.6, "generator": "Overpass API 0.7.62.5 1bd436f1", "osm3s": {"timestamp_osm_base": "2025-03-23T11:13:15Z", "copyright": "The data included in this document is from www.openstreetmap.org. The data is made available under ODbL."}, "elements": [{"type": "node", "id": 21780381, "lat": 40.3964812, "lon": -3.7349504, "tags": {"source": "yahoo_maps"}}, {"type": "node", "id": 21780392, "lat": 40.3960482, "lon": -3.7352046, "tags": {"source": "yahoo_maps"}}, {"type": "node", "id": 21780404, "lat": 40.3956074, "lon": -3.7354271, "tags": {"source": "yahoo_maps"}}, {"type": "node", "id": 21780410, "lat": 40.3952217, "lon": -3.7356182, "tags": {"source": "yahoo_maps"}}, {"type": "node", "id": 21780441, "lat": 40.3946525, "lon": -3.7346903, "tags": {"source": "yahoo_maps"}}, {"type": "node", "id": 21780460, "lat": 40.3949071, "lon": -3.7343717, "tags": {"source": "yahoo_maps"}}, {"type": "node", "id": 21780472, "lat": 40.3952423, "lon": -3.7339904, "tags": {"source": "yahoo_maps"}}, {"type": "node", "id": 21780485, "lat": 40.3955425, "lon": -3.7336261, "tags": {"source": "yahoo_maps"}}, {"type": "node", "id": 21780498, "lat": 40.3958584, "lon": -3.7349158, "tags": {"source": "yahoo_maps"}}, {"type": "node", "id": 21780506, "lat": 40.3961982, "lon": -3.7345506, "tags": {"source": "yahoo_maps"}}, {"type": "node", "id": 21780518, "lat": 40.3958961, "lon": -3.7341237, "tags": {"source": "yahoo_maps"}}, {"type": "node", "id": 21780527, "lat": 40.396209, "lon": -3.733741, "tags": {"source": "yahoo_maps"}}, {"type": "node", "id": 21780540, "lat": 40.3958503, "lon": -3.7332043, "tags": {"source": "yahoo_maps"}}, {"type": "node", "id": 302000091, "lat": 40.3942818, "lon": -3.735111}, {"type": "node", "id": 302000094, "lat": 40.3939052, "lon": -3.7340228}, {"type": "node", "id": 302000131, "lat": 40.3941945, "lon": -3.7339323}, {"type": "node", "id": 302000392, "lat": 40.3954285, "lon": -3.7324138}, {"type": "node", "id": 302000393, "lat": 40.3954611, "lon": -3.7326622}, {"type": "node", "id": 302000395, "lat": 40.397051, "lon": -3.7315947}, {"type": "node", "id": 302000403, "lat": 40.3964201, "lon": -3.7324454}, {"type": "node", "id": 302000415, "lat": 40.3961592, "lon": -3.7327957}, {"type": "node", "id": 302000418, "lat": 40.3950126, "lon": -3.7328241}, {"type": "node", "id": 302000419, "lat": 40.3950181, "lon": -3.7313648}, {"type": "node", "id": 302000420, "lat": 40.3950104, "lon": -3.7325662}, {"type": "node", "id": 302000421, "lat": 40.3950159, "lon": -3.731691}, {"type": "node", "id": 302000422, "lat": 40.3945513, "lon": -3.7322633}, {"type": "node", "id": 302000423, "lat": 40.3946388, "lon": -3.7331418}, {"type": "node", "id": 302000424, "lat": 40.3944519, "lon": -3.7315139}, {"type": "node", "id": 306042193, "lat": 40.3940335, "lon": -3.7331089}, {"type": "node", "id": 347477074, "lat": 40.3946257, "lon": -3.7328672}, {"type": "node", "id": 347479163, "lat": 40.39643, "lon": -3.7349008}, {"type": "node", "id": 1390823524, "lat": 40.3936947, "lon": -3.7340797}, {"type": "node", "id": 1390823545, "lat": 40.3940321, "lon": -3.7339831}, {"type": "node", "id": 1390823723, "lat": 40.3945303, "lon": -3.7321336}, {"type": "node", "id": 1669658072, "lat": 40.3937628, "lon": -3.7340613, "tags": {"highway": "crossing"}}, {"type": "node", "id": 4307125044, "lat": 40.394611, "lon": -3.7346257, "tags": {"crossing": "zebra", "highway": "crossing", "tactile_paving": "yes"}}, {"type": "node", "id": 4307125045, "lat": 40.3946239, "lon": -3.7347239, "tags": {"crossing": "zebra", "highway": "crossing", "tactile_paving": "yes"}}, {"type": "node", "id": 4307125046, "lat": 40.3946341, "lon": -3.7346624, "tags": {"highway": "give_way"}}, {"type": "node", "id": 5381816733, "lat": 40.3963894, "lon": -3.7324871, "tags": {"highway": "crossing"}}, {"type": "node", "id": 5381816736, "lat": 40.3965611, "lon": -3.7322556, "tags": {"highway": "crossing"}}, {"type": "node", "id": 5381816741, "lat": 40.397009, "lon": -3.7316525, "tags": {"crossing:signals": "no", "highway": "crossing"}}, {"type": "node", "id": 9498986570, "lat": 40.3962363, "lon": -3.7346082, "tags": {"crossing:signals": "yes", "highway": "crossing"}}, {"type": "node", "id": 9498986573, "lat": 40.3954317, "lon": -3.7325317}, {"type": "node", "id": 9498986578, "lat": 40.3961216, "lon": -3.7328455, "tags": {"highway": "crossing"}}, {"type": "node", "id": 9498986579, "lat": 40.3958875, "lon": -3.7332599, "tags": {"highway": "crossing"}}, {"type": "node", "id": 9498986580, "lat": 40.3958231, "lon": -3.7331641, "tags": {"highway": "crossing"}}, {"type": "node", "id": 9498986581, "lat": 40.3958096, "lon": -3.7332601, "tags": {"highway": "crossing"}}, {"type": "node", "id": 9498986582, "lat": 40.395515, "lon": -3.7335845, "tags": {"highway": "crossing"}}, {"type": "node", "id": 9498986583, "lat": 40.3954937, "lon": -3.7336853, "tags": {"highway": "crossing"}}, {"type": "node", "id": 9498986584, "lat": 40.3955817, "lon": -3.7336813, "tags": {"highway": "crossing"}}, {"type": "node", "id": 9498986585, "lat": 40.3952069, "lon": -3.7339406, "tags": {"highway": "crossing"}}, {"type": "node", "id": 9498986586, "lat": 40.395196, "lon": -3.734043, "tags": {"highway": "crossing"}}, {"type": "node", "id": 9498986587, "lat": 40.395276, "lon": -3.7340411, "tags": {"highway": "crossing"}}, {"type": "node", "id": 9498986588, "lat": 40.3946906, "lon": -3.7347524, "tags": {"highway": "crossing"}}, {"type": "node", "id": 9498986589, "lat": 40.3948807, "lon": -3.7343335, "tags": {"highway": "crossing"}}, {"type": "node", "id": 9498986590, "lat": 40.3948481, "lon": -3.7344456, "tags": {"highway": "crossing"}}, {"type": "node", "id": 9498986591, "lat": 40.3949413, "lon": -3.7344232, "tags": {"highway": "crossing"}}, {"type": "node", "id": 12280856664, "lat": 40.3944587, "lon": -3.7316039, "tags": {"crossing:markings": "yes", "crossing:signals": "no", "highway": "crossing"}}, {"type": "node", "id": 12492199862, "lat": 40.3950175, "lon": -3.7314543, "tags": {"crossing": "marked", "crossing:island": "no", "crossing:markings": "zebra", "highway": "crossing", "tactile_paving": "yes"}}, {"type": "way", "id": 7648228, "nodes": [21780485, 9498986581, 21780540, 9498986578, 302000415, 5381816733, 302000403, 5381816736, 5381816741, 302000395], "tags": {"highway": "residential", "lanes": "1", "lit": "yes", "maxspeed": "30", "maxspeed:type": "sign", "name": "Calle del Alcaud\u00f3n", "oneway": "yes", "postal_code": "28019", "sidewalk": "both", "smoothness": "excellent", "source": "yahoo_maps", "surface": "asphalt"}}, {"type": "way", "id": 7648232, "nodes": [302000424, 12280856664, 1390823723, 302000422, 347477074, 302000423, 9498986585, 21780472, 9498986587, 21780498, 21780392], "tags": {"highway": "residential", "lanes": "1", "lit": "yes", "maxspeed": "30", "maxspeed:type": "sign", "name": "Calle Cabo Nicol\u00e1s Mur", "oneway": "yes", "postal_code": "28019"}}, {"type": "way", "id": 7648233, "nodes": [21780404, 9498986591, 21780460, 9498986589, 306042193], "tags": {"highway": "residential", "lit": "yes", "name": "Calle Jos\u00e9 Mar\u00eda Pem\u00e1n", "oneway": "yes", "postal_code": "28019"}}, {"type": "way", "id": 7648234, "nodes": [1390823524, 1669658072, 302000094, 1390823545, 302000131, 4307125044, 4307125046, 21780441, 9498986588, 21780410], "tags": {"highway": "residential", "lanes": "1", "lit": "yes", "maxspeed": "50", "name": "Calle de Alci\u00f3n", "oneway": "yes", "postal_code": "28019", "smoothness": "excellent", "source": "yahoo_maps", "surface": "asphalt"}}, {"type": "way", "id": 7648244, "nodes": [21780441, 9498986590, 21780460, 9498986586, 21780472, 9498986583, 21780485], "tags": {"highway": "residential", "lit": "yes", "maxspeed": "30", "maxspeed:type": "sign", "name": "Calle del Alcaud\u00f3n", "oneway": "yes", "postal_code": "28019", "smoothness": "excellent", "surface": "asphalt"}}, {"type": "way", "id": 7648245, "nodes": [21780381, 347479163, 9498986570, 21780506, 21780518, 9498986584, 21780485], "tags": {"highway": "residential", "lit": "yes", "maxspeed": "30", "maxspeed:type": "sign", "name": "Calle Soldado Jos\u00e9 Mar\u00eda Rey", "oneway": "yes", "postal_code": "28019", "smoothness": "excellent", "surface": "asphalt"}}, {"type": "way", "id": 27508620, "nodes": [21780485, 9498986582, 302000418, 302000420, 302000421, 12492199862, 302000419], "tags": {"highway": "residential", "lit": "yes", "maxspeed": "30", "maxspeed:type": "sign", "name": "Calle Soldado Jos\u00e9 Mar\u00eda Rey", "oneway": "yes", "postal_code": "28019", "source": "yahoo_maps"}}, {"type": "way", "id": 27848938, "nodes": [302000091, 4307125045, 21780441], "tags": {"highway": "residential", "lanes": "1", "lit": "yes", "maxspeed": "50", "name": "Calle del Alcaud\u00f3n", "oneway": "yes", "postal_code": "28019", "smoothness": "excellent", "source": "yahoo_maps", "surface": "asphalt"}}, {"type": "way", "id": 185466718, "nodes": [302000392, 9498986573, 302000393, 9498986580, 21780540, 9498986579, 21780527], "tags": {"highway": "residential", "lit": "yes", "maxspeed": "30", "maxspeed:type": "sign", "name": "Calle Teniente Ochoa Olalla", "oneway": "yes", "postal_code": "28019", "source": "yahoo_maps"}}]}