{"version": 0.6, "generator": "Overpass API 0.7.62.5 1bd436f1", "osm3s": {"timestamp_osm_base": "2025-03-23T12:39:35Z", "copyright": "The data included in this document is from www.openstreetmap.org. The data is made available under ODbL."}, "elements": [{"type": "node", "id": 26501246, "lat": 40.3991773, "lon": -3.7030982, "tags": {"highway": "traffic_signals"}}, {"type": "node", "id": 26528733, "lat": 40.40083, "lon": -3.7033442}, {"type": "node", "id": 26528734, "lat": 40.3995999, "lon": -3.7024133}, {"type": "node", "id": 26528736, "lat": 40.3984976, "lon": -3.7016032}, {"type": "node", "id": 26528737, "lat": 40.4008364, "lon": -3.7023102}, {"type": "node", "id": 26528738, "lat": 40.4000232, "lon": -3.7017654}, {"type": "node", "id": 26528739, "lat": 40.3990753, "lon": -3.7010776}, {"type": "node", "id": 26528740, "lat": 40.4004845, "lon": -3.7010468}, {"type": "node", "id": 26528742, "lat": 40.3997767, "lon": -3.7004719}, {"type": "node", "id": 632467151, "lat": 40.4003994, "lon": -3.7030172}, {"type": "node", "id": 632467179, "lat": 40.4010136, "lon": -3.7014619}, {"type": "node", "id": 4396897408, "lat": 40.4000788, "lon": -3.7018029, "tags": {"crossing": "zebra", "highway": "crossing", "tactile_paving": "yes"}}, {"type": "node", "id": 4396897409, "lat": 40.4000568, "lon": -3.7017882, "tags": {"highway": "give_way"}}, {"type": "node", "id": 4396897413, "lat": 40.4000485, "lon": -3.7018492}, {"type": "node", "id": 4396897414, "lat": 40.400116, "lon": -3.7017459}, {"type": "node", "id": 4396897418, "lat": 40.3999048, "lon": -3.7020382}, {"type": "node", "id": 4396897419, "lat": 40.4000332, "lon": -3.7018431}, {"type": "node", "id": 4396897420, "lat": 40.4007715, "lon": -3.7023575}, {"type": "node", "id": 4414925393, "lat": 40.3980472, "lon": -3.7022194}, {"type": "node", "id": 5959882556, "lat": 40.4000657, "lon": -3.7016993, "tags": {"crossing": "uncontrolled", "crossing:island": "no", "highway": "crossing", "tactile_paving": "yes"}}, {"type": "node", "id": 5959882557, "lat": 40.3999769, "lon": -3.7018363, "tags": {"crossing": "uncontrolled", "crossing:island": "no", "highway": "crossing", "tactile_paving": "yes"}}, {"type": "node", "id": 8805529727, "lat": 40.399968, "lon": -3.7017863}, {"type": "node", "id": 8805529728, "lat": 40.3991218, "lon": -3.7011802, "tags": {"barrier": "kerb", "kerb": "lowered", "tactile_paving": "yes"}}, {"type": "node", "id": 8805529729, "lat": 40.3992071, "lon": -3.7011008}, {"type": "node", "id": 8805529730, "lat": 40.3991608, "lon": -3.7011409, "tags": {"button_operated": "no", "crossing": "traffic_signals", "crossing:markings": "dots", "highway": "crossing", "tactile_paving": "yes", "traffic_signals:sound": "yes", "traffic_signals:vibration": "no"}}, {"type": "node", "id": 11618165840, "lat": 40.4009218, "lon": -3.7013899, "tags": {"crossing": "uncontrolled", "crossing:markings": "yes", "highway": "crossing"}}, {"type": "node", "id": 11813369478, "lat": 40.3995842, "lon": -3.7013814}, {"type": "node", "id": 11813369480, "lat": 40.3991158, "lon": -3.7011868}, {"type": "node", "id": 11813369491, "lat": 40.400196, "lon": -3.7008664}, {"type": "node", "id": 11813369492, "lat": 40.4010003, "lon": -3.701351}, {"type": "node", "id": 11813369493, "lat": 40.3998702, "lon": -3.7004815}, {"type": "node", "id": 11813369494, "lat": 40.3998284, "lon": -3.700515, "tags": {"highway": "crossing"}}, {"type": "node", "id": 11813369495, "lat": 40.3997966, "lon": -3.7005392}, {"type": "node", "id": 11815607521, "lat": 40.3995126, "lon": -3.7024286}, {"type": "node", "id": 11815607525, "lat": 40.3986323, "lon": -3.7016617}, {"type": "node", "id": 11815607526, "lat": 40.3986126, "lon": -3.7016804, "tags": {"highway": "crossing"}}, {"type": "node", "id": 11815607527, "lat": 40.3985661, "lon": -3.7017228}, {"type": "node", "id": 12179824242, "lat": 40.399598, "lon": -3.7023573}, {"type": "node", "id": 12179824243, "lat": 40.3991758, "lon": -3.7029948}, {"type": "node", "id": 12179824244, "lat": 40.3994993, "lon": -3.702451}, {"type": "node", "id": 12179824245, "lat": 40.3995508, "lon": -3.7024929}, {"type": "node", "id": 12179824258, "lat": 40.4004081, "lon": -3.7010442}, {"type": "node", "id": 12179824259, "lat": 40.4000175, "lon": -3.7016969}, {"type": "node", "id": 12179824260, "lat": 40.4004099, "lon": -3.7029335}, {"type": "node", "id": 12179824261, "lat": 40.3996844, "lon": -3.7023953}, {"type": "node", "id": 12179824262, "lat": 40.4004347, "lon": -3.7011243, "tags": {"crossing": "uncontrolled", "crossing:markings": "yes", "highway": "crossing"}}, {"type": "way", "id": 4354843, "nodes": [26528736, 11815607526, 26528734, 632467151, 26528733], "tags": {"cycleway:both": "no", "highway": "residential", "lanes": "1", "lit": "yes", "maxspeed": "50", "name": "Calle Arquitectura", "oneway": "yes", "postal_code": "28005", "sidewalk": "both", "source": "knowledge", "source:maxspeed": "sign", "surface": "asphalt"}}, {"type": "way", "id": 4354845, "nodes": [26528737, 4396897408, 4396897409, 26528738, 8805529730, 26528739], "tags": {"highway": "residential", "lanes": "1", "lit": "yes", "maxspeed": "30", "name": "Calle de las Pe\u00f1uelas", "oneway": "yes", "parking:both": "street_side", "parking:both:orientation": "parallel", "postal_code": "28005", "sidewalk": "both", "sidewalk:both:surface": "paving_stones", "smoothness": "intermediate", "source:maxspeed": "sign", "source:name": "local knowledge", "surface": "asphalt"}}, {"type": "way", "id": 4354848, "nodes": [26528740, 11813369494, 26528742], "tags": {"cycleway:both": "no", "highway": "residential", "lane_markings": "no", "lit": "yes", "maxspeed": "50", "name": "Calle de Ercilla", "name:etymology:wikidata": "Q357620", "oneway": "yes", "postal_code": "28005", "sidewalk": "both", "source:maxspeed": "sign", "source:name": "local knowledge", "surface": "asphalt"}}, {"type": "way", "id": 7642946, "nodes": [26501246, 12179824245, 26528734, 5959882557, 26528738, 5959882556, 12179824262, 26528740], "tags": {"highway": "residential", "lanes": "2", "lit": "yes", "maxspeed": "50", "name": "Calle Carvajales", "postal_code": "28005", "source:maxspeed": "sign", "surface": "asphalt"}}, {"type": "way", "id": 49778444, "nodes": [632467179, 11618165840, 26528740], "tags": {"cycleway:both": "no", "highway": "residential", "lane_markings": "no", "lit": "yes", "maxspeed": "50", "name": "Calle de Ercilla", "name:etymology:wikidata": "Q357620", "oneway": "yes", "postal_code": "28005", "sidewalk": "both", "source:maxspeed": "sign", "source:name": "local knowledge", "surface": "asphalt"}}, {"type": "way", "id": 441995852, "nodes": [4396897413, 4396897408, 4396897414], "tags": {"crossing": "zebra", "footway": "crossing", "highway": "footway", "lit": "yes", "surface": "asphalt"}}, {"type": "way", "id": 441995854, "nodes": [4396897418, 4396897419, 4396897413, 4396897420, 12179824260, 12179824261, 4396897418], "tags": {"footway": "sidewalk", "highway": "footway", "lit": "yes", "surface": "paving_stones"}}, {"type": "way", "id": 951317619, "nodes": [8805529727, 11813369480, 8805529728], "tags": {"footway": "sidewalk", "highway": "footway", "lit": "yes", "smoothness": "intermediate", "surface": "paving_stones"}}, {"type": "way", "id": 1272165872, "nodes": [11813369478, 8805529729], "tags": {"footway": "sidewalk", "highway": "footway", "lit": "yes", "surface": "paving_stones"}}, {"type": "way", "id": 1272165880, "nodes": [11813369478, 12179824259, 12179824258, 11813369491, 11813369495], "tags": {"footway": "sidewalk", "highway": "footway", "lit": "yes", "surface": "paving_stones"}}, {"type": "way", "id": 1272165881, "nodes": [11813369492, 11813369493], "tags": {"footway": "sidewalk", "highway": "footway", "lit": "yes", "surface": "paving_stones"}}, {"type": "way", "id": 1272414300, "nodes": [11815607527, 11815607521, 12179824244, 12179824243, 4414925393], "tags": {"footway": "sidewalk", "highway": "footway", "lit": "yes", "surface": "paving_stones"}}, {"type": "way", "id": 1272414305, "nodes": [8805529727, 12179824242, 11815607525], "tags": {"footway": "sidewalk", "highway": "footway", "lit": "yes", "surface": "paving_stones"}}, {"type": "way", "id": 1315889376, "nodes": [12179824244, 12179824245], "tags": {"footway": "crossing", "highway": "footway", "lit": "yes"}}]}