{"version": 0.6, "generator": "Overpass API 0.7.62.5 1bd436f1", "osm3s": {"timestamp_osm_base": "2025-03-23T14:50:31Z", "copyright": "The data included in this document is from www.openstreetmap.org. The data is made available under ODbL."}, "elements": [{"type": "node", "id": 25926456, "lat": 40.4408784, "lon": -3.6611704}, {"type": "node", "id": 25926464, "lat": 40.4408042, "lon": -3.6611676}, {"type": "node", "id": 149140126, "lat": 40.4408424, "lon": -3.6622681}, {"type": "node", "id": 149140838, "lat": 40.4408785, "lon": -3.6620174}, {"type": "node", "id": 149140839, "lat": 40.4409726, "lon": -3.662536}, {"type": "node", "id": 149217960, "lat": 40.4410532, "lon": -3.6629577}, {"type": "node", "id": 149217964, "lat": 40.4411439, "lon": -3.6629657}, {"type": "node", "id": 149227785, "lat": 40.4396109, "lon": -3.6646962}, {"type": "node", "id": 150341881, "lat": 40.4396353, "lon": -3.6629455}, {"type": "node", "id": 150344845, "lat": 40.4396361, "lon": -3.6622859}, {"type": "node", "id": 150345201, "lat": 40.4409059, "lon": -3.6622813}, {"type": "node", "id": 150345406, "lat": 40.4419341, "lon": -3.6622958}, {"type": "node", "id": 313711938, "lat": 40.4410013, "lon": -3.6622629}, {"type": "node", "id": 327562947, "lat": 40.4396588, "lon": -3.6635066}, {"type": "node", "id": 327562972, "lat": 40.4396287, "lon": -3.6632999}, {"type": "node", "id": 327564300, "lat": 40.4386587, "lon": -3.6622523}, {"type": "node", "id": 327564310, "lat": 40.4396406, "lon": -3.6622365, "tags": {"crossing": "uncontrolled", "crossing:markings": "zebra", "highway": "crossing"}}, {"type": "node", "id": 1439700874, "lat": 40.4404349, "lon": -3.6628463, "tags": {"bus": "yes", "highway": "bus_stop", "name": "Plaza de Venecia", "operator": "EMT Madrid", "public_transport": "platform", "ref": "692", "source": "https://navegapormadrid.emtmadrid.es/app/"}}, {"type": "node", "id": 1439700878, "lat": 40.4405461, "lon": -3.6630839, "tags": {"bus": "yes", "highway": "bus_stop", "name": "Plaza de Venecia", "operator": "EMT Madrid", "public_transport": "platform", "ref": "693", "source": "https://navegapormadrid.emtmadrid.es/app/"}}, {"type": "node", "id": 1439709699, "lat": 40.440846, "lon": -3.6626403, "tags": {"bus": "yes", "highway": "bus_stop", "name": "Pza. de Venecia", "operator": "EMT Madrid", "public_transport": "platform", "ref": "5368", "source": "https://navegapormadrid.emtmadrid.es/app/"}}, {"type": "node", "id": 1492770464, "lat": 40.4396419, "lon": -3.6644682}, {"type": "node", "id": 1492770467, "lat": 40.439818, "lon": -3.6642266}, {"type": "node", "id": 1492770468, "lat": 40.4399562, "lon": -3.664124}, {"type": "node", "id": 1492770469, "lat": 40.4401323, "lon": -3.6640684}, {"type": "node", "id": 1492770471, "lat": 40.440203, "lon": -3.6638212}, {"type": "node", "id": 1492770472, "lat": 40.4402059, "lon": -3.6636583}, {"type": "node", "id": 1492770473, "lat": 40.4402349, "lon": -3.6640244}, {"type": "node", "id": 1492770474, "lat": 40.4403885, "lon": -3.6639365}, {"type": "node", "id": 1492770477, "lat": 40.4406126, "lon": -3.6639394}, {"type": "node", "id": 1492770478, "lat": 40.4406195, "lon": -3.6636671}, {"type": "node", "id": 1492770483, "lat": 40.4409595, "lon": -3.6635045}, {"type": "node", "id": 1492770484, "lat": 40.4410029, "lon": -3.6636671}, {"type": "node", "id": 2802306706, "lat": 40.4410575, "lon": -3.6635042}, {"type": "node", "id": 2802306707, "lat": 40.4411656, "lon": -3.6634967}, {"type": "node", "id": 2802306708, "lat": 40.4411637, "lon": -3.6636787}, {"type": "node", "id": 3470099150, "lat": 40.4406973, "lon": -3.6622979}, {"type": "node", "id": 3470099152, "lat": 40.4407961, "lon": -3.6629588, "tags": {"crossing": "traffic_signals", "crossing:markings": "dots", "highway": "traffic_signals", "tactile_paving": "yes"}}, {"type": "node", "id": 3470099155, "lat": 40.4408066, "lon": -3.6613395, "tags": {"crossing": "traffic_signals", "crossing:markings": "dots", "highway": "traffic_signals"}}, {"type": "node", "id": 3470099156, "lat": 40.4408139, "lon": -3.6620221}, {"type": "node", "id": 3470099157, "lat": 40.4408281, "lon": -3.6621699}, {"type": "node", "id": 3470099158, "lat": 40.4408729, "lon": -3.6624901}, {"type": "node", "id": 3470099160, "lat": 40.4408788, "lon": -3.6613425, "tags": {"crossing": "traffic_signals", "crossing:markings": "dots", "highway": "traffic_signals"}}, {"type": "node", "id": 3470099164, "lat": 40.4409342, "lon": -3.6624066}, {"type": "node", "id": 3470099166, "lat": 40.4409945, "lon": -3.6628032, "tags": {"crossing": "traffic_signals", "crossing:markings": "dots", "highway": "traffic_signals"}}, {"type": "node", "id": 3470099169, "lat": 40.4410741, "lon": -3.662799, "tags": {"crossing": "traffic_signals", "crossing:markings": "dots", "highway": "traffic_signals"}}, {"type": "node", "id": 3470099553, "lat": 40.4398734, "lon": -3.6623609}, {"type": "node", "id": 3470099559, "lat": 40.4404022, "lon": -3.662358}, {"type": "node", "id": 3470099562, "lat": 40.4404938, "lon": -3.6623035}, {"type": "node", "id": 3637328683, "lat": 40.4418079, "lon": -3.6622657, "tags": {"crossing": "uncontrolled", "highway": "crossing"}}, {"type": "node", "id": 5549043542, "lat": 40.4404336, "lon": -3.6629569, "tags": {"bus": "yes", "public_transport": "stop_position"}}, {"type": "node", "id": 5549043546, "lat": 40.4396299, "lon": -3.6632347}, {"type": "node", "id": 8427025364, "lat": 40.4405461, "lon": -3.662959, "tags": {"bus": "yes", "public_transport": "stop_position"}}, {"type": "node", "id": 8427025365, "lat": 40.4408793, "lon": -3.6615159, "tags": {"bus": "yes", "public_transport": "stop_position"}}, {"type": "node", "id": 8427025387, "lat": 40.4409143, "lon": -3.6626034, "tags": {"bus": "yes", "public_transport": "stop_position"}}, {"type": "node", "id": 9741433839, "lat": 40.4408373, "lon": -3.662233}, {"type": "way", "id": 15209369, "nodes": [150344845, 3470099553, 3470099559, 3470099562, 3470099150, 149140126], "tags": {"highway": "living_street", "name": "Calle Bristol", "oneway": "yes", "postal_code": "28028", "surface": "asphalt"}}, {"type": "way", "id": 28556648, "nodes": [313711938, 3637328683, 150345406], "tags": {"highway": "residential", "name": "Calle Bristol", "postal_code": "28028", "surface": "asphalt"}}, {"type": "way", "id": 29733249, "nodes": [2802306707, 2802306706, 1492770483], "tags": {"highway": "footway"}}, {"type": "way", "id": 29733277, "nodes": [327564300, 327564310, 9741433839], "tags": {"highway": "pedestrian", "lit": "yes", "name": "Calle de Bristol", "postal_code": "28028", "surface": "concrete"}}, {"type": "way", "id": 45756901, "nodes": [149217960, 3470099166, 8427025387], "tags": {"highway": "tertiary", "lanes": "2", "maxspeed": "50", "name": "Calle Bristol", "oneway": "yes", "postal_code": "28028", "surface": "asphalt"}}, {"type": "way", "id": 71270646, "nodes": [150341881, 5549043542, 8427025364, 3470099152, 149217960], "tags": {"highway": "tertiary", "lanes": "2", "maxspeed": "50", "name": "Avenida de Bruselas", "postal_code": "28028", "surface": "asphalt"}}, {"type": "way", "id": 136024085, "nodes": [2802306708, 1492770484], "tags": {"highway": "footway"}}, {"type": "way", "id": 136024094, "nodes": [149227785, 1492770464, 1492770467, 1492770468, 1492770469, 1492770473, 1492770474, 1492770477, 1492770478], "tags": {"highway": "residential", "name": "Calle de Jos\u00e9 Mar\u00eda S\u00e1nchez Silva", "postal_code": "28028", "surface": "asphalt"}}, {"type": "way", "id": 275600094, "nodes": [1492770483, 327562947, 327562972, 5549043546, 150341881], "tags": {"highway": "residential", "name": "Avenida de Bruselas", "postal_code": "28028", "surface": "asphalt"}}, {"type": "way", "id": 275600095, "nodes": [1492770484, 1492770478, 1492770472, 1492770471, 1492770473], "tags": {"highway": "residential", "name": "Calle Berna", "postal_code": "28028", "surface": "asphalt"}}, {"type": "way", "id": 339798870, "nodes": [3470099164, 149140839, 3470099169, 149217964], "tags": {"highway": "tertiary", "lanes": "3", "maxspeed": "50", "name": "Calle Bristol", "oneway": "yes", "postal_code": "28028", "surface": "asphalt", "turn:lanes": "left|through;left|through;right"}}, {"type": "way", "id": 339798871, "nodes": [149140126, 9741433839, 3470099157, 3470099156, 3470099155, 25926464], "tags": {"highway": "tertiary", "lanes": "3", "maxspeed": "50", "name": "Calle Bristol", "oneway": "yes", "postal_code": "28028", "surface": "asphalt"}}, {"type": "way", "id": 398750051, "nodes": [25926456, 3470099160, 8427025365, 149140838, 150345201, 3470099164], "tags": {"highway": "tertiary", "lanes": "2", "maxspeed": "50", "name": "Calle Bristol", "oneway": "yes", "postal_code": "28028", "surface": "asphalt"}}, {"type": "way", "id": 909084303, "nodes": [8427025387, 3470099158, 149140126], "tags": {"highway": "tertiary", "lanes": "2", "maxspeed": "50", "name": "Calle Bristol", "oneway": "yes", "postal_code": "28028", "surface": "asphalt"}}]}