{"version": 0.6, "generator": "Overpass API 0.7.62.5 1bd436f1", "osm3s": {"timestamp_osm_base": "2025-03-23T13:38:02Z", "copyright": "The data included in this document is from www.openstreetmap.org. The data is made available under ODbL."}, "elements": [{"type": "node", "id": 26412916, "lat": 40.4510621, "lon": -3.7033586}, {"type": "node", "id": 26413032, "lat": 40.4505383, "lon": -3.7034373}, {"type": "node", "id": 26413033, "lat": 40.4505302, "lon": -3.703438, "tags": {"highway": "traffic_signals"}}, {"type": "node", "id": 26413048, "lat": 40.4499801, "lon": -3.7035192, "tags": {"highway": "traffic_signals"}}, {"type": "node", "id": 26413061, "lat": 40.4494289, "lon": -3.7036001}, {"type": "node", "id": 26413086, "lat": 40.4486439, "lon": -3.7037164}, {"type": "node", "id": 34408449, "lat": 40.4495207, "lon": -3.704715, "tags": {"camera:direction": "355", "camera:mount": "wall", "camera:type": "dome", "man_made": "surveillance", "surveillance": "public", "surveillance:type": "camera", "surveillance:zone": "area"}}, {"type": "node", "id": 34408462, "lat": 40.4495928, "lon": -3.7056757}, {"type": "node", "id": 34408502, "lat": 40.4501999, "lon": -3.7058758}, {"type": "node", "id": 34408565, "lat": 40.4500765, "lon": -3.7046259}, {"type": "node", "id": 34408606, "lat": 40.4506594, "lon": -3.7045364}, {"type": "node", "id": 34408611, "lat": 40.4507, "lon": -3.7060581, "tags": {"crossing": "unmarked", "crossing:markings": "no", "highway": "crossing"}}, {"type": "node", "id": 81580401, "lat": 40.450301, "lon": -3.6998084}, {"type": "node", "id": 81580403, "lat": 40.4496223, "lon": -3.6998725}, {"type": "node", "id": 81604772, "lat": 40.4504244, "lon": -3.7019018}, {"type": "node", "id": 81604773, "lat": 40.4503852, "lon": -3.7007188}, {"type": "node", "id": 81604775, "lat": 40.4502607, "lon": -3.6989933}, {"type": "node", "id": 81604776, "lat": 40.4502211, "lon": -3.6982925}, {"type": "node", "id": 82499051, "lat": 40.4497578, "lon": -3.7015521}, {"type": "node", "id": 82499052, "lat": 40.4495412, "lon": -3.6983566}, {"type": "node", "id": 82499430, "lat": 40.4495773, "lon": -3.6990688}, {"type": "node", "id": 82499627, "lat": 40.4498051, "lon": -3.7020842}, {"type": "node", "id": 1474148418, "lat": 40.4497952, "lon": -3.701935}, {"type": "node", "id": 1474148425, "lat": 40.4498254, "lon": -3.7022758}, {"type": "node", "id": 1522690105, "lat": 40.4498102, "lon": -3.7021603}, {"type": "node", "id": 2283386633, "lat": 40.4502789, "lon": -3.7034758, "tags": {"button_operated": "no", "crossing:island": "no", "crossing:signals": "yes", "highway": "crossing", "kerb": "lowered", "tactile_paving": "yes", "traffic_signals:sound": "yes", "traffic_signals:vibration": "no"}}, {"type": "node", "id": 2283386640, "lat": 40.4490978, "lon": -3.703649, "tags": {"crossing": "traffic_signals", "crossing:markings": "dots", "highway": "traffic_signals"}}, {"type": "node", "id": 2494510311, "lat": 40.4501995, "lon": -3.7036139, "tags": {"name": "Bravo Murillo impares", "railway": "subway_entrance", "wheelchair": "no"}}, {"type": "node", "id": 2887253640, "lat": 40.4499607, "lon": -3.7033076, "tags": {"crossing": "uncontrolled", "highway": "crossing", "tactile_paving": "yes"}}, {"type": "node", "id": 3971975769, "lat": 40.4502274, "lon": -3.6984033, "tags": {"crossing": "zebra", "highway": "crossing", "kerb": "lowered", "tactile_paving": "yes"}}, {"type": "node", "id": 4499335102, "lat": 40.4495734, "lon": -3.6989898, "tags": {"crossing": "zebra", "highway": "crossing"}}, {"type": "node", "id": 5963987031, "lat": 40.4489788, "lon": -3.7036661, "tags": {"bus": "yes", "name": "Bravo Murillo - Almansa", "operator": "EMT Madrid", "public_transport": "stop_position", "ref": "1600", "source": "https://navegapormadrid.emtmadrid.es/app/"}}, {"type": "node", "id": 5970506943, "lat": 40.4492109, "lon": -3.7036316, "tags": {"bus": "yes", "name": "Bravo Murillo - Palencia", "operator": "EMT Madrid", "public_transport": "stop_position", "ref": "1568", "source": "https://navegapormadrid.emtmadrid.es/app/"}}, {"type": "node", "id": 6363789315, "lat": 40.4501164, "lon": -3.7033709, "tags": {"name": "Bravo Murillo pares", "railway": "subway_entrance", "wheelchair": "no"}}, {"type": "node", "id": 6934422584, "lat": 40.4510631, "lon": -3.7035091, "tags": {"crossing:markings": "yes", "crossing:signals": "no", "highway": "crossing", "tactile_paving": "yes"}}, {"type": "node", "id": 6934437085, "lat": 40.4505738, "lon": -3.703578, "tags": {"crossing": "uncontrolled", "crossing:markings": "zebra", "highway": "crossing", "tactile_paving": "yes"}}, {"type": "node", "id": 6934437086, "lat": 40.4499892, "lon": -3.7036665, "tags": {"highway": "traffic_signals", "traffic_signals": "signal"}}, {"type": "node", "id": 8400874015, "lat": 40.4506819, "lon": -3.704828}, {"type": "node", "id": 8458948186, "lat": 40.4505538, "lon": -3.7035809}, {"type": "node", "id": 8458948187, "lat": 40.450599, "lon": -3.7035744, "tags": {"barrier": "kerb", "kerb": "flush", "tactile_paving": "yes"}}, {"type": "node", "id": 8458948188, "lat": 40.4499508, "lon": -3.7036717, "tags": {"barrier": "kerb", "kerb": "flush", "tactile_paving": "yes"}}, {"type": "node", "id": 8458948189, "lat": 40.4500275, "lon": -3.7036607}, {"type": "node", "id": 8458948190, "lat": 40.4494747, "lon": -3.7037362}, {"type": "node", "id": 8458948191, "lat": 40.4494082, "lon": -3.7037457}, {"type": "node", "id": 8458948193, "lat": 40.4486803, "lon": -3.7038561, "tags": {"barrier": "kerb", "kerb": "flush", "tactile_paving": "yes"}}, {"type": "node", "id": 8486897769, "lat": 40.4518747, "lon": -3.7033906}, {"type": "node", "id": 11359780700, "lat": 40.4504766, "lon": -3.7032991}, {"type": "node", "id": 11525423807, "lat": 40.4494428, "lon": -3.7037405, "tags": {"crossing": "uncontrolled", "crossing:markings": "zebra", "highway": "crossing"}}, {"type": "node", "id": 11830303048, "lat": 40.449967, "lon": -3.7033761}, {"type": "node", "id": 11830303049, "lat": 40.4501145, "lon": -3.7033538}, {"type": "node", "id": 11830303050, "lat": 40.4502086, "lon": -3.7036332}, {"type": "node", "id": 12127494827, "lat": 40.4503148, "lon": -3.7034704, "tags": {"highway": "traffic_signals", "traffic_signals": "signal", "traffic_signals:direction": "forward"}}, {"type": "node", "id": 12127494828, "lat": 40.4502464, "lon": -3.7034805, "tags": {"highway": "traffic_signals", "traffic_signals": "signal", "traffic_signals:direction": "backward"}}, {"type": "way", "id": 7971945, "nodes": [26413032, 6934437085, 34408606, 8400874015, 34408611], "tags": {"highway": "living_street", "lanes": "1", "maxspeed": "20", "name": "Calle de Alvarado", "oneway": "yes", "postal_code": "28039", "sidewalk": "both", "surface": "paving_stones"}}, {"type": "way", "id": 7971951, "nodes": [26413061, 11525423807, 34408449, 34408462], "tags": {"highway": "living_street", "maxspeed": "20", "name": "Calle de Carnicer", "oneway": "yes", "postal_code": "28039", "sidewalk": "both", "surface": "paving_stones"}}, {"type": "way", "id": 7971952, "nodes": [34408502, 34408565, 6934437086, 26413048], "tags": {"highway": "living_street", "lanes": "1", "maxspeed": "20", "name": "Calle de Juan Pantoja", "name:etymology:wikidata": "Q1380081", "oneway": "yes", "postal_code": "28039", "sidewalk": "both", "surface": "paving_stones"}}, {"type": "way", "id": 9941126, "nodes": [81604776, 3971975769, 81604775, 81580401, 81604773, 81604772, 11359780700, 26413033], "tags": {"highway": "residential", "lane_markings": "no", "maxspeed": "50", "name": "Calle de Ja\u00e9n", "oneway": "yes", "sidewalk": "both", "source": "survey", "surface": "asphalt", "wikidata": "Q54564835"}}, {"type": "way", "id": 10044037, "nodes": [26413048, 11830303048, 2887253640, 1474148425, 1522690105, 82499627, 1474148418, 82499051, 81580403, 82499430, 4499335102, 82499052], "tags": {"alt_name": "C/ Palencia", "bicycle": "yes", "bicycle:source": "enbicipormadrid", "highway": "residential", "lanes": "1", "maxspeed": "50", "name": "Calle de Palencia", "oneway": "yes", "sidewalk": "both", "source": "survey", "surface": "paving_stones"}}, {"type": "way", "id": 32029326, "nodes": [26413032, 26413033], "tags": {"cycleway": "shared_lane", "highway": "secondary", "lanes": "6", "lanes:backward": "3", "lanes:forward": "3", "lanes:psv:backward": "1", "lanes:psv:forward": "1", "lit": "yes", "maxspeed": "50", "name": "Calle de Bravo Murillo", "name:etymology:wikidata": "Q200476", "sidewalk": "both", "surface": "asphalt"}}, {"type": "way", "id": 32029327, "nodes": [26413033, 12127494827, 2283386633, 12127494828, 26413048], "tags": {"cycleway": "shared_lane", "highway": "secondary", "lanes": "6", "lanes:backward": "3", "lanes:forward": "3", "lanes:psv:backward": "1", "lanes:psv:forward": "1", "maxspeed": "50", "name": "Calle de Bravo Murillo", "name:etymology:wikidata": "Q200476", "sidewalk": "both", "surface": "asphalt"}}, {"type": "way", "id": 219141073, "nodes": [26413061, 5970506943, 2283386640, 5963987031, 26413086], "tags": {"cycleway": "shared_lane", "highway": "secondary", "lanes": "6", "lanes:backward": "3", "lanes:forward": "3", "lanes:psv:backward": "1", "lanes:psv:forward": "1", "maxspeed": "50", "name": "Calle de Bravo Murillo", "name:etymology:wikidata": "Q200476", "sidewalk": "both", "surface": "asphalt"}}, {"type": "way", "id": 219141079, "nodes": [26413048, 26413061], "tags": {"cycleway": "shared_lane", "highway": "secondary", "lanes": "6", "lanes:backward": "3", "lanes:forward": "3", "lanes:psv:backward": "1", "lanes:psv:forward": "1", "lit": "yes", "maxspeed": "50", "name": "Calle de Bravo Murillo", "name:etymology:wikidata": "Q200476", "sidewalk": "both", "surface": "asphalt"}}, {"type": "way", "id": 910983033, "nodes": [8486897769, 6934422584, 8458948187], "tags": {"footway": "sidewalk", "highway": "footway", "lit": "yes", "surface": "paving_stones"}}, {"type": "way", "id": 910983034, "nodes": [8458948187, 6934437085, 8458948186], "tags": {"footway": "crossing", "highway": "footway"}}, {"type": "way", "id": 910983035, "nodes": [8458948186, 11830303050, 8458948189], "tags": {"footway": "sidewalk", "highway": "footway", "lit": "yes", "surface": "paving_stones"}}, {"type": "way", "id": 910983036, "nodes": [8458948189, 6934437086, 8458948188], "tags": {"footway": "crossing", "highway": "footway", "surface": "paving_stones"}}, {"type": "way", "id": 910983037, "nodes": [8458948188, 8458948190], "tags": {"footway": "sidewalk", "highway": "footway", "surface": "paving_stones"}}, {"type": "way", "id": 910983038, "nodes": [8458948190, 11525423807, 8458948191], "tags": {"footway": "crossing", "highway": "footway"}}, {"type": "way", "id": 910983039, "nodes": [8458948191, 8458948193], "tags": {"footway": "sidewalk", "highway": "footway", "surface": "paving_stones"}}, {"type": "way", "id": 1014474061, "nodes": [26412916, 26413032], "tags": {"alt_name": "Bravo Murillo", "cycleway": "shared_lane", "highway": "secondary", "lanes": "6", "lanes:backward": "3", "lanes:forward": "3", "lanes:psv:backward": "1", "lanes:psv:forward": "1", "lit": "yes", "maxspeed": "50", "name": "Calle de Bravo Murillo", "name:etymology:wikidata": "Q200476", "parking:both": "no", "sidewalk": "both", "surface": "asphalt"}}, {"type": "way", "id": 1274062871, "nodes": [11359780700, 11830303049, 11830303048], "tags": {"footway": "sidewalk", "highway": "footway"}}, {"type": "way", "id": 1274062872, "nodes": [11830303049, 6363789315], "tags": {"footway": "sidewalk", "highway": "footway"}}, {"type": "way", "id": 1274062873, "nodes": [11830303050, 2494510311], "tags": {"footway": "sidewalk", "highway": "footway", "surface": "paving_stones"}}]}