{"version": 0.6, "generator": "Overpass API 0.7.62.5 1bd436f1", "osm3s": {"timestamp_osm_base": "2025-03-23T14:56:45Z", "copyright": "The data included in this document is from www.openstreetmap.org. The data is made available under ODbL."}, "elements": [{"type": "node", "id": 253068253, "lat": 40.4703509, "lon": -3.6387984}, {"type": "node", "id": 253068960, "lat": 40.4711, "lon": -3.6385597}, {"type": "node", "id": 253068961, "lat": 40.4711983, "lon": -3.6389661}, {"type": "node", "id": 253068992, "lat": 40.4711226, "lon": -3.6389628}, {"type": "node", "id": 253068993, "lat": 40.4709684, "lon": -3.6390771}, {"type": "node", "id": 253069106, "lat": 40.4721006, "lon": -3.6397694}, {"type": "node", "id": 253069107, "lat": 40.4719235, "lon": -3.6397315, "tags": {"crossing": "uncontrolled", "junction": "yes"}}, {"type": "node", "id": 253069129, "lat": 40.4725136, "lon": -3.6401755}, {"type": "node", "id": 253069303, "lat": 40.4714485, "lon": -3.6394405}, {"type": "node", "id": 253069363, "lat": 40.4711436, "lon": -3.6391819}, {"type": "node", "id": 253069374, "lat": 40.4712562, "lon": -3.6391154}, {"type": "node", "id": 253069380, "lat": 40.4712402, "lon": -3.6391942}, {"type": "node", "id": 253069381, "lat": 40.4711717, "lon": -3.6392791}, {"type": "node", "id": 253069452, "lat": 40.4708554, "lon": -3.6390962}, {"type": "node", "id": 253070797, "lat": 40.4715101, "lon": -3.6395934}, {"type": "node", "id": 253072229, "lat": 40.4718821, "lon": -3.6384239}, {"type": "node", "id": 253072230, "lat": 40.4719763, "lon": -3.6394103}, {"type": "node", "id": 253075037, "lat": 40.4723558, "lon": -3.6397065}, {"type": "node", "id": 253075038, "lat": 40.4723976, "lon": -3.6396473}, {"type": "node", "id": 253075045, "lat": 40.4723666, "lon": -3.6399596}, {"type": "node", "id": 253080037, "lat": 40.4709289, "lon": -3.6399767}, {"type": "node", "id": 253080038, "lat": 40.4711681, "lon": -3.639611}, {"type": "node", "id": 253080039, "lat": 40.4705121, "lon": -3.6392369}, {"type": "node", "id": 253080043, "lat": 40.4705252, "lon": -3.6404742}, {"type": "node", "id": 253080044, "lat": 40.4709811, "lon": -3.6404477}, {"type": "node", "id": 253080099, "lat": 40.4703816, "lon": -3.6404826}, {"type": "node", "id": 253080132, "lat": 40.4715097, "lon": -3.6410679}, {"type": "node", "id": 253108402, "lat": 40.4712009, "lon": -3.6395332}, {"type": "node", "id": 253108456, "lat": 40.4707649, "lon": -3.6404642}, {"type": "node", "id": 253109891, "lat": 40.4703181, "lon": -3.6404863}, {"type": "node", "id": 253109982, "lat": 40.4703659, "lon": -3.6391679}, {"type": "node", "id": 258336907, "lat": 40.4712706, "lon": -3.6388261}, {"type": "node", "id": 600005902, "lat": 40.4722686, "lon": -3.6400141, "tags": {"crossing": "traffic_signals", "highway": "crossing", "tactile_paving": "yes"}}, {"type": "node", "id": 602165046, "lat": 40.4723305, "lon": -3.6398353}, {"type": "node", "id": 1240306090, "lat": 40.4724044, "lon": -3.6400051}, {"type": "node", "id": 1602478870, "lat": 40.4723355, "lon": -3.6397683}, {"type": "node", "id": 1602478908, "lat": 40.4723412, "lon": -3.6399011}, {"type": "node", "id": 1602478915, "lat": 40.4715079, "lon": -3.640422}, {"type": "node", "id": 3160414246, "lat": 40.4710713, "lon": -3.6389962}, {"type": "node", "id": 3538762957, "lat": 40.4715428, "lon": -3.6394983}, {"type": "node", "id": 3538762958, "lat": 40.4718987, "lon": -3.6385974}, {"type": "node", "id": 3538762959, "lat": 40.4711721, "lon": -3.6388576}, {"type": "node", "id": 3918914235, "lat": 40.4722637, "lon": -3.6397292}, {"type": "node", "id": 4976324353, "lat": 40.4715059, "lon": -3.6429545}, {"type": "node", "id": 12556415902, "lat": 40.4721682, "lon": -3.6399319}, {"type": "node", "id": 12556415903, "lat": 40.4721229, "lon": -3.6400501, "tags": {"barrier": "gate"}}, {"type": "node", "id": 12556415904, "lat": 40.4721005, "lon": -3.6401191}, {"type": "node", "id": 12556415905, "lat": 40.4718893, "lon": -3.6399702}, {"type": "node", "id": 12556415906, "lat": 40.4718628, "lon": -3.6400319}, {"type": "node", "id": 12556415907, "lat": 40.4720995, "lon": -3.6406059}, {"type": "node", "id": 12556415908, "lat": 40.4718526, "lon": -3.6406005}, {"type": "node", "id": 12556415910, "lat": 40.4718538, "lon": -3.6405321}, {"type": "node", "id": 12556415911, "lat": 40.472023, "lon": -3.6403765}, {"type": "node", "id": 12556415912, "lat": 40.4718567, "lon": -3.6403684}, {"type": "node", "id": 12556415913, "lat": 40.4720219, "lon": -3.6402035}, {"type": "node", "id": 12556415914, "lat": 40.4718598, "lon": -3.6401981}, {"type": "way", "id": 23372249, "nodes": [253069107, 253069106, 3918914235, 253075037], "tags": {"highway": "residential", "lit": "yes", "name": "Calle Mar Adri\u00e1tico", "oneway": "yes", "sidewalk": "right", "surface": "asphalt"}}, {"type": "way", "id": 23372351, "nodes": [253068992, 253068960], "tags": {"highway": "residential", "lit": "yes", "name": "Calle Chaparral", "oneway": "yes", "sidewalk": "both", "surface": "asphalt"}}, {"type": "way", "id": 23372368, "nodes": [253069129, 600005902], "tags": {"highway": "residential", "lit": "yes", "name": "Calle Mar Adri\u00e1tico", "oneway": "yes", "sidewalk": "right", "surface": "asphalt"}}, {"type": "way", "id": 23372404, "nodes": [253068960, 3538762959, 253068961, 253069374, 253069303], "tags": {"highway": "residential", "lit": "yes", "name": "Calle Chaparral", "oneway": "yes", "sidewalk": "right", "surface": "asphalt"}}, {"type": "way", "id": 23372414, "nodes": [253069381, 253069363, 253068992], "tags": {"highway": "residential", "lit": "yes", "name": "Calle Chaparral", "oneway": "yes", "surface": "asphalt"}}, {"type": "way", "id": 23372417, "nodes": [253068992, 253068961], "tags": {"created_by": "Potlatch 0.7b", "highway": "residential", "lit": "yes", "name": "Calle Chaparral", "oneway": "yes", "sidewalk": "no", "surface": "asphalt"}}, {"type": "way", "id": 23372419, "nodes": [253069374, 253069380, 253069381], "tags": {"highway": "residential", "lit": "yes", "name": "Calle Chaparral", "oneway": "yes", "sidewalk": "no", "surface": "asphalt"}}, {"type": "way", "id": 23372827, "nodes": [253072229, 3538762958, 253072230], "tags": {"highway": "residential", "lit": "yes", "name": "Calle Chiquinquira", "sidewalk": "both", "surface": "asphalt"}}, {"type": "way", "id": 23372845, "nodes": [253072230, 253069106], "tags": {"highway": "residential", "lit": "yes", "name": "Calle Chiquinquira", "oneway": "yes", "sidewalk": "right", "surface": "asphalt"}}, {"type": "way", "id": 23376946, "nodes": [253080038, 253069381], "tags": {"highway": "footway", "lit": "yes", "surface": "paving_stones"}}, {"type": "way", "id": 23376947, "nodes": [253080038, 253108402, 253070797], "tags": {"highway": "footway", "lit": "yes", "surface": "compacted"}}, {"type": "way", "id": 23377034, "nodes": [253109982, 253080039, 253080038, 253080037], "tags": {"highway": "footway", "lit": "yes", "surface": "paving_stones"}}, {"type": "way", "id": 47056703, "nodes": [253069452, 253068993, 3160414246, 253068992], "tags": {"highway": "residential", "lit": "yes", "name": "Calle Chaparral", "oneway": "yes", "sidewalk": "right", "surface": "asphalt"}}, {"type": "way", "id": 71601792, "nodes": [600005902, 12556415902, 253069107], "tags": {"highway": "residential", "lit": "yes", "name": "Calle Mar Adri\u00e1tico", "oneway": "yes", "sidewalk": "both", "surface": "asphalt"}}, {"type": "way", "id": 108743127, "nodes": [1240306090, 600005902], "tags": {"highway": "residential", "lit": "yes", "name": "Calle Mar Adri\u00e1tico", "oneway": "yes", "sidewalk": "no", "surface": "asphalt"}}, {"type": "way", "id": 147054749, "nodes": [253109891, 253080099, 253080043, 253108456, 253080044, 1602478915], "tags": {"highway": "footway", "lit": "yes", "surface": "paving_stones"}}, {"type": "way", "id": 310599559, "nodes": [253068253, 253069452, 253069381, 253069303, 3538762957, 253069107], "tags": {"highway": "residential", "lanes": "2", "lit": "yes", "maxspeed:type": "ES:urban", "name": "Calle Mar Adri\u00e1tico", "sidewalk": "both", "surface": "asphalt"}}, {"type": "way", "id": 347638595, "nodes": [253070797, 3538762957], "tags": {"highway": "footway", "lit": "no", "surface": "paving_stones"}}, {"type": "way", "id": 347638598, "nodes": [258336907, 3538762959], "tags": {"highway": "footway"}}, {"type": "way", "id": 353406400, "nodes": [253069107, 253072230], "tags": {"highway": "residential", "lit": "yes", "name": "Calle Chiquinquira", "oneway": "yes", "sidewalk": "right", "surface": "asphalt"}}, {"type": "way", "id": 508295749, "nodes": [4976324353, 253080132, 1602478915, 253070797], "tags": {"footway": "sidewalk", "highway": "footway", "surface": "paving_stones"}}, {"type": "way", "id": 551351277, "nodes": [253075037, 253075038], "tags": {"cycleway:right": "no", "highway": "residential", "junction": "roundabout", "lanes": "3", "lit": "yes", "maxspeed": "50", "name": "Glorieta de Charala", "sidewalk": "right", "surface": "asphalt"}}, {"type": "way", "id": 551600621, "nodes": [1240306090, 253075045, 1602478908, 602165046, 1602478870, 253075037], "tags": {"cycleway:right": "no", "highway": "residential", "junction": "roundabout", "lanes": "3", "lit": "yes", "maxspeed": "50", "name": "Glorieta de Charala", "sidewalk": "right", "surface": "asphalt"}}, {"type": "way", "id": 1356661998, "nodes": [12556415902, 12556415903, 12556415904, 12556415905, 12556415906, 12556415914, 12556415912, 12556415910, 12556415908], "tags": {"highway": "service"}}, {"type": "way", "id": 1356661999, "nodes": [12556415904, 12556415907], "tags": {"highway": "service", "service": "parking_aisle"}}, {"type": "way", "id": 1356662001, "nodes": [12556415911, 12556415912], "tags": {"highway": "service", "service": "parking_aisle"}}, {"type": "way", "id": 1356662002, "nodes": [12556415913, 12556415914], "tags": {"highway": "service", "service": "parking_aisle"}}]}