{"version": 0.6, "generator": "Overpass API 0.7.62.5 1bd436f1", "osm3s": {"timestamp_osm_base": "2025-03-23T11:04:00Z", "copyright": "The data included in this document is from www.openstreetmap.org. The data is made available under ODbL."}, "elements": [{"type": "node", "id": 25902675, "lat": 40.4379694, "lon": -3.6912759, "tags": {"source": "yahoo_maps"}}, {"type": "node", "id": 25902676, "lat": 40.4381135, "lon": -3.6928882, "tags": {"highway": "traffic_signals", "source": "yahoo_maps"}}, {"type": "node", "id": 25902703, "lat": 40.4386489, "lon": -3.691327, "tags": {"source": "yahoo_maps"}}, {"type": "node", "id": 25902717, "lat": 40.4373694, "lon": -3.6912512, "tags": {"crossing": "traffic_signals", "highway": "crossing", "source": "bing", "source:date": "2012"}}, {"type": "node", "id": 25902718, "lat": 40.4376282, "lon": -3.6912565, "tags": {"source": "yahoo_maps"}}, {"type": "node", "id": 25902756, "lat": 40.4387879, "lon": -3.6928228, "tags": {"source": "yahoo_maps"}}, {"type": "node", "id": 25902757, "lat": 40.439294, "lon": -3.6927814, "tags": {"source": "yahoo_maps"}}, {"type": "node", "id": 60017632, "lat": 40.4403571, "lon": -3.6926716}, {"type": "node", "id": 394684528, "lat": 40.4380569, "lon": -3.6915884}, {"type": "node", "id": 394684646, "lat": 40.4380887, "lon": -3.6912907}, {"type": "node", "id": 1439706310, "lat": 40.4379678, "lon": -3.6918709, "tags": {"bench": "yes", "bin": "yes", "bus": "yes", "highway": "bus_stop", "lit": "yes", "name": "Gregorio Mara\u00f1\u00f3n", "network": "Empresa Municipal de Transportes de Madrid", "network:short": "EMT Madrid", "network:wikidata": "Q1094755", "operator": "Empresa Municipal de Transportes de Madrid", "operator:short": "EMT Madrid", "operator:wikidata": "Q1094755", "public_transport": "platform", "ref": "810", "shelter": "yes", "source": "https://navegapormadrid.emtmadrid.es/app/", "tactile_paving": "yes", "website": "https://www.crtm.es/widgets/#/stop/6_810"}}, {"type": "node", "id": 1439710388, "lat": 40.4382003, "lon": -3.6913706, "tags": {"bench": "yes", "bin": "no", "bus": "yes", "highway": "bus_stop", "lit": "yes", "name": "Gregorio Mara\u00f1\u00f3n", "operator": "EMT Madrid", "public_transport": "platform", "ref": "4742", "shelter": "yes", "source": "https://navegapormadrid.emtmadrid.es/app/", "tactile_paving": "yes"}}, {"type": "node", "id": 1719813695, "lat": 40.4384593, "lon": -3.6912707}, {"type": "node", "id": 1719813894, "lat": 40.4408591, "lon": -3.6919931}, {"type": "node", "id": 1759501505, "lat": 40.4376843, "lon": -3.6911286}, {"type": "node", "id": 1759501555, "lat": 40.4379478, "lon": -3.6911762}, {"type": "node", "id": 1759501559, "lat": 40.4380987, "lon": -3.6911746}, {"type": "node", "id": 1759501564, "lat": 40.4381808, "lon": -3.6912902, "tags": {"button_operated": "no", "crossing": "traffic_signals", "highway": "crossing", "source": "bing", "source:date": "2012", "tactile_paving": "yes", "traffic_signals:sound": "yes", "traffic_signals:vibration": "no"}}, {"type": "node", "id": 1759501566, "lat": 40.4381902, "lon": -3.6912135}, {"type": "node", "id": 1759501593, "lat": 40.4383147, "lon": -3.6912714}, {"type": "node", "id": 1759501597, "lat": 40.4383255, "lon": -3.6911671}, {"type": "node", "id": 1759501603, "lat": 40.4383784, "lon": -3.691169, "tags": {"crossing": "uncontrolled", "highway": "crossing"}}, {"type": "node", "id": 1759501609, "lat": 40.438397, "lon": -3.6911097}, {"type": "node", "id": 1759501654, "lat": 40.4385192, "lon": -3.6911923}, {"type": "node", "id": 1759501666, "lat": 40.4385496, "lon": -3.6911628}, {"type": "node", "id": 1759501671, "lat": 40.4386486, "lon": -3.6912692}, {"type": "node", "id": 1759501675, "lat": 40.438926, "lon": -3.691422}, {"type": "node", "id": 1759501794, "lat": 40.4406284, "lon": -3.6919387}, {"type": "node", "id": 2053142667, "lat": 40.4380412, "lon": -3.691536, "tags": {"button_operated": "no", "crossing:island": "no", "highway": "traffic_signals", "source": "bing", "source:date": "2012", "tactile_paving": "yes", "traffic_signals": "traffic_lights", "traffic_signals:sound": "yes", "traffic_signals:vibration": "no"}}, {"type": "node", "id": 2053142696, "lat": 40.4380656, "lon": -3.6915332, "tags": {"button_operated": "no", "highway": "traffic_signals", "source": "bing", "source:date": "2012", "tactile_paving": "yes", "traffic_signals": "traffic_lights", "traffic_signals:sound": "yes", "traffic_signals:vibration": "no"}}, {"type": "node", "id": 3675303749, "lat": 40.4382326, "lon": -3.6928876, "tags": {"button_operated": "no", "crossing": "traffic_signals", "highway": "crossing", "tactile_paving": "yes", "traffic_signals:sound": "yes", "traffic_signals:vibration": "no"}}, {"type": "node", "id": 4808839534, "lat": 40.4393922, "lon": -3.6927652, "tags": {"crossing": "zebra", "highway": "crossing", "tactile_paving": "yes"}}, {"type": "node", "id": 6059903783, "lat": 40.4382044, "lon": -3.6914101, "tags": {"name": "Jos\u00e9 Abascal", "railway": "subway_entrance", "wheelchair": "yes"}}, {"type": "node", "id": 6059903784, "lat": 40.4379665, "lon": -3.6917683, "tags": {"highway": "elevator", "name": "Ascensor", "railway": "subway_entrance", "wheelchair": "yes"}}, {"type": "node", "id": 6501186716, "lat": 40.4379267, "lon": -3.691389, "tags": {"name": "Miguel \u00c1ngel", "railway": "subway_entrance", "wheelchair": "no"}}, {"type": "node", "id": 8436098462, "lat": 40.4384553, "lon": -3.6911727, "tags": {"bus": "yes", "public_transport": "stop_position"}}, {"type": "node", "id": 8440634391, "lat": 40.4382031, "lon": -3.6912894, "tags": {"bus": "yes", "public_transport": "stop_position"}}, {"type": "node", "id": 8458502440, "lat": 40.4381436, "lon": -3.6915239, "tags": {"kerb": "no", "tactile_paving": "yes"}}, {"type": "node", "id": 8458502441, "lat": 40.4379687, "lon": -3.6915432, "tags": {"barrier": "kerb", "kerb": "lowered", "tactile_paving": "yes"}}, {"type": "node", "id": 8458502442, "lat": 40.4381603, "lon": -3.6915226}, {"type": "node", "id": 8458502443, "lat": 40.4381591, "lon": -3.6913927}, {"type": "node", "id": 8458502444, "lat": 40.4382315, "lon": -3.6913657}, {"type": "node", "id": 8458502445, "lat": 40.4382954, "lon": -3.691352}, {"type": "node", "id": 8458502446, "lat": 40.4383011, "lon": -3.6913812}, {"type": "node", "id": 8458502447, "lat": 40.4382749, "lon": -3.6913894}, {"type": "node", "id": 8458502448, "lat": 40.4379459, "lon": -3.6915457}, {"type": "node", "id": 8458502449, "lat": 40.4379592, "lon": -3.6917691}, {"type": "node", "id": 8458502450, "lat": 40.4379371, "lon": -3.6914885}, {"type": "node", "id": 8458502451, "lat": 40.4378965, "lon": -3.6914132}, {"type": "node", "id": 8458502452, "lat": 40.4378509, "lon": -3.6913809}, {"type": "node", "id": 8458502453, "lat": 40.4378882, "lon": -3.6913583}, {"type": "node", "id": 8458502454, "lat": 40.4379189, "lon": -3.6914343}, {"type": "node", "id": 8458502455, "lat": 40.4378609, "lon": -3.691346}, {"type": "node", "id": 8522340703, "lat": 40.4380714, "lon": -3.6918663, "tags": {"bus": "yes", "public_transport": "stop_position"}}, {"type": "node", "id": 8580966603, "lat": 40.4373684, "lon": -3.6913811}, {"type": "node", "id": 8580966604, "lat": 40.4378241, "lon": -3.6913805}, {"type": "node", "id": 8580966605, "lat": 40.4378757, "lon": -3.691398}, {"type": "node", "id": 8580966606, "lat": 40.4379303, "lon": -3.691454}, {"type": "node", "id": 8580966611, "lat": 40.4381886, "lon": -3.6912333}, {"type": "node", "id": 8580966612, "lat": 40.438175, "lon": -3.6913576, "tags": {"kerb": "no", "tactile_paving": "yes"}}, {"type": "node", "id": 8580966613, "lat": 40.4381755, "lon": -3.6913786}, {"type": "node", "id": 8807074826, "lat": 40.4409665, "lon": -3.692593}, {"type": "node", "id": 8807074827, "lat": 40.440853, "lon": -3.6926186}, {"type": "node", "id": 8807074831, "lat": 40.4409092, "lon": -3.6926085}, {"type": "node", "id": 8807074832, "lat": 40.4409418, "lon": -3.6926004}, {"type": "node", "id": 12060975998, "lat": 40.4380261, "lon": -3.6917301, "tags": {"highway": "street_lamp", "lamp_mount": "bent_mast", "support": "pole"}}, {"type": "node", "id": 12060976001, "lat": 40.4380333, "lon": -3.6919074, "tags": {"highway": "street_lamp", "lamp_mount": "bent_mast", "support": "pole"}}, {"type": "node", "id": 12060976004, "lat": 40.4380571, "lon": -3.6923446, "tags": {"highway": "street_lamp", "lamp_mount": "bent_mast", "support": "pole"}}, {"type": "node", "id": 12060976005, "lat": 40.4380643, "lon": -3.692474, "tags": {"highway": "street_lamp", "lamp_mount": "bent_mast", "support": "pole"}}, {"type": "node", "id": 12060976012, "lat": 40.4380716, "lon": -3.6927518, "tags": {"highway": "street_lamp", "lamp_mount": "bent_mast", "support": "pole"}}, {"type": "node", "id": 12060976015, "lat": 40.4379686, "lon": -3.6928622, "tags": {"highway": "street_lamp", "lamp_mount": "bent_mast", "support": "pole"}}, {"type": "node", "id": 12060976019, "lat": 40.4378375, "lon": -3.6928705, "tags": {"highway": "street_lamp", "lamp_mount": "bent_mast", "support": "pole"}}, {"type": "node", "id": 12218205041, "lat": 40.4378019, "lon": -3.6913139, "tags": {"highway": "street_lamp", "lamp_mount": "bent_mast", "support": "pole"}}, {"type": "way", "id": 7971515, "nodes": [25902675, 25902718, 25902717], "tags": {"cycleway:right": "no", "highway": "tertiary", "lanes": "2", "lit": "yes", "maxspeed": "50", "maxspeed:type": "ES:zone50", "name": "Calle de Miguel \u00c1ngel", "name:etymology:wikidata": "Q5592", "oneway": "yes", "sidewalk": "right", "sidewalk:right:surface": "paving_stones", "smoothness": "excellent", "surface": "asphalt"}}, {"type": "way", "id": 34378919, "nodes": [394684528, 2053142696, 394684646], "tags": {"cycleway:right": "no", "foot": "no", "highway": "primary", "lanes": "2", "lit": "yes", "maxspeed": "50", "name": "Plaza del Doctor Mara\u00f1\u00f3n", "name:etymology:wikidata": "Q708559", "oneway": "yes", "shoulder": "no", "sidewalk": "no", "smoothness": "excellent", "surface": "asphalt"}}, {"type": "way", "id": 43798347, "nodes": [25902675, 1759501505], "tags": {"cycleway:both": "no", "highway": "residential", "lanes": "2", "lit": "yes", "maxspeed": "30", "maxspeed:type": "ES:zone30", "name": "Paseo de la Castellana", "name:etymology:wikidata": "Q1473674", "oneway": "yes", "postal_code": "28046", "sidewalk": "no", "smoothness": "excellent", "surface": "asphalt"}}, {"type": "way", "id": 164298257, "nodes": [1759501675, 1759501671, 1759501654, 8436098462, 1759501603, 1759501597, 1759501559], "tags": {"access": "no", "highway": "service", "lanes": "1", "lanes:psv": "1", "name": "Paseo de la Castellana", "name:etymology:wikidata": "Q1473674", "oneway": "yes", "psv": "designated", "source": "PNOA", "source:date": "2009", "surface": "asphalt"}}, {"type": "way", "id": 164298271, "nodes": [1759501609, 1759501666, 1759501794, 1719813894], "tags": {"highway": "footway", "lit": "yes", "smoothness": "excellent", "source": "bing", "source:date": "2012", "surface": "paving_stones"}}, {"type": "way", "id": 181982237, "nodes": [394684528, 2053142667, 25902675], "tags": {"cycleway:right": "no", "foot": "no", "highway": "primary", "lanes": "4", "lit": "yes", "maxspeed": "50", "name": "Plaza del Doctor Mara\u00f1\u00f3n", "name:etymology:wikidata": "Q708559", "oneway": "yes", "shoulder": "no", "sidewalk": "no", "smoothness": "excellent", "surface": "asphalt"}}, {"type": "way", "id": 245723751, "nodes": [1759501675, 25902703, 1719813695, 1759501593, 8440634391, 1759501564, 394684646], "tags": {"cycleway:both": "no", "highway": "residential", "lanes": "2", "lit": "yes", "maxspeed": "30", "maxspeed:type": "ES:zone30", "name": "Paseo de la Castellana", "name:etymology:wikidata": "Q1473674", "oneway": "yes", "postal_code": "28046", "smoothness": "excellent", "surface": "asphalt"}}, {"type": "way", "id": 363359195, "nodes": [25902676, 8522340703, 394684528], "tags": {"cycleway:right": "no", "destination": "A-2;R-2;A-1;aeropuerto", "highway": "primary", "lanes": "6", "lit": "yes", "maxspeed": "50", "name": "Calle de Jos\u00e9 Abascal", "name:etymology:wikidata": "Q9013476", "oneway": "yes", "postal_code": "28003", "sidewalk": "both", "sidewalk:both:surface": "paving_stones", "smoothness": "excellent", "surface": "asphalt", "turn:lanes": "left|left|through|through|through|through;right"}}, {"type": "way", "id": 868615043, "nodes": [8807074826, 8807074832, 8807074831, 8807074827, 60017632, 4808839534, 25902757, 25902756, 3675303749, 25902676], "tags": {"bicycle": "yes", "bicycle:source": "enbicipormadrid", "cycleway:both": "no", "highway": "residential", "lanes": "2", "lit": "yes", "maxspeed": "50", "name": "Calle de Zurbano", "name:etymology:wikidata": "Q3295691", "oneway": "yes", "postal_code": "28003", "sidewalk": "both", "sidewalk:both:surface": "paving_stones", "smoothness": "excellent", "source:name": "survey", "surface": "asphalt"}}, {"type": "way", "id": 910922807, "nodes": [8458502440, 2053142696, 2053142667, 8458502441], "tags": {"footway": "crossing", "highway": "footway", "lit": "yes", "smoothness": "excellent", "surface": "asphalt"}}, {"type": "way", "id": 910922808, "nodes": [8458502440, 8458502442, 8458502443, 8580966613, 8458502444, 8458502445, 8458502446, 8458502447], "tags": {"footway": "sidewalk", "highway": "footway", "lit": "yes", "smoothness": "excellent", "surface": "paving_stones"}}, {"type": "way", "id": 910922809, "nodes": [8458502447, 6059903783], "tags": {"handrail": "yes", "highway": "steps", "incline": "down", "lit": "yes", "ramp": "no", "surface": "paving_stones"}}, {"type": "way", "id": 910922810, "nodes": [8458502448, 8458502449], "tags": {"footway": "sidewalk", "highway": "footway", "lit": "yes", "smoothness": "excellent", "surface": "paving_stones"}}, {"type": "way", "id": 910922811, "nodes": [8458502441, 8458502448], "tags": {"footway": "sidewalk", "highway": "footway", "lit": "yes", "smoothness": "excellent", "surface": "paving_stones"}}, {"type": "way", "id": 910922812, "nodes": [8458502448, 8458502450, 8580966606, 8458502454, 8458502451, 8580966605, 8458502452], "tags": {"footway": "sidewalk", "highway": "footway", "lit": "yes", "surface": "paving_stones"}}, {"type": "way", "id": 910922813, "nodes": [8458502452, 8458502455, 8458502453], "tags": {"footway": "sidewalk", "highway": "footway", "lit": "yes", "smoothness": "excellent", "surface": "paving_stones"}}, {"type": "way", "id": 910922814, "nodes": [8458502453, 6501186716], "tags": {"handrail": "yes", "highway": "steps", "incline": "down", "lit": "yes", "ramp": "no", "surface": "concrete"}}, {"type": "way", "id": 924568101, "nodes": [8580966603, 8580966604, 8458502452], "tags": {"footway": "sidewalk", "highway": "footway", "lit": "yes", "surface": "paving_stones"}}, {"type": "way", "id": 924568106, "nodes": [8580966611, 1759501564, 8580966612], "tags": {"crossing": "traffic_signals", "footway": "crossing", "highway": "footway", "lit": "yes", "smoothness": "excellent", "source": "bing", "source:date": "2012", "surface": "asphalt"}}, {"type": "way", "id": 924568107, "nodes": [1759501566, 8580966611], "tags": {"highway": "footway", "lit": "yes", "smoothness": "excellent", "source": "bing", "source:date": "2012", "surface": "paving_stones"}}, {"type": "way", "id": 924568108, "nodes": [8580966612, 8580966613], "tags": {"footway": "sidewalk", "highway": "footway", "lit": "yes", "smoothness": "excellent", "surface": "paving_stones"}}, {"type": "way", "id": 1186014734, "nodes": [25902675, 1759501555], "tags": {"cycleway:right": "no", "foot": "no", "highway": "primary", "lanes": "4", "lit": "yes", "maxspeed": "50", "name": "Plaza del Doctor Mara\u00f1\u00f3n", "name:etymology:wikidata": "Q708559", "oneway": "yes", "shoulder": "no", "sidewalk": "no", "smoothness": "excellent", "surface": "asphalt"}}, {"type": "way", "id": 1186014735, "nodes": [394684646, 25902675], "tags": {"cycleway:both": "no", "highway": "residential", "lanes": "2", "lit": "yes", "maxspeed": "30", "maxspeed:type": "ES:zone30", "name": "Paseo de la Castellana", "name:etymology:wikidata": "Q1473674", "oneway": "yes", "postal_code": "28046", "smoothness": "excellent", "surface": "asphalt"}}, {"type": "way", "id": 1186014736, "nodes": [394684646, 1759501559], "tags": {"cycleway:right": "no", "foot": "no", "highway": "primary", "lanes": "2", "lit": "yes", "maxspeed": "50", "name": "Plaza del Doctor Mara\u00f1\u00f3n", "name:etymology:wikidata": "Q708559", "oneway": "yes", "shoulder": "no", "sidewalk": "no", "smoothness": "excellent", "surface": "asphalt"}}]}