{"version": 0.6, "generator": "Overpass API 0.7.62.5 1bd436f1", "osm3s": {"timestamp_osm_base": "2025-03-23T12:39:35Z", "copyright": "The data included in this document is from www.openstreetmap.org. The data is made available under ODbL."}, "elements": [{"type": "node", "id": 21734220, "lat": 40.4172383, "lon": -3.7035682, "tags": {"source": "yahoo_maps"}}, {"type": "node", "id": 21734221, "lat": 40.417121, "lon": -3.7040647, "tags": {"source": "yahoo_maps"}}, {"type": "node", "id": 21960681, "lat": 40.4194164, "lon": -3.7044072, "tags": {"source": "yahoo_maps"}}, {"type": "node", "id": 25907094, "lat": 40.419622, "lon": -3.7047258, "tags": {"source": "yahoo_maps"}}, {"type": "node", "id": 25907096, "lat": 40.4197845, "lon": -3.7048904, "tags": {"source": "yahoo_maps"}}, {"type": "node", "id": 48753285, "lat": 40.4170948, "lon": -3.704137}, {"type": "node", "id": 48842577, "lat": 40.4202394, "lon": -3.7048347, "tags": {"source": "yahoo_maps"}}, {"type": "node", "id": 184049245, "lat": 40.4195879, "lon": -3.7056179}, {"type": "node", "id": 184049246, "lat": 40.41961, "lon": -3.705508}, {"type": "node", "id": 184049247, "lat": 40.418919, "lon": -3.7049815}, {"type": "node", "id": 184049248, "lat": 40.4188568, "lon": -3.7051257}, {"type": "node", "id": 265983581, "lat": 40.4200671, "lon": -3.7057727, "tags": {"name": "Plaza de Callao", "railway": "subway_entrance", "wheelchair": "yes", "wheelchair:description": "Steps here, a lift is nearby."}}, {"type": "node", "id": 1276929171, "lat": 40.4197254, "lon": -3.7054983}, {"type": "node", "id": 1276929177, "lat": 40.4197194, "lon": -3.7054725}, {"type": "node", "id": 1276929178, "lat": 40.419798, "lon": -3.7055538}, {"type": "node", "id": 1276929181, "lat": 40.4198683, "lon": -3.7055394}, {"type": "node", "id": 1276929184, "lat": 40.4198818, "lon": -3.7055131}, {"type": "node", "id": 1276929185, "lat": 40.4199063, "lon": -3.7055163}, {"type": "node", "id": 1276929187, "lat": 40.4192543, "lon": -3.7051059}, {"type": "node", "id": 1632020533, "lat": 40.4188878, "lon": -3.7048243, "tags": {"addr:city": "Madrid", "addr:housenumber": "22", "addr:postcode": "28013", "addr:street": "Calle del Carmen", "entrance": "main"}}, {"type": "node", "id": 1632020535, "lat": 40.4187155, "lon": -3.7048234, "tags": {"addr:city": "Madrid", "addr:housenumber": "25", "addr:postcode": "28013", "addr:street": "Calle del Carmen", "entrance": "main", "source": "survey"}}, {"type": "node", "id": 1632020536, "lat": 40.4187768, "lon": -3.7048755, "tags": {"addr:city": "Madrid", "addr:housenumber": "27", "addr:postcode": "28013", "addr:street": "Calle del Carmen", "entrance": "main", "source": "survey"}}, {"type": "node", "id": 1632020538, "lat": 40.4179917, "lon": -3.7045512}, {"type": "node", "id": 1632020539, "lat": 40.418144, "lon": -3.704654}, {"type": "node", "id": 1632020540, "lat": 40.4181889, "lon": -3.7042329}, {"type": "node", "id": 1632020541, "lat": 40.4182454, "lon": -3.7047118}, {"type": "node", "id": 1632020544, "lat": 40.418328, "lon": -3.7043742}, {"type": "node", "id": 1632020546, "lat": 40.4183928, "lon": -3.7043}, {"type": "node", "id": 1632020547, "lat": 40.4184232, "lon": -3.7044913}, {"type": "node", "id": 1632020549, "lat": 40.4184303, "lon": -3.704838}, {"type": "node", "id": 1632020550, "lat": 40.4185073, "lon": -3.7044343}, {"type": "node", "id": 1632020551, "lat": 40.4185035, "lon": -3.7048862}, {"type": "node", "id": 1632020552, "lat": 40.4185507, "lon": -3.7046487}, {"type": "node", "id": 1632020554, "lat": 40.4186008, "lon": -3.7045426}, {"type": "node", "id": 1632020556, "lat": 40.4185884, "lon": -3.7046943}, {"type": "node", "id": 1632020565, "lat": 40.4186632, "lon": -3.7049925}, {"type": "node", "id": 1632020566, "lat": 40.418694, "lon": -3.7046639}, {"type": "node", "id": 1632020569, "lat": 40.418686, "lon": -3.7047908}, {"type": "node", "id": 1632020570, "lat": 40.4187027, "lon": -3.7050191}, {"type": "node", "id": 1632020572, "lat": 40.4187528, "lon": -3.7047234}, {"type": "node", "id": 1632020574, "lat": 40.4187328, "lon": -3.7048426}, {"type": "node", "id": 1632020581, "lat": 40.418803, "lon": -3.7048949}, {"type": "node", "id": 1632020582, "lat": 40.4188418, "lon": -3.7047878}, {"type": "node", "id": 1632020587, "lat": 40.418896, "lon": -3.7048308}, {"type": "node", "id": 1782593911, "lat": 40.4171501, "lon": -3.7039943}, {"type": "node", "id": 1782593935, "lat": 40.4172322, "lon": -3.7036441, "tags": {"camera:direction": "355", "camera:mount": "wall", "camera:type": "dome", "man_made": "surveillance", "surveillance": "public", "surveillance:type": "camera", "surveillance:zone": "area"}}, {"type": "node", "id": 1782593942, "lat": 40.4172413, "lon": -3.7034857}, {"type": "node", "id": 1782593954, "lat": 40.4173315, "lon": -3.7041161}, {"type": "node", "id": 1782593964, "lat": 40.4172474, "lon": -3.7034921}, {"type": "node", "id": 1782593966, "lat": 40.4173737, "lon": -3.7035237}, {"type": "node", "id": 1782593987, "lat": 40.4174863, "lon": -3.7037088}, {"type": "node", "id": 1782593994, "lat": 40.4175484, "lon": -3.703567}, {"type": "node", "id": 1782594173, "lat": 40.419559, "lon": -3.7045616}, {"type": "node", "id": 1782594177, "lat": 40.4196592, "lon": -3.7043013}, {"type": "node", "id": 1782594179, "lat": 40.4197025, "lon": -3.7044802}, {"type": "node", "id": 2046739438, "lat": 40.4178483, "lon": -3.7046335}, {"type": "node", "id": 2046739450, "lat": 40.4173874, "lon": -3.7043295}, {"type": "node", "id": 2046743342, "lat": 40.4194802, "lon": -3.7057227}, {"type": "node", "id": 2505396756, "lat": 40.418064, "lon": -3.7047782}, {"type": "node", "id": 2505396758, "lat": 40.4182898, "lon": -3.7049302}, {"type": "node", "id": 2505398011, "lat": 40.4182428, "lon": -3.704721}, {"type": "node", "id": 2601026814, "lat": 40.4171487, "lon": -3.7039888}, {"type": "node", "id": 2601026821, "lat": 40.4172784, "lon": -3.7042578}, {"type": "node", "id": 2601026840, "lat": 40.4174584, "lon": -3.7042001}, {"type": "node", "id": 2601026851, "lat": 40.4175856, "lon": -3.7042807}, {"type": "node", "id": 2601026859, "lat": 40.4176277, "lon": -3.7037578}, {"type": "node", "id": 2601026870, "lat": 40.4176819, "lon": -3.7043442}, {"type": "node", "id": 2601026895, "lat": 40.4177916, "lon": -3.7038778}, {"type": "node", "id": 2601026900, "lat": 40.4178373, "lon": -3.7044495}, {"type": "node", "id": 2601026908, "lat": 40.4178874, "lon": -3.7044842}, {"type": "node", "id": 2601026955, "lat": 40.4180568, "lon": -3.7041026}, {"type": "node", "id": 2601026964, "lat": 40.418116, "lon": -3.7041647}, {"type": "node", "id": 2603326162, "lat": 40.4172442, "lon": -3.7034904}, {"type": "node", "id": 2620439838, "lat": 40.417686, "lon": -3.703622}, {"type": "node", "id": 2620439849, "lat": 40.4178343, "lon": -3.7037336}, {"type": "node", "id": 2620439878, "lat": 40.4180535, "lon": -3.7038951}, {"type": "node", "id": 2620439879, "lat": 40.4180633, "lon": -3.7038799}, {"type": "node", "id": 2620439929, "lat": 40.4183232, "lon": -3.7042082}, {"type": "node", "id": 2622900849, "lat": 40.4185541, "lon": -3.7044885, "tags": {"addr:city": "Madrid", "addr:housenumber": "14", "addr:postcode": "28013", "addr:street": "Calle del Carmen", "entrance": "main", "source": "survey"}}, {"type": "node", "id": 2622900850, "lat": 40.4186386, "lon": -3.7046131, "tags": {"addr:city": "Madrid", "addr:housenumber": "16", "addr:postcode": "28013", "addr:street": "Calle del Carmen", "entrance": "main", "source": "survey"}}, {"type": "node", "id": 2622900851, "lat": 40.4183748, "lon": -3.7044318, "tags": {"addr:city": "Madrid", "addr:housenumber": "17", "addr:postcode": "28013", "addr:street": "Calle del Carmen", "entrance": "main", "source": "survey"}}, {"type": "node", "id": 2622900852, "lat": 40.4192631, "lon": -3.70558, "tags": {"addr:city": "Madrid", "addr:housenumber": "23", "addr:postcode": "28013", "addr:street": "Calle Preciados", "entrance": "main", "source": "survey"}}, {"type": "node", "id": 2622900908, "lat": 40.4177581, "lon": -3.7043968}, {"type": "node", "id": 2622900918, "lat": 40.4179147, "lon": -3.7039705}, {"type": "node", "id": 2622900922, "lat": 40.4180253, "lon": -3.7040699}, {"type": "node", "id": 2622900925, "lat": 40.4188073, "lon": -3.7052736}, {"type": "node", "id": 2622900927, "lat": 40.4188984, "lon": -3.7053351}, {"type": "node", "id": 2622900929, "lat": 40.4189897, "lon": -3.7053971}, {"type": "node", "id": 2622900932, "lat": 40.4190826, "lon": -3.7054586}, {"type": "node", "id": 2622900936, "lat": 40.4191721, "lon": -3.7055191}, {"type": "node", "id": 2622900939, "lat": 40.4193724, "lon": -3.7056537}, {"type": "node", "id": 2622900944, "lat": 40.4200859, "lon": -3.7054845}, {"type": "node", "id": 2650143058, "lat": 40.4200497, "lon": -3.7057805, "tags": {"highway": "elevator", "railway": "subway_entrance", "source": "PNOA", "source:date": "2010", "wheelchair": "yes", "wheelchair:description": "Lift down to ticket hall from street."}}, {"type": "node", "id": 2650143151, "lat": 40.4196817, "lon": -3.7061422}, {"type": "node", "id": 2650143154, "lat": 40.4196827, "lon": -3.7061504}, {"type": "node", "id": 2650143156, "lat": 40.4196932, "lon": -3.7061123}, {"type": "node", "id": 2650143158, "lat": 40.4197289, "lon": -3.7065531}, {"type": "node", "id": 2650143160, "lat": 40.4198462, "lon": -3.7060844}, {"type": "node", "id": 2650143176, "lat": 40.4200583, "lon": -3.7060501}, {"type": "node", "id": 2650143180, "lat": 40.4200675, "lon": -3.7060616}, {"type": "node", "id": 2650143183, "lat": 40.4200718, "lon": -3.706079}, {"type": "node", "id": 3007306701, "lat": 40.4199478, "lon": -3.7060654, "tags": {"addr:housenumber": "3", "addr:postcode": "28013", "addr:street": "Plaza de Callao", "addr:ward": "Sol", "amenity": "cinema", "entrance": "main", "name": "Cines Callao", "name:etymology:wikidata": "Q5769470", "wikidata": "Q5769470", "wikipedia": "es:Cine Callao"}}, {"type": "node", "id": 3007306703, "lat": 40.4197036, "lon": -3.7063329, "tags": {"addr:housenumber": "32", "addr:postcode": "28013", "addr:street": "Calle Preciados", "addr:ward": "Sol", "entrance": "main"}}, {"type": "node", "id": 3007306704, "lat": 40.419738, "lon": -3.706634, "tags": {"addr:housenumber": "34", "addr:postcode": "28013", "addr:street": "Calle Preciados", "addr:ward": "Sol", "entrance": "main"}}, {"type": "node", "id": 3007306706, "lat": 40.4196828, "lon": -3.7061314}, {"type": "node", "id": 3007306707, "lat": 40.4196887, "lon": -3.7061194}, {"type": "node", "id": 3007306708, "lat": 40.419747, "lon": -3.7067149}, {"type": "node", "id": 3007318938, "lat": 40.4200324, "lon": -3.7060504}, {"type": "node", "id": 3007318940, "lat": 40.4200457, "lon": -3.7060461}, {"type": "node", "id": 3037720921, "lat": 40.4190261, "lon": -3.7049295}, {"type": "node", "id": 3037720931, "lat": 40.4192062, "lon": -3.7050683}, {"type": "node", "id": 3037723458, "lat": 40.4199013, "lon": -3.7055085}, {"type": "node", "id": 3037723459, "lat": 40.4199019, "lon": -3.7055176}, {"type": "node", "id": 3235326696, "lat": 40.4183418, "lon": -3.7049653}, {"type": "node", "id": 3235326714, "lat": 40.4184958, "lon": -3.7044461}, {"type": "node", "id": 3235326719, "lat": 40.4185376, "lon": -3.7050928}, {"type": "node", "id": 3235326736, "lat": 40.4185886, "lon": -3.704555}, {"type": "node", "id": 3235326755, "lat": 40.4186886, "lon": -3.7046712}, {"type": "node", "id": 3235339684, "lat": 40.4189193, "lon": -3.7048477}, {"type": "node", "id": 3235339739, "lat": 40.4194456, "lon": -3.7043212}, {"type": "node", "id": 3235339862, "lat": 40.4195728, "lon": -3.7042375}, {"type": "node", "id": 3237129262, "lat": 40.4197651, "lon": -3.7068776}, {"type": "node", "id": 3237129263, "lat": 40.4197793, "lon": -3.7069979}, {"type": "node", "id": 3237129264, "lat": 40.419794, "lon": -3.7071324}, {"type": "node", "id": 3237129265, "lat": 40.4198233, "lon": -3.7073922}, {"type": "node", "id": 3237129266, "lat": 40.4198451, "lon": -3.7075744}, {"type": "node", "id": 3237129268, "lat": 40.4198662, "lon": -3.7077679}, {"type": "node", "id": 3244664049, "lat": 40.4197089, "lon": -3.7063792}, {"type": "node", "id": 3244664050, "lat": 40.4197157, "lon": -3.7064383}, {"type": "node", "id": 3244664052, "lat": 40.4197249, "lon": -3.7065184}, {"type": "node", "id": 3244666288, "lat": 40.4198826, "lon": -3.7060776}, {"type": "node", "id": 3244666299, "lat": 40.4199081, "lon": -3.7060728}, {"type": "node", "id": 3244666328, "lat": 40.4200059, "lon": -3.7060551}, {"type": "node", "id": 3244666477, "lat": 40.4200525, "lon": -3.7060468}, {"type": "node", "id": 3244666501, "lat": 40.4200634, "lon": -3.7060556}, {"type": "node", "id": 3244666509, "lat": 40.4200704, "lon": -3.7060701}, {"type": "node", "id": 3244676819, "lat": 40.419321, "lon": -3.7051585}, {"type": "node", "id": 3254551604, "lat": 40.4195899, "lon": -3.7056009}, {"type": "node", "id": 3254551605, "lat": 40.4196058, "lon": -3.7055603}, {"type": "node", "id": 3254551607, "lat": 40.4196116, "lon": -3.7055506}, {"type": "node", "id": 3275558363, "lat": 40.420008, "lon": -3.7057846}, {"type": "node", "id": 3275558364, "lat": 40.4201575, "lon": -3.7060543}, {"type": "node", "id": 3275558365, "lat": 40.4201376, "lon": -3.7062769}, {"type": "node", "id": 3275558366, "lat": 40.4201709, "lon": -3.7052519}, {"type": "node", "id": 3315570752, "lat": 40.4191061, "lon": -3.7049912, "tags": {"addr:city": "Madrid", "addr:housenumber": "26", "addr:postcode": "28013", "addr:street": "Calle del Carmen", "entrance": "main"}}, {"type": "node", "id": 3315570754, "lat": 40.4182749, "lon": -3.7043203, "tags": {"addr:city": "Madrid", "addr:housenumber": "15", "addr:postcode": "28013", "addr:street": "Calle del Carmen", "entrance": "main", "source": "survey"}}, {"type": "node", "id": 3315570755, "lat": 40.4187248, "lon": -3.7046948, "tags": {"addr:city": "Madrid", "addr:housenumber": "18", "addr:postcode": "28013", "addr:street": "Calle del Carmen", "entrance": "main", "source": "survey"}}, {"type": "node", "id": 3315570756, "lat": 40.4184862, "lon": -3.7045691, "tags": {"addr:city": "Madrid", "addr:housenumber": "19", "addr:postcode": "28013", "addr:street": "Calle del Carmen", "entrance": "main", "source": "survey"}}, {"type": "node", "id": 3315570757, "lat": 40.4188109, "lon": -3.7047655, "tags": {"addr:city": "Madrid", "addr:housenumber": "20", "addr:postcode": "28013", "addr:street": "Calle del Carmen", "entrance": "main", "source": "survey"}}, {"type": "node", "id": 3315570758, "lat": 40.4185782, "lon": -3.7046821, "tags": {"addr:city": "Madrid", "addr:housenumber": "21", "addr:postcode": "28013", "addr:street": "Calle del Carmen", "entrance": "main", "source": "survey"}}, {"type": "node", "id": 3315570759, "lat": 40.4186568, "lon": -3.704762, "tags": {"addr:city": "Madrid", "addr:housenumber": "23", "addr:postcode": "28013", "addr:street": "Calle del Carmen", "entrance": "main", "source": "survey"}}, {"type": "node", "id": 3315570760, "lat": 40.4174758, "lon": -3.7035493, "tags": {"addr:city": "Madrid", "addr:housenumber": "4", "addr:postcode": "28013", "addr:street": "Calle del Carmen", "entrance": "main", "source": "survey"}}, {"type": "node", "id": 3315586561, "lat": 40.4177549, "lon": -3.7038509, "tags": {"addr:city": "Madrid", "addr:housenumber": "5", "addr:postcode": "28013", "addr:street": "Calle del Carmen", "entrance": "main", "source": "survey"}}, {"type": "node", "id": 3315586562, "lat": 40.4177628, "lon": -3.7036799, "tags": {"addr:city": "Madrid", "addr:housenumber": "6", "addr:postcode": "28013", "addr:street": "Calle del Carmen", "entrance": "main", "source": "survey"}}, {"type": "node", "id": 3315586563, "lat": 40.4178478, "lon": -3.7039201, "tags": {"addr:city": "Madrid", "addr:housenumber": "7", "addr:postcode": "28013", "addr:street": "Calle del Carmen", "entrance": "main", "source": "survey"}}, {"type": "node", "id": 3315586564, "lat": 40.4179352, "lon": -3.703808, "tags": {"addr:city": "Madrid", "addr:housenumber": "8", "addr:postcode": "28013", "addr:street": "Calle del Carmen", "entrance": "main", "source": "survey"}}, {"type": "node", "id": 3315586565, "lat": 40.4179693, "lon": -3.7040195, "tags": {"addr:city": "Madrid", "addr:housenumber": "9", "addr:postcode": "28013", "addr:street": "Calle del Carmen", "entrance": "main", "source": "survey"}}, {"type": "node", "id": 3323223824, "lat": 40.4196678, "lon": -3.7070942}, {"type": "node", "id": 3323223825, "lat": 40.4196917, "lon": -3.7073208}, {"type": "node", "id": 3323223826, "lat": 40.4197003, "lon": -3.7076521}, {"type": "node", "id": 3323223827, "lat": 40.419706, "lon": -3.7076545}, {"type": "node", "id": 3323223828, "lat": 40.4197135, "lon": -3.707653}, {"type": "node", "id": 3323223829, "lat": 40.419723, "lon": -3.7076415}, {"type": "node", "id": 3323223830, "lat": 40.4197252, "lon": -3.7076352}, {"type": "node", "id": 3326297596, "lat": 40.419719, "lon": -3.7076492}, {"type": "node", "id": 3387932318, "lat": 40.4190977, "lon": -3.7051141}, {"type": "node", "id": 3387932319, "lat": 40.4190985, "lon": -3.7052965}, {"type": "node", "id": 3387932320, "lat": 40.4191319, "lon": -3.7051407}, {"type": "node", "id": 3387932321, "lat": 40.41929, "lon": -3.7054261}, {"type": "node", "id": 3387932322, "lat": 40.4192917, "lon": -3.7054216}, {"type": "node", "id": 3387932329, "lat": 40.419344, "lon": -3.7053051}, {"type": "node", "id": 3387932330, "lat": 40.419346, "lon": -3.7053}, {"type": "node", "id": 3387932331, "lat": 40.4193594, "lon": -3.7054738}, {"type": "node", "id": 3387932332, "lat": 40.4193598, "lon": -3.7054721}, {"type": "node", "id": 3387932333, "lat": 40.4194125, "lon": -3.7053515}, {"type": "node", "id": 3387932334, "lat": 40.4194133, "lon": -3.70535}, {"type": "node", "id": 3387932340, "lat": 40.4195179, "lon": -3.7055786}, {"type": "node", "id": 3387932360, "lat": 40.4195657, "lon": -3.7056068}, {"type": "node", "id": 3387932361, "lat": 40.4195662, "lon": -3.7054699}, {"type": "node", "id": 3387932362, "lat": 40.4195669, "lon": -3.7056059}, {"type": "node", "id": 3387932374, "lat": 40.4195918, "lon": -3.7056011}, {"type": "node", "id": 3387932376, "lat": 40.4195922, "lon": -3.7055979}, {"type": "node", "id": 3387932389, "lat": 40.4196097, "lon": -3.7055094}, {"type": "node", "id": 3387932390, "lat": 40.4196169, "lon": -3.705541}, {"type": "node", "id": 3387932391, "lat": 40.4196171, "lon": -3.7055369}, {"type": "node", "id": 3387932392, "lat": 40.419618, "lon": -3.705538}, {"type": "node", "id": 3387932894, "lat": 40.4196271, "lon": -3.7055239}, {"type": "node", "id": 3387944869, "lat": 40.419216, "lon": -3.7052059}, {"type": "node", "id": 3387996160, "lat": 40.419483, "lon": -3.7057307}, {"type": "node", "id": 3387996162, "lat": 40.4195187, "lon": -3.7059081}, {"type": "node", "id": 3389517784, "lat": 40.4200952, "lon": -3.7054834}, {"type": "node", "id": 3389538060, "lat": 40.4195618, "lon": -3.7061672, "tags": {"addr:city": "Madrid", "addr:housenumber": "27", "addr:postcode": "28013", "addr:street": "Calle Preciados", "addr:ward": "Sol", "entrance": "main"}}, {"type": "node", "id": 3389538075, "lat": 40.419577, "lon": -3.7063029}, {"type": "node", "id": 3391755315, "lat": 40.4171535, "lon": -3.703998}, {"type": "node", "id": 3411941972, "lat": 40.4187441, "lon": -3.7052315, "tags": {"addr:city": "Madrid", "addr:housenumber": "13", "addr:postcode": "28013", "addr:street": "Calle Preciados", "entrance": "main", "source": "survey"}}, {"type": "node", "id": 3411941973, "lat": 40.4188493, "lon": -3.7053019, "tags": {"addr:city": "Madrid", "addr:housenumber": "15", "addr:postcode": "28013", "addr:street": "Calle Preciados", "entrance": "main", "source": "survey"}}, {"type": "node", "id": 3411941974, "lat": 40.4189414, "lon": -3.7053643, "tags": {"addr:city": "Madrid", "addr:housenumber": "17", "addr:postcode": "28013", "addr:street": "Calle Preciados", "entrance": "main", "source": "survey"}}, {"type": "node", "id": 3411941975, "lat": 40.4190267, "lon": -3.7054216, "tags": {"addr:city": "Madrid", "addr:housenumber": "19", "addr:postcode": "28013", "addr:street": "Calle Preciados", "entrance": "main", "source": "survey"}}, {"type": "node", "id": 3411941976, "lat": 40.4191263, "lon": -3.7054875, "tags": {"addr:city": "Madrid", "addr:housenumber": "21", "addr:postcode": "28013", "addr:street": "Calle Preciados", "entrance": "main", "source": "survey"}}, {"type": "node", "id": 3411941977, "lat": 40.4186532, "lon": -3.7051706}, {"type": "node", "id": 3411942221, "lat": 40.4195094, "lon": -3.7056629}, {"type": "node", "id": 3411942222, "lat": 40.4195291, "lon": -3.7059526}, {"type": "node", "id": 3411942223, "lat": 40.4195377, "lon": -3.7055903}, {"type": "node", "id": 3411942224, "lat": 40.4195583, "lon": -3.7061354}, {"type": "node", "id": 3411942226, "lat": 40.4196476, "lon": -3.7054759}, {"type": "node", "id": 3411942227, "lat": 40.4196666, "lon": -3.705431}, {"type": "node", "id": 3411942229, "lat": 40.4201484, "lon": -3.705253}, {"type": "node", "id": 3411942231, "lat": 40.420163, "lon": -3.7054752}, {"type": "node", "id": 3411959152, "lat": 40.417329, "lon": -3.7042911}, {"type": "node", "id": 3411959153, "lat": 40.4173843, "lon": -3.7041524}, {"type": "node", "id": 3411959154, "lat": 40.4175116, "lon": -3.7044088}, {"type": "node", "id": 3411959155, "lat": 40.4179223, "lon": -3.7045066}, {"type": "node", "id": 3411959156, "lat": 40.4183212, "lon": -3.7049514}, {"type": "node", "id": 3411959157, "lat": 40.4186029, "lon": -3.7051387}, {"type": "node", "id": 3411963468, "lat": 40.4177935, "lon": -3.7044204, "tags": {"addr:city": "Madrid", "addr:housenumber": "10", "addr:postcode": "28013", "addr:street": "Calle Preciados", "entrance": "main", "source": "survey"}}, {"type": "node", "id": 3411963469, "lat": 40.4184426, "lon": -3.7050309, "tags": {"addr:city": "Madrid", "addr:housenumber": "11", "addr:postcode": "28013", "addr:street": "Calle Preciados", "entrance": "main", "source": "survey"}}, {"type": "node", "id": 3411963470, "lat": 40.4180691, "lon": -3.7046035, "tags": {"addr:city": "Madrid", "addr:housenumber": "14", "addr:postcode": "28013", "addr:street": "Calle Preciados", "entrance": "main", "source": "survey"}}, {"type": "node", "id": 3411963471, "lat": 40.418192, "lon": -3.7046865, "tags": {"addr:city": "Madrid", "addr:housenumber": "16", "addr:postcode": "28013", "addr:street": "Calle Preciados", "entrance": "main", "source": "survey"}}, {"type": "node", "id": 3411963472, "lat": 40.4183444, "lon": -3.7047793, "tags": {"addr:city": "Madrid", "addr:housenumber": "18", "addr:postcode": "28013", "addr:street": "Calle Preciados", "entrance": "main", "source": "survey"}}, {"type": "node", "id": 3411963473, "lat": 40.4184561, "lon": -3.704855, "tags": {"addr:city": "Madrid", "addr:housenumber": "20", "addr:postcode": "28013", "addr:street": "Calle Preciados", "entrance": "main", "source": "survey"}}, {"type": "node", "id": 3411963474, "lat": 40.4185265, "lon": -3.7049017, "tags": {"addr:city": "Madrid", "addr:housenumber": "22", "addr:postcode": "28013", "addr:street": "Calle Preciados", "entrance": "main", "source": "survey"}}, {"type": "node", "id": 3411963475, "lat": 40.4186198, "lon": -3.7049638, "tags": {"addr:city": "Madrid", "addr:housenumber": "24", "addr:postcode": "28013", "addr:street": "Calle Preciados", "entrance": "main", "source": "survey"}}, {"type": "node", "id": 3411963476, "lat": 40.418689, "lon": -3.7050099, "tags": {"addr:city": "Madrid", "addr:housenumber": "26", "addr:postcode": "28013", "addr:street": "Calle Preciados", "entrance": "main", "source": "survey"}}, {"type": "node", "id": 3411963477, "lat": 40.4173999, "lon": -3.7043363, "tags": {"addr:city": "Madrid", "addr:housenumber": "3", "addr:postcode": "28013", "addr:street": "Calle Preciados", "entrance": "main", "source": "survey"}}, {"type": "node", "id": 3411963478, "lat": 40.4175168, "lon": -3.7042371, "tags": {"addr:city": "Madrid", "addr:housenumber": "4", "addr:postcode": "28013", "addr:street": "Calle Preciados", "entrance": "main", "source": "survey"}}, {"type": "node", "id": 3411963479, "lat": 40.4176326, "lon": -3.7043117, "tags": {"addr:city": "Madrid", "addr:housenumber": "6", "addr:postcode": "28013", "addr:street": "Calle Preciados", "entrance": "main", "source": "survey"}}, {"type": "node", "id": 3411963480, "lat": 40.4179467, "lon": -3.7046995, "tags": {"addr:city": "Madrid", "addr:housenumber": "7", "addr:postcode": "28013", "addr:street": "Calle Preciados", "entrance": "main", "source": "survey"}}, {"type": "node", "id": 3411963481, "lat": 40.4181645, "lon": -3.7048459, "tags": {"addr:city": "Madrid", "addr:housenumber": "9", "addr:postcode": "28013", "addr:street": "Calle Preciados", "entrance": "main", "source": "survey"}}, {"type": "node", "id": 3411968694, "lat": 40.4189511, "lon": -3.7048721}, {"type": "node", "id": 3412466778, "lat": 40.4183554, "lon": -3.7042507}, {"type": "node", "id": 3412466787, "lat": 40.418577, "lon": -3.7049356}, {"type": "node", "id": 3412466791, "lat": 40.4186043, "lon": -3.7049536}, {"type": "node", "id": 3412467094, "lat": 40.4186337, "lon": -3.704973}, {"type": "node", "id": 3412467103, "lat": 40.4187171, "lon": -3.7048251}, {"type": "node", "id": 3412475597, "lat": 40.4181767, "lon": -3.7046762}, {"type": "node", "id": 3412475601, "lat": 40.4182099, "lon": -3.7046987}, {"type": "node", "id": 3412475623, "lat": 40.4184039, "lon": -3.7044676}, {"type": "node", "id": 3412477711, "lat": 40.418152, "lon": -3.704198}, {"type": "node", "id": 3412512763, "lat": 40.4180404, "lon": -3.7040856, "tags": {"addr:city": "Madrid", "addr:housenumber": "11", "addr:postcode": "28013", "addr:street": "Calle del Carmen", "entrance": "main", "source": "survey"}}, {"type": "node", "id": 3412512764, "lat": 40.4175686, "lon": -3.703724}, {"type": "node", "id": 3412512765, "lat": 40.4176277, "lon": -3.7035827}, {"type": "node", "id": 3412512772, "lat": 40.4177285, "lon": -3.7038316}, {"type": "node", "id": 3414972258, "lat": 40.4185731, "lon": -3.7065418}, {"type": "node", "id": 3415219815, "lat": 40.4195885, "lon": -3.7064051, "tags": {"addr:housenumber": "29", "addr:postcode": "28013", "addr:street": "Calle Preciados", "addr:ward": "Sol", "entrance": "main"}}, {"type": "node", "id": 3415219816, "lat": 40.4195943, "lon": -3.7064582, "tags": {"addr:housenumber": "31", "addr:postcode": "28013", "addr:street": "Calle Preciados", "addr:ward": "Sol", "entrance": "main"}}, {"type": "node", "id": 3415219817, "lat": 40.4196307, "lon": -3.7067936, "tags": {"addr:city": "Madrid", "addr:housenumber": "33", "addr:postcode": "28013", "addr:street": "Calle Preciados", "addr:ward": "Sol", "entrance": "main"}}, {"type": "node", "id": 3415219818, "lat": 40.4196815, "lon": -3.7072237, "tags": {"addr:housenumber": "35", "addr:postcode": "28013", "addr:street": "Calle Preciados", "addr:ward": "Sol", "entrance": "main"}}, {"type": "node", "id": 3415219819, "lat": 40.419756, "lon": -3.7067963, "tags": {"addr:housenumber": "36", "addr:postcode": "28013", "addr:street": "Calle Preciados", "addr:ward": "Sol", "entrance": "main"}}, {"type": "node", "id": 3415219820, "lat": 40.419707, "lon": -3.7074644, "tags": {"addr:housenumber": "37", "addr:postcode": "28013", "addr:street": "Calle Preciados", "addr:ward": "Sol", "entrance": "main"}}, {"type": "node", "id": 3415219821, "lat": 40.4197722, "lon": -3.7069378, "tags": {"addr:housenumber": "38", "addr:postcode": "28013", "addr:street": "Calle Preciados", "addr:ward": "Sol", "entrance": "main"}}, {"type": "node", "id": 3415219822, "lat": 40.4197858, "lon": -3.7070549, "tags": {"addr:housenumber": "40", "addr:postcode": "28013", "addr:street": "Calle Preciados", "addr:ward": "Sol", "entrance": "main"}}, {"type": "node", "id": 3415219823, "lat": 40.4198086, "lon": -3.7072623, "tags": {"addr:housenumber": "42", "addr:postcode": "28013", "addr:street": "Calle Preciados", "addr:ward": "Sol", "entrance": "main"}}, {"type": "node", "id": 3415219824, "lat": 40.4198324, "lon": -3.7074633, "tags": {"addr:housenumber": "44", "addr:postcode": "28013", "addr:street": "Calle Preciados", "addr:ward": "Sol", "entrance": "main"}}, {"type": "node", "id": 3416566078, "lat": 40.4195914, "lon": -3.7064307}, {"type": "node", "id": 3416566082, "lat": 40.4196029, "lon": -3.7065408}, {"type": "node", "id": 3416566084, "lat": 40.4196116, "lon": -3.7066196}, {"type": "node", "id": 3416566086, "lat": 40.4196196, "lon": -3.7066923}, {"type": "node", "id": 3416566088, "lat": 40.4196257, "lon": -3.7067481}, {"type": "node", "id": 3416566089, "lat": 40.4196384, "lon": -3.7068633}, {"type": "node", "id": 3416566090, "lat": 40.4196465, "lon": -3.7069423}, {"type": "node", "id": 3416566091, "lat": 40.4196517, "lon": -3.7069893}, {"type": "node", "id": 3416566092, "lat": 40.4196581, "lon": -3.7070482}, {"type": "node", "id": 3429367528, "lat": 40.4199338, "lon": -3.7017499}, {"type": "node", "id": 3429367532, "lat": 40.419927, "lon": -3.701654}, {"type": "node", "id": 3429367535, "lat": 40.4199623, "lon": -3.7022048}, {"type": "node", "id": 3429367536, "lat": 40.4199786, "lon": -3.70243, "tags": {"button_operated": "no", "crossing": "traffic_signals", "highway": "crossing", "tactile_paving": "yes", "traffic_signals:sound": "yes", "traffic_signals:vibration": "no", "wheelchair": "yes"}}, {"type": "node", "id": 3429367539, "lat": 40.4200197, "lon": -3.7030218, "tags": {"button_operated": "no", "crossing": "traffic_signals", "highway": "crossing", "tactile_paving": "yes", "traffic_signals:sound": "yes", "wheelchair": "yes"}}, {"type": "node", "id": 3429367540, "lat": 40.4200503, "lon": -3.7034472, "tags": {"crossing": "uncontrolled", "highway": "crossing", "tactile_paving": "yes", "wheelchair": "yes"}}, {"type": "node", "id": 3429367543, "lat": 40.4200851, "lon": -3.7039462, "tags": {"button_operated": "no", "crossing": "traffic_signals", "highway": "crossing", "tactile_paving": "yes", "traffic_signals:sound": "yes", "traffic_signals:vibration": "no", "wheelchair": "yes"}}, {"type": "node", "id": 3429367548, "lat": 40.4201381, "lon": -3.7048474, "tags": {"crossing": "traffic_signals", "highway": "crossing", "wheelchair": "yes"}}, {"type": "node", "id": 3429367776, "lat": 40.4199547, "lon": -3.701842}, {"type": "node", "id": 3430170249, "lat": 40.4195054, "lon": -3.7042818, "tags": {"addr:city": "Madrid", "addr:housenumber": "10", "addr:postcode": "28013", "addr:street": "Calle de Mesonero Romanos", "entrance": "main"}}, {"type": "node", "id": 3430170250, "lat": 40.4195115, "lon": -3.704589}, {"type": "node", "id": 3430170252, "lat": 40.4196319, "lon": -3.7041986}, {"type": "node", "id": 3430170253, "lat": 40.4196465, "lon": -3.7042523}, {"type": "node", "id": 3508885624, "lat": 40.4195455, "lon": -3.7060228}, {"type": "node", "id": 3508885625, "lat": 40.4202039, "lon": -3.7056608}, {"type": "node", "id": 3508885626, "lat": 40.4202103, "lon": -3.7055643}, {"type": "node", "id": 3508885627, "lat": 40.4202027, "lon": -3.7057216}, {"type": "node", "id": 3508885628, "lat": 40.420209, "lon": -3.705839}, {"type": "node", "id": 3508885629, "lat": 40.4202216, "lon": -3.7059336}, {"type": "node", "id": 3508885630, "lat": 40.4202198, "lon": -3.7054686}, {"type": "node", "id": 3508885631, "lat": 40.4202377, "lon": -3.7059852}, {"type": "node", "id": 3508885632, "lat": 40.4202464, "lon": -3.7060185}, {"type": "node", "id": 3508885633, "lat": 40.4202417, "lon": -3.7060593}, {"type": "node", "id": 3837996384, "lat": 40.4196631, "lon": -3.7070701}, {"type": "node", "id": 3838019457, "lat": 40.4198328, "lon": -3.7077445}, {"type": "node", "id": 3838019458, "lat": 40.4198598, "lon": -3.7077928}, {"type": "node", "id": 3838019460, "lat": 40.4199238, "lon": -3.7078886}, {"type": "node", "id": 3838019462, "lat": 40.4200616, "lon": -3.707986}, {"type": "node", "id": 3838019463, "lat": 40.4200995, "lon": -3.7079866}, {"type": "node", "id": 3838019464, "lat": 40.4201011, "lon": -3.7062559}, {"type": "node", "id": 3838019465, "lat": 40.420104, "lon": -3.7061621}, {"type": "node", "id": 3838019466, "lat": 40.4201101, "lon": -3.7060538}, {"type": "node", "id": 3838019467, "lat": 40.4201115, "lon": -3.706566}, {"type": "node", "id": 3838019468, "lat": 40.4201236, "lon": -3.7079729}, {"type": "node", "id": 3838019469, "lat": 40.4201388, "lon": -3.7079434}, {"type": "node", "id": 3838019470, "lat": 40.4201393, "lon": -3.7062579}, {"type": "node", "id": 3838019471, "lat": 40.4201557, "lon": -3.7078843}, {"type": "node", "id": 3838019472, "lat": 40.4201613, "lon": -3.707801}, {"type": "node", "id": 3950943294, "lat": 40.4196296, "lon": -3.7061232}, {"type": "node", "id": 4643128010, "lat": 40.4174494, "lon": -3.7043684}, {"type": "node", "id": 4643128029, "lat": 40.4181373, "lon": -3.7048276}, {"type": "node", "id": 4643128043, "lat": 40.4182166, "lon": -3.7048809}, {"type": "node", "id": 4825778909, "lat": 40.4196637, "lon": -3.7056525, "tags": {"highway": "street_lamp", "light:colour": "orange", "light:count": "3", "light:lit": "dusk-dawn", "light:method": "high_pressure_sodium", "light:shape": "directed", "light:tilt": "-90", "operator": "Ayuntamiento de Madrid", "support": "pole"}}, {"type": "node", "id": 4825778910, "lat": 40.4200497, "lon": -3.7059482, "tags": {"highway": "street_lamp", "light:colour": "orange", "light:count": "3", "light:lit": "dusk-dawn", "light:method": "high_pressure_sodium", "light:shape": "directed", "light:tilt": "-90", "operator": "Ayuntamiento de Madrid", "support": "pole"}}, {"type": "node", "id": 5302261806, "lat": 40.4173563, "lon": -3.7042228}, {"type": "node", "id": 5302261807, "lat": 40.4191146, "lon": -3.7061707}, {"type": "node", "id": 5302261808, "lat": 40.4188786, "lon": -3.706361}, {"type": "node", "id": 5302261809, "lat": 40.4190703, "lon": -3.7062268}, {"type": "node", "id": 5302261810, "lat": 40.4191396, "lon": -3.706139}, {"type": "node", "id": 5302261811, "lat": 40.4183258, "lon": -3.7042918}, {"type": "node", "id": 5302261814, "lat": 40.4197351, "lon": -3.7070534}, {"type": "node", "id": 5302261815, "lat": 40.4198115, "lon": -3.7077278}, {"type": "node", "id": 5302264623, "lat": 40.4189129, "lon": -3.7049077}, {"type": "node", "id": 5302264624, "lat": 40.4187924, "lon": -3.7050812}, {"type": "node", "id": 5302264625, "lat": 40.4188694, "lon": -3.7049445}, {"type": "node", "id": 5302264626, "lat": 40.4188968, "lon": -3.7048958}, {"type": "node", "id": 5302264627, "lat": 40.41875, "lon": -3.7051565}, {"type": "node", "id": 5302264628, "lat": 40.4186579, "lon": -3.7050914}, {"type": "node", "id": 5302264631, "lat": 40.4178118, "lon": -3.7045175}, {"type": "node", "id": 5302264632, "lat": 40.418349, "lon": -3.7048736}, {"type": "node", "id": 5302264633, "lat": 40.4187765, "lon": -3.7051751}, {"type": "node", "id": 5302264634, "lat": 40.4190148, "lon": -3.7049829}, {"type": "node", "id": 5302264635, "lat": 40.4187525, "lon": -3.7047892}, {"type": "node", "id": 5302264636, "lat": 40.4186642, "lon": -3.7047047}, {"type": "node", "id": 5302264637, "lat": 40.4181144, "lon": -3.7040521}, {"type": "node", "id": 5302264638, "lat": 40.4179757, "lon": -3.7039279}, {"type": "node", "id": 5302264639, "lat": 40.4175995, "lon": -3.70365}, {"type": "node", "id": 5302457119, "lat": 40.4195979, "lon": -3.7059231}, {"type": "node", "id": 5302457120, "lat": 40.4201563, "lon": -3.705546}, {"type": "node", "id": 5302457521, "lat": 40.4198032, "lon": -3.7056055}, {"type": "node", "id": 5302457522, "lat": 40.4196738, "lon": -3.7055023}, {"type": "node", "id": 5302457523, "lat": 40.4195718, "lon": -3.7057176}, {"type": "node", "id": 5302457525, "lat": 40.4201145, "lon": -3.7059974}, {"type": "node", "id": 5302457526, "lat": 40.4201407, "lon": -3.7056913}, {"type": "node", "id": 5302457527, "lat": 40.4201279, "lon": -3.7057888}, {"type": "node", "id": 5302458906, "lat": 40.4201821, "lon": -3.7048411}, {"type": "node", "id": 5302458917, "lat": 40.4201872, "lon": -3.7061491, "tags": {"barrier": "kerb", "kerb": "flush", "tactile_paving": "yes"}}, {"type": "node", "id": 5302458918, "lat": 40.4202295, "lon": -3.7060796}, {"type": "node", "id": 5308158343, "lat": 40.4197255, "lon": -3.7076697}, {"type": "node", "id": 5704327641, "lat": 40.4191833, "lon": -3.7046401}, {"type": "node", "id": 6109407742, "lat": 40.4200755, "lon": -3.7061656}, {"type": "node", "id": 6109407743, "lat": 40.4202461, "lon": -3.7060346}, {"type": "node", "id": 6109422962, "lat": 40.4201594, "lon": -3.7051418}, {"type": "node", "id": 6334379596, "lat": 40.4195006, "lon": -3.7058182, "tags": {"addr:city": "Madrid", "addr:housenumber": "25", "addr:postcode": "28013", "addr:street": "Calle Preciados", "entrance": "main"}}, {"type": "node", "id": 6553804264, "lat": 40.4195463, "lon": -3.7042549}, {"type": "node", "id": 6553804265, "lat": 40.4196218, "lon": -3.7042052}, {"type": "node", "id": 6553804266, "lat": 40.419695, "lon": -3.7044491}, {"type": "node", "id": 6553826697, "lat": 40.4178968, "lon": -3.704666}, {"type": "node", "id": 6553826698, "lat": 40.4179923, "lon": -3.7047301}, {"type": "node", "id": 6553826699, "lat": 40.4180187, "lon": -3.7047478}, {"type": "node", "id": 6553826700, "lat": 40.4180394, "lon": -3.7047618}, {"type": "node", "id": 6553826708, "lat": 40.4186744, "lon": -3.7051852}, {"type": "node", "id": 6553826709, "lat": 40.418769, "lon": -3.7052481}, {"type": "node", "id": 6553826710, "lat": 40.418864, "lon": -3.7053118}, {"type": "node", "id": 6553826711, "lat": 40.4188863, "lon": -3.7053269}, {"type": "node", "id": 6553826712, "lat": 40.4190491, "lon": -3.7054364}, {"type": "node", "id": 6553826713, "lat": 40.4190639, "lon": -3.7054462}, {"type": "node", "id": 6553826720, "lat": 40.4194551, "lon": -3.7057067}, {"type": "node", "id": 6553827816, "lat": 40.4186957, "lon": -3.7050144}, {"type": "node", "id": 6553827818, "lat": 40.4186266, "lon": -3.7049683}, {"type": "node", "id": 6553827819, "lat": 40.4183141, "lon": -3.7047585}, {"type": "node", "id": 6553827820, "lat": 40.4181287, "lon": -3.7046437}, {"type": "node", "id": 6553827826, "lat": 40.4175242, "lon": -3.7035611}, {"type": "node", "id": 6553827828, "lat": 40.4180723, "lon": -3.7041189}, {"type": "node", "id": 6553827829, "lat": 40.4181031, "lon": -3.7041512}, {"type": "node", "id": 6553827830, "lat": 40.4182565, "lon": -3.7043016}, {"type": "node", "id": 6553827831, "lat": 40.4183389, "lon": -3.7043876}, {"type": "node", "id": 6553827832, "lat": 40.4184719, "lon": -3.7045514}, {"type": "node", "id": 6553827833, "lat": 40.4185649, "lon": -3.704666}, {"type": "node", "id": 6553827834, "lat": 40.4186434, "lon": -3.7047488}, {"type": "node", "id": 6553827836, "lat": 40.4188617, "lon": -3.7048036}, {"type": "node", "id": 6553827837, "lat": 40.4188335, "lon": -3.7047818}, {"type": "node", "id": 6553827838, "lat": 40.4189175, "lon": -3.7048464}, {"type": "node", "id": 6553827839, "lat": 40.4190426, "lon": -3.7049422}, {"type": "node", "id": 6553827840, "lat": 40.4191362, "lon": -3.7050143}, {"type": "node", "id": 6553827841, "lat": 40.4191762, "lon": -3.7050452}, {"type": "node", "id": 7618346989, "lat": 40.4199824, "lon": -3.7058143}, {"type": "node", "id": 7868569093, "lat": 40.4199506, "lon": -3.7018239}, {"type": "node", "id": 8071133806, "lat": 40.4199278, "lon": -3.701635}, {"type": "node", "id": 8714822022, "lat": 40.4182355, "lon": -3.7048936}, {"type": "node", "id": 9029849698, "lat": 40.4178804, "lon": -3.704563}, {"type": "node", "id": 9029849699, "lat": 40.4181937, "lon": -3.704142}, {"type": "node", "id": 9262327414, "lat": 40.4196258, "lon": -3.7060919}, {"type": "node", "id": 9262340220, "lat": 40.4196623, "lon": -3.7060528}, {"type": "node", "id": 9262340221, "lat": 40.419691, "lon": -3.7060297}, {"type": "node", "id": 9262340222, "lat": 40.419671, "lon": -3.7060014}, {"type": "node", "id": 9262340223, "lat": 40.4196924, "lon": -3.7059736}, {"type": "node", "id": 9262340224, "lat": 40.4196631, "lon": -3.7059474}, {"type": "node", "id": 9262340225, "lat": 40.4196532, "lon": -3.7059861}, {"type": "node", "id": 9262340226, "lat": 40.4196236, "lon": -3.7059736}, {"type": "node", "id": 9262340227, "lat": 40.4196248, "lon": -3.7060183}, {"type": "node", "id": 9262340228, "lat": 40.4196525, "lon": -3.7060141}, {"type": "node", "id": 9262340230, "lat": 40.4202295, "lon": -3.706001}, {"type": "node", "id": 9262340231, "lat": 40.4202089, "lon": -3.7060124}, {"type": "node", "id": 9262340232, "lat": 40.4201941, "lon": -3.7059661}, {"type": "node", "id": 9262340233, "lat": 40.4202147, "lon": -3.7059547}, {"type": "node", "id": 9262340234, "lat": 40.4197626, "lon": -3.7060474}, {"type": "node", "id": 9262340235, "lat": 40.4197281, "lon": -3.706054}, {"type": "node", "id": 9262340236, "lat": 40.4197246, "lon": -3.7060224}, {"type": "node", "id": 9262340237, "lat": 40.419759, "lon": -3.7060158}, {"type": "node", "id": 9262340238, "lat": 40.4198244, "lon": -3.7060304}, {"type": "node", "id": 9262340239, "lat": 40.4198037, "lon": -3.7060344}, {"type": "node", "id": 9262340240, "lat": 40.4198011, "lon": -3.7060111}, {"type": "node", "id": 9262340241, "lat": 40.4198218, "lon": -3.7060071}, {"type": "node", "id": 9262340242, "lat": 40.4201487, "lon": -3.7061567}, {"type": "node", "id": 11127533236, "lat": 40.419484, "lon": -3.7059742}, {"type": "node", "id": 11240921679, "lat": 40.4197348, "lon": -3.7059568, "tags": {"highway": "street_lamp", "lamp_mount": "straight_mast", "support": "pole"}}, {"type": "node", "id": 11240921680, "lat": 40.4200297, "lon": -3.7055993, "tags": {"highway": "street_lamp", "lamp_mount": "straight_mast", "support": "pole"}}, {"type": "node", "id": 11380094711, "lat": 40.4195199, "lon": -3.7047452, "tags": {"addr:housenumber": "1", "addr:street": "Calle de la Abada", "amenity": "parking_entrance", "capacity": "67", "name": "Parking El Corte Ingl\u00e9s", "parking": "underground"}}, {"type": "node", "id": 11380094712, "lat": 40.4195685, "lon": -3.7046656}, {"type": "node", "id": 11380094713, "lat": 40.4196094, "lon": -3.7047446}, {"type": "node", "id": 11380094714, "lat": 40.4196005, "lon": -3.7047481}, {"type": "node", "id": 11380094715, "lat": 40.4195867, "lon": -3.7047475}, {"type": "node", "id": 12145772260, "lat": 40.4198048, "lon": -3.7077463}, {"type": "node", "id": 12200390963, "lat": 40.420142, "lon": -3.7051693, "tags": {"bus": "yes", "highway": "bus_stop", "name": "Gran V\u00eda-Callao", "operator": "EMT Madrid", "public_transport": "platform", "ref": "723"}}, {"type": "node", "id": 12413405031, "lat": 40.4202131, "lon": -3.7058836}, {"type": "node", "id": 12413405032, "lat": 40.4202052, "lon": -3.7057785}, {"type": "node", "id": 12413405041, "lat": 40.4203282, "lon": -3.7046962}, {"type": "node", "id": 12413405042, "lat": 40.4201306, "lon": -3.7047179}, {"type": "node", "id": 12413405043, "lat": 40.4202309, "lon": -3.7047065, "tags": {"crossing": "uncontrolled", "highway": "crossing"}}, {"type": "node", "id": 12413405044, "lat": 40.4200686, "lon": -3.7037092}, {"type": "node", "id": 12415675050, "lat": 40.4200008, "lon": -3.7027503}, {"type": "way", "id": 7732071, "nodes": [48842577, 5302458906, 3429367548, 25907096, 25907094, 11380094712, 3430170250], "tags": {"cycleway:both": "no", "highway": "residential", "lanes": "1", "lit": "yes", "name": "Calle de la Abada", "oneway": "yes", "postal_code": "28013", "surface": "asphalt"}}, {"type": "way", "id": 7971934, "nodes": [3411942224, 3389538060, 3389538075, 3415219815, 3416566078, 3415219816, 3416566082, 3416566084, 3416566086, 3416566088, 3415219817, 3416566089, 3416566090, 3416566091, 3416566092, 3837996384, 3323223824, 3415219818, 3323223825, 3415219820, 3323223830, 3323223829, 3326297596, 3323223828, 3323223827, 3323223826, 5308158343, 5302261815, 3838019457, 3237129268, 3237129266, 3415219824, 3237129265, 3415219823, 3237129264, 3415219822, 3237129263, 3415219821, 3237129262, 3415219819, 3007306708, 3007306704, 2650143158, 3244664052, 3244664050, 3244664049, 3007306703, 2650143154, 2650143151, 3007306706, 3007306707, 2650143156, 3950943294, 3411942224], "tags": {"area": "yes", "highway": "pedestrian", "lit": "yes", "name": "Calle Preciados", "postal_code": "28013", "smoothness": "excellent", "surface": "paving_stones", "wheelchair": "yes"}}, {"type": "way", "id": 48557945, "nodes": [5302264623, 3411968694, 5704327641, 21960681, 3430170253, 3429367543], "tags": {"highway": "living_street", "lanes": "1", "lit": "yes", "name": "Calle de Mesonero Romanos", "name:etymology:wikidata": "Q1545524", "oneway": "yes", "postal_code": "28013", "surface": "paving_stones"}}, {"type": "way", "id": 320895853, "nodes": [265983581, 3275558363], "tags": {"handrail": "yes", "highway": "steps", "incline": "up", "lit": "yes", "ramp": "no", "surface": "paving_stones", "tactile_paving": "yes"}}, {"type": "way", "id": 320895865, "nodes": [3275558365, 3838019470, 9262340242], "tags": {"highway": "footway", "lit": "yes", "smoothness": "excellent", "surface": "paving_stones"}}, {"type": "way", "id": 334102281, "nodes": [3275558366, 3411942229], "tags": {"footway": "sidewalk", "highway": "footway", "lit": "yes", "smoothness": "excellent", "surface": "paving_stones"}}, {"type": "way", "id": 334102282, "nodes": [3411942231, 3411942229, 6109422962, 3429367548, 12413405042, 3429367543, 12413405044, 3429367540, 3429367539, 12415675050, 3429367536, 3429367535, 3429367776, 7868569093, 3429367528, 3429367532, 8071133806], "tags": {"footway": "sidewalk", "highway": "footway", "lit": "yes", "smoothness": "excellent", "surface": "paving_stones", "wheelchair": "yes"}}, {"type": "way", "id": 334102411, "nodes": [1632020539, 3412475597, 3411963471, 3412475601, 2505398011, 1632020541, 6553827819, 3411963472, 1632020549, 3411963473, 1632020551, 3411963474, 3412466787, 3412466791, 3411963475, 6553827818, 3412467094, 1632020565, 3411963476, 6553827816, 1632020570, 5302264624, 184049248, 3387932319, 3387932322, 3387932321, 3387932332, 3387932331, 3387932340, 3411942223, 3411942221, 3387996160, 2046743342, 6553826720, 2622900939, 2622900852, 2622900936, 3411941976, 2622900932, 6553826713, 6553826712, 3411941975, 2622900929, 3411941974, 2622900927, 6553826711, 6553826710, 3411941973, 2622900925, 6553826709, 3411941972, 6553826708, 3411941977, 3411959157, 3235326719, 3411963469, 3235326696, 3411959156, 2505396758, 8714822022, 4643128043, 3411963481, 4643128029, 2505396756, 6553826700, 6553826699, 6553826698, 3411963480, 6553826697, 2046739438, 3411959154, 4643128010, 3411963477, 2046739450, 3411959152, 2601026821, 48753285, 21734221, 2601026814, 1782593911, 3391755315, 1782593954, 3411959153, 2601026840, 3411963478, 2601026851, 3411963479, 2601026870, 2622900908, 3411963468, 2601026900, 2601026908, 3411959155, 1632020538, 3411963470, 6553827820, 1632020539], "tags": {"area": "yes", "highway": "pedestrian", "lit": "yes", "name": "Calle Preciados", "postal_code": "28013", "smoothness": "excellent", "surface": "paving_stones", "wheelchair": "yes"}}, {"type": "way", "id": 334156471, "nodes": [1782593966, 1782593964, 2603326162, 1782593942, 21734220, 1782593935, 1782593987, 3412512764, 2601026859, 3412512772, 3315586561, 2601026895, 3315586563, 2622900918, 3315586565, 2622900922, 3412512763, 2601026955, 6553827828, 6553827829, 2601026964, 3412477711, 1632020540, 6553827830, 3315570754, 1632020544, 6553827831, 2622900851, 3412475623, 1632020547, 6553827832, 3315570756, 1632020552, 6553827833, 3315570758, 1632020556, 6553827834, 3315570759, 1632020569, 1632020535, 3412467103, 1632020574, 1632020536, 1632020581, 5302264625, 184049247, 3387932318, 3387932320, 3387944869, 3387932329, 3387932330, 3387932333, 3387932334, 3387932361, 184049246, 3387932389, 3387932894, 3411942226, 3411942227, 3244676819, 1276929187, 3037720931, 6553827841, 6553827840, 3315570752, 6553827839, 3037720921, 3411968694, 3235339684, 6553827838, 1632020587, 1632020533, 6553827836, 1632020582, 6553827837, 3315570757, 1632020572, 3315570755, 1632020566, 3235326755, 2622900850, 3235326736, 1632020554, 2622900849, 1632020550, 3235326714, 1632020546, 3412466778, 2620439929, 2620439879, 2620439878, 3315586564, 2620439849, 3315586562, 2620439838, 3412512765, 1782593994, 6553827826, 3315570760, 1782593966], "tags": {"area": "yes", "highway": "pedestrian", "lit": "yes", "name": "Calle del Carmen", "postal_code": "28013", "smoothness": "excellent", "surface": "paving_stones", "wheelchair": "yes"}}, {"type": "way", "id": 335911672, "nodes": [3430170250, 21960681], "tags": {"highway": "living_street", "lanes": "1", "lit": "yes", "name": "Calle de la Abada", "oneway": "yes", "postal_code": "28013", "surface": "asphalt"}}, {"type": "way", "id": 335911678, "nodes": [3430170250, 1782594173, 1782594179, 6553804266, 1782594177, 3430170253, 3430170252, 6553804265, 3235339862, 6553804264, 3430170249, 3235339739, 21960681, 3430170250], "tags": {"area": "yes", "highway": "pedestrian", "lit": "yes", "postal_code": "28013", "surface": "paving_stones"}}, {"type": "way", "id": 344130176, "nodes": [3508885630, 3411942231, 3389517784, 2622900944, 1276929185, 3037723459, 3037723458, 1276929184, 1276929181, 1276929178, 1276929171, 1276929177, 3411942227, 3411942226, 3387932894, 3387932391, 3387932392, 3387932390, 3254551607, 3254551605, 3387932376, 3387932374, 3254551604, 184049245, 3387932362, 3387932360, 3411942223, 3411942221, 3387996160, 6334379596, 3387996162, 3411942222, 3508885624, 3411942224, 3950943294, 2650143156, 2650143160, 3244666288, 3244666299, 3007306701]}, {"type": "way", "id": 380472817, "nodes": [3838019457, 3838019458, 3838019460, 3838019462, 3838019463, 3838019468, 3838019469, 3838019471, 3838019472, 3838019467, 3838019464, 3838019465], "tags": {"footway": "sidewalk", "highway": "footway", "lit": "yes", "surface": "paving_stones", "wheelchair": "yes"}}, {"type": "way", "id": 548874626, "nodes": [3411942222, 11127533236, 5302261810, 5302261807, 5302261809, 5302261808, 3414972258], "tags": {"foot": "yes", "highway": "pedestrian", "lit": "yes", "name": "Calle del Postigo de San Mart\u00edn", "name:etymology:wikidata": "Q6083473", "postal_code": "28013", "smoothness": "excellent", "source": "survey", "surface": "paving_stones", "wheelchair": "yes"}}, {"type": "way", "id": 548874629, "nodes": [9262327414, 3950943294, 5302261814, 5302261815, 12145772260], "tags": {"highway": "pedestrian", "lit": "yes", "name": "Calle Preciados", "name:etymology:wikidata": "Q5552155", "postal_code": "28013", "smoothness": "excellent", "surface": "paving_stones", "wheelchair": "yes"}}, {"type": "way", "id": 548874634, "nodes": [3411942221, 5302264633, 5302264627, 5302264628, 5302264632, 9029849698, 5302264631, 5302261806, 21734221], "tags": {"bicycle": "dismount", "highway": "pedestrian", "lit": "yes", "name": "Calle Preciados", "name:etymology:wikidata": "Q5552155", "oneway": "no", "postal_code": "28013", "smoothness": "excellent", "surface": "paving_stones", "wheelchair": "yes"}}, {"type": "way", "id": 548874635, "nodes": [21734220, 5302264639, 5302264638, 5302264637, 9029849699, 5302261811, 5302264636, 5302264635, 5302264626, 5302264623, 5302264634, 3411942226], "tags": {"bicycle": "dismount", "highway": "pedestrian", "lit": "yes", "name": "Calle del Carmen", "name:etymology:wikidata": "Q5740988", "oneway": "no", "postal_code": "28013", "smoothness": "excellent", "surface": "paving_stones", "wheelchair": "yes", "wikidata": "Q5740988", "wikipedia": "es:Calle del Carmen (Madrid)"}}, {"type": "way", "id": 548899580, "nodes": [5302457521, 5302457119], "tags": {"highway": "pedestrian", "lit": "yes", "noname": "yes", "postal_code": "28013", "smoothness": "good", "surface": "paving_stones", "wheelchair": "yes"}}, {"type": "way", "id": 548899581, "nodes": [5302457522, 3411942226], "tags": {"highway": "pedestrian", "lit": "yes", "noname": "yes", "postal_code": "28013", "surface": "paving_stones", "wheelchair": "yes"}}, {"type": "way", "id": 548899582, "nodes": [5302457523, 3411942221], "tags": {"highway": "pedestrian", "lit": "yes", "noname": "yes", "postal_code": "28013", "smoothness": "excellent", "surface": "paving_stones", "wheelchair": "yes"}}, {"type": "way", "id": 548899583, "nodes": [5302457119, 3411942222], "tags": {"bicycle": "yes", "highway": "pedestrian", "horse": "yes", "lit": "yes", "motor_vehicle": "yes", "noname": "yes", "postal_code": "28013", "smoothness": "excellent", "surface": "paving_stones", "wheelchair": "yes"}}, {"type": "way", "id": 548899584, "nodes": [5302457525, 7618346989, 5302457521], "tags": {"highway": "pedestrian", "lit": "yes", "noname": "yes", "postal_code": "28013", "smoothness": "good", "surface": "paving_stones", "wheelchair": "yes"}}, {"type": "way", "id": 548899585, "nodes": [3275558364, 5302457525, 9262327414, 5302457119, 5302457523, 5302457522, 5302457521, 5302457120], "tags": {"highway": "pedestrian", "lit": "yes", "noname": "yes", "postal_code": "28013", "smoothness": "good", "surface": "paving_stones", "wheelchair": "yes"}}, {"type": "way", "id": 549530947, "nodes": [3275558364, 5302458917], "tags": {"highway": "pedestrian", "lit": "yes", "name": "Plaza de Callao", "postal_code": "28013", "smoothness": "excellent", "surface": "paving_stones", "wheelchair": "yes"}}, {"type": "way", "id": 815725138, "nodes": [7618346989, 3275558363], "tags": {"highway": "pedestrian", "lit": "yes", "noname": "yes", "postal_code": "28013", "smoothness": "good", "surface": "paving_stones", "wheelchair": "yes"}}, {"type": "way", "id": 1003795542, "nodes": [9262340220, 9262340221, 9262340222, 9262340223, 9262340224, 9262340225, 9262340226, 9262340227, 9262340228, 9262340220], "tags": {"building": "yes", "information": "punto_de_informaci\u00f3n_tur\u00edstica", "tourism": "information"}}, {"type": "way", "id": 1003795543, "nodes": [9262340230, 9262340231, 9262340232, 9262340233, 9262340230], "tags": {"amenity": "fast_food", "building": "yes", "cuisine": "juice", "indoor_seating": "no", "outdoor_seating": "no", "takeaway": "only"}}, {"type": "way", "id": 1003795544, "nodes": [9262340234, 9262340235, 9262340236, 9262340237, 9262340234], "tags": {"building": "yes", "shop": "kiosk"}}, {"type": "way", "id": 1003795545, "nodes": [9262340238, 9262340239, 9262340240, 9262340241, 9262340238], "tags": {"building": "yes", "shop": "lottery"}}, {"type": "way", "id": 1003795546, "nodes": [3838019465, 3838019466, 5302457525, 5302457527, 5302457526, 5302457120, 3411942231], "tags": {"highway": "pedestrian", "lit": "yes", "name": "Plaza de Callao", "name:etymology:wikidata": "Q2099125", "postal_code": "28013", "smoothness": "good", "surface": "paving_stones", "wheelchair": "yes"}}, {"type": "way", "id": 1003795547, "nodes": [9262340242, 3275558364], "tags": {"highway": "pedestrian", "lit": "yes", "name": "Plaza de Callao", "postal_code": "28013", "smoothness": "excellent", "surface": "paving_stones"}}, {"type": "way", "id": 1227204676, "nodes": [25907094, 11380094713, 11380094714, 11380094715, 11380094711], "tags": {"highway": "service", "lit": "yes", "oneway": "yes", "surface": "asphalt"}}, {"type": "way", "id": 1341910207, "nodes": [12413405041, 12413405043, 12413405042], "tags": {"crossing": "uncontrolled", "crossing:markings": "yes", "footway": "crossing", "highway": "footway", "lit": "yes", "surface": "asphalt"}}, {"type": "way", "id": 1353522962, "nodes": [3007306701, 3244666328, 3007318938, 3007318940, 3244666477, 2650143176, 3244666501, 2650143180, 3244666509, 2650143183, 6109407742, 3838019465, 9262340242, 5302458917, 5302458918, 3508885633, 6109407743, 3508885632, 3508885631, 3508885629, 12413405031, 3508885628, 12413405032, 3508885627, 3508885625, 3508885626, 3508885630]}, {"type": "way", "id": 1353522963, "nodes": [3508885630, 3411942231], "tags": {"footway": "sidewalk", "highway": "footway", "lit": "yes", "surface": "paving_stones"}}, {"type": "relation", "id": 13452454, "members": [{"type": "way", "ref": 344130176, "role": "outer"}, {"type": "way", "ref": 1353522962, "role": "outer"}, {"type": "way", "ref": 1003795542, "role": "inner"}, {"type": "way", "ref": 1003795543, "role": "inner"}, {"type": "way", "ref": 1003795544, "role": "inner"}, {"type": "way", "ref": 1003795545, "role": "inner"}], "tags": {"highway": "pedestrian", "lit": "yes", "name": "Plaza de Callao", "name:etymology:wikidata": "Q2099125", "place": "square", "smoothness": "excellent", "surface": "paving_stones", "type": "multipolygon", "wheelchair": "yes", "wikidata": "Q2099125", "wikipedia": "es:Plaza del Callao"}}]}