{"version": 0.6, "generator": "Overpass API 0.7.62.5 1bd436f1", "osm3s": {"timestamp_osm_base": "2025-03-23T16:05:13Z", "copyright": "The data included in this document is from www.openstreetmap.org. The data is made available under ODbL."}, "elements": [{"type": "node", "id": 101022526, "lat": 40.4289695, "lon": -3.6511642}, {"type": "node", "id": 101022527, "lat": 40.4285806, "lon": -3.6502904}, {"type": "node", "id": 101034262, "lat": 40.4286543, "lon": -3.6522439}, {"type": "node", "id": 101058519, "lat": 40.4273849, "lon": -3.6498108}, {"type": "node", "id": 101058520, "lat": 40.4266487, "lon": -3.6507674}, {"type": "node", "id": 306528110, "lat": 40.4262534, "lon": -3.6518435}, {"type": "node", "id": 306528112, "lat": 40.4275592, "lon": -3.6500528}, {"type": "node", "id": 306528209, "lat": 40.4285947, "lon": -3.6514606}, {"type": "node", "id": 306528370, "lat": 40.4268416, "lon": -3.6510385}, {"type": "node", "id": 307998715, "lat": 40.4273966, "lon": -3.6517224}, {"type": "node", "id": 307998716, "lat": 40.4280892, "lon": -3.6507785}, {"type": "node", "id": 307998732, "lat": 40.4278464, "lon": -3.6520493}, {"type": "node", "id": 319774857, "lat": 40.4265976, "lon": -3.6513718}, {"type": "node", "id": 319775708, "lat": 40.4274953, "lon": -3.6499676}, {"type": "node", "id": 2005635024, "lat": 40.4285059, "lon": -3.6503494, "tags": {"highway": "crossing"}}, {"type": "node", "id": 2005635026, "lat": 40.4279558, "lon": -3.6519719, "tags": {"highway": "crossing"}}, {"type": "node", "id": 2005635036, "lat": 40.4276564, "lon": -3.6520542}, {"type": "node", "id": 2005635048, "lat": 40.4283349, "lon": -3.6504792}, {"type": "node", "id": 2005635059, "lat": 40.428361, "lon": -3.6516687}, {"type": "node", "id": 2005635085, "lat": 40.427756, "lon": -3.6520709}, {"type": "node", "id": 2065668334, "lat": 40.426312, "lon": -3.6517689, "tags": {"highway": "crossing"}}, {"type": "node", "id": 3201484156, "lat": 40.4282974, "lon": -3.6505095}, {"type": "node", "id": 3201886737, "lat": 40.4274531, "lon": -3.6499062, "tags": {"crossing": "traffic_signals", "crossing:signals": "yes", "highway": "crossing"}}, {"type": "node", "id": 3201886738, "lat": 40.4274637, "lon": -3.6501838, "tags": {"highway": "give_way"}}, {"type": "node", "id": 3201886740, "lat": 40.4274866, "lon": -3.6501524, "tags": {"crossing": "uncontrolled", "crossing:markings": "zebra", "highway": "crossing"}}, {"type": "node", "id": 3201886744, "lat": 40.428023, "lon": -3.6508619, "tags": {"crossing": "uncontrolled", "crossing:markings": "zebra", "highway": "crossing"}}, {"type": "node", "id": 3201886745, "lat": 40.4281491, "lon": -3.6507012, "tags": {"crossing": "uncontrolled", "crossing:markings": "zebra", "highway": "crossing"}}, {"type": "node", "id": 3201886746, "lat": 40.4281714, "lon": -3.6506723, "tags": {"highway": "give_way"}}, {"type": "node", "id": 3201886753, "lat": 40.4288768, "lon": -3.6512446, "tags": {"highway": "give_way"}}, {"type": "node", "id": 3201886754, "lat": 40.4289025, "lon": -3.6512249, "tags": {"crossing": "uncontrolled", "crossing:markings": "zebra", "highway": "crossing"}}, {"type": "node", "id": 3256775339, "lat": 40.4267265, "lon": -3.6508567, "tags": {"crossing": "marked", "crossing:markings": "yes", "highway": "crossing"}}, {"type": "node", "id": 3256777183, "lat": 40.4268133, "lon": -3.6510831, "tags": {"highway": "crossing"}}, {"type": "node", "id": 3256777188, "lat": 40.4268189, "lon": -3.6509874}, {"type": "node", "id": 3256777219, "lat": 40.4269011, "lon": -3.6509559, "tags": {"highway": "crossing"}}, {"type": "node", "id": 3256777519, "lat": 40.4274389, "lon": -3.6516623, "tags": {"highway": "crossing"}}, {"type": "node", "id": 3256777583, "lat": 40.4276881, "lon": -3.6520733}, {"type": "node", "id": 3256777592, "lat": 40.4277189, "lon": -3.652078}, {"type": "node", "id": 3256777869, "lat": 40.4284982, "lon": -3.6515553}, {"type": "node", "id": 3257113668, "lat": 40.4270426, "lon": -3.6511154}, {"type": "node", "id": 3257113669, "lat": 40.4276908, "lon": -3.6502321}, {"type": "node", "id": 3257145265, "lat": 40.4267915, "lon": -3.6511123, "tags": {"highway": "give_way"}}, {"type": "node", "id": 3257145267, "lat": 40.4274627, "lon": -3.6516298, "tags": {"highway": "stop"}}, {"type": "node", "id": 3262170537, "lat": 40.4263982, "lon": -3.6516491}, {"type": "node", "id": 3262170548, "lat": 40.4276412, "lon": -3.6503017, "tags": {"barrier": "entrance", "bicycle": "yes", "foot": "yes"}}, {"type": "node", "id": 3262170549, "lat": 40.4277186, "lon": -3.6502711}, {"type": "way", "id": 27924705, "nodes": [101058519, 3201886737, 319775708, 306528112, 3257113669, 3262170549, 307998716, 306528209], "tags": {"highway": "residential", "lanes": "2", "maxspeed": "40", "name": "Calle de San Clodoaldo", "postal_code": "28017", "sidewalk": "both", "surface": "asphalt"}}, {"type": "way", "id": 27924724, "nodes": [307998732, 2005635085, 3256777592, 3256777583, 2005635036, 307998715, 306528370, 3256777188, 3256775339, 101058520], "tags": {"highway": "residential", "lanes": "1", "maxspeed": "40", "name": "Calle de Jos\u00e9 Barbastre", "oneway": "yes", "postal_code": "28017", "sidewalk": "both", "surface": "asphalt"}}, {"type": "way", "id": 28049002, "nodes": [101022527, 2005635024, 2005635048, 3201484156, 3201886746, 3201886745, 307998716, 3201886744, 3257145267, 3256777519, 307998715], "tags": {"highway": "residential", "lanes": "1", "maxspeed": "40", "name": "Calle de Miguel de Unamuno", "oneway": "yes", "postal_code": "28017", "sidewalk": "both", "surface": "asphalt"}}, {"type": "way", "id": 189956456, "nodes": [307998732, 2005635026, 2005635059, 3256777869, 306528209, 3201886753, 3201886754, 101022526], "tags": {"highway": "residential", "lanes": "1", "maxspeed": "40", "name": "Calle de Jos\u00e9 Barbastre", "oneway": "yes", "postal_code": "28017", "sidewalk": "both", "surface": "asphalt"}}, {"type": "way", "id": 189956458, "nodes": [101034262, 2005635059], "tags": {"highway": "residential", "lanes": "1", "maxspeed": "40", "name": "Calle de Andr\u00e9s Ant\u00f3n", "oneway": "yes", "postal_code": "28017", "sidewalk": "both", "surface": "asphalt"}}, {"type": "way", "id": 319232797, "nodes": [306528110, 2065668334, 3262170537, 319774857, 3257145265, 3256777183, 306528370, 3256777219, 3201886738, 3201886740, 306528112], "tags": {"highway": "residential", "lanes": "1", "maxspeed": "40", "name": "Calle de San Maximiliano", "oneway": "yes", "postal_code": "28017", "sidewalk": "both", "surface": "asphalt"}}, {"type": "way", "id": 319297690, "nodes": [3257113669, 3262170548, 3257113668], "tags": {"highway": "pedestrian", "name": "Calle de Andr\u00e9s Herranz", "postal_code": "28017", "sidewalk": "no", "surface": "concrete"}}]}