{"version": 0.6, "generator": "Overpass API 0.7.62.5 1bd436f1", "osm3s": {"timestamp_osm_base": "2025-03-23T16:39:44Z", "copyright": "The data included in this document is from www.openstreetmap.org. The data is made available under ODbL."}, "elements": [{"type": "node", "id": 248804781, "lat": 40.3418388, "lon": -3.7090107}, {"type": "node", "id": 306256083, "lat": 40.3419156, "lon": -3.710605, "tags": {"highway": "traffic_signals"}}, {"type": "node", "id": 306256206, "lat": 40.3443022, "lon": -3.7084421}, {"type": "node", "id": 306259089, "lat": 40.3437761, "lon": -3.7086599}, {"type": "node", "id": 306259123, "lat": 40.3425367, "lon": -3.7091752}, {"type": "node", "id": 306259125, "lat": 40.344862, "lon": -3.7082093}, {"type": "node", "id": 306259249, "lat": 40.3418499, "lon": -3.7094641}, {"type": "node", "id": 306259254, "lat": 40.342349, "lon": -3.7104631}, {"type": "node", "id": 306259261, "lat": 40.3422762, "lon": -3.7092849}, {"type": "node", "id": 306259289, "lat": 40.3421585, "lon": -3.7087361}, {"type": "node", "id": 306259301, "lat": 40.343289, "lon": -3.7073174}, {"type": "node", "id": 306259339, "lat": 40.3428524, "lon": -3.707845}, {"type": "node", "id": 306259348, "lat": 40.3430299, "lon": -3.7089695}, {"type": "node", "id": 306259385, "lat": 40.3434828, "lon": -3.708779}, {"type": "node", "id": 457700514, "lat": 40.3422527, "lon": -3.7115537}, {"type": "node", "id": 457701522, "lat": 40.3418871, "lon": -3.708631}, {"type": "node", "id": 1367876451, "lat": 40.3420057, "lon": -3.7093466}, {"type": "node", "id": 1439704240, "lat": 40.3419892, "lon": -3.70852, "tags": {"bench": "yes", "bin": "yes", "bus": "yes", "highway": "bus_stop", "lit": "yes", "name": "Domingo P\u00e1rraga-Real de Pinto", "operator": "EMT Madrid", "public_transport": "platform", "ref": "2851", "shelter": "yes", "source": "https://navegapormadrid.emtmadrid.es/app/", "tactile_paving": "yes"}}, {"type": "node", "id": 3293472356, "lat": 40.3415891, "lon": -3.7093116}, {"type": "node", "id": 3293472358, "lat": 40.3416417, "lon": -3.7106504}, {"type": "node", "id": 3293472361, "lat": 40.3418537, "lon": -3.7106368, "tags": {"crossing": "uncontrolled", "highway": "crossing"}}, {"type": "node", "id": 3293472372, "lat": 40.3422368, "lon": -3.7072758, "tags": {"button_operated": "no", "crossing": "traffic_signals", "crossing:island": "no", "highway": "crossing", "tactile_paving": "yes", "traffic_signals:sound": "yes", "traffic_signals:vibration": "no"}}, {"type": "node", "id": 3293472380, "lat": 40.3430444, "lon": -3.7089634, "tags": {"highway": "give_way"}}, {"type": "node", "id": 3293472381, "lat": 40.3430903, "lon": -3.7089441, "tags": {"crossing": "uncontrolled", "highway": "crossing", "tactile_paving": "yes"}}, {"type": "node", "id": 3293472396, "lat": 40.3448185, "lon": -3.7082282, "tags": {"crossing": "uncontrolled", "highway": "crossing", "tactile_paving": "yes"}}, {"type": "node", "id": 3621303421, "lat": 40.3418625, "lon": -3.7087719, "tags": {"traffic_calming": "bump"}}, {"type": "node", "id": 3621303423, "lat": 40.3419077, "lon": -3.710467, "tags": {"button_operated": "no", "crossing": "traffic_signals", "crossing:island": "no", "highway": "crossing", "tactile_paving": "yes", "traffic_signals:sound": "no", "traffic_signals:vibration": "no"}}, {"type": "node", "id": 3621303434, "lat": 40.3422592, "lon": -3.7114796, "tags": {"crossing": "uncontrolled", "highway": "crossing", "tactile_paving": "yes"}}, {"type": "node", "id": 8346433177, "lat": 40.3420637, "lon": -3.7079489, "tags": {"bus": "yes", "public_transport": "stop_position"}}, {"type": "node", "id": 8346433178, "lat": 40.3419252, "lon": -3.7084922, "tags": {"bus": "yes", "public_transport": "stop_position"}}, {"type": "node", "id": 11224048680, "lat": 40.3418101, "lon": -3.7106359, "tags": {"access": "private", "door": "sliding", "entrance": "yes"}}, {"type": "node", "id": 11768532664, "lat": 40.3423097, "lon": -3.7092334}, {"type": "node", "id": 11768532665, "lat": 40.3423147, "lon": -3.7092687, "tags": {"crossing:markings": "yes", "crossing:signals": "no", "highway": "crossing", "tactile_paving": "yes"}}, {"type": "node", "id": 11768532666, "lat": 40.3423254, "lon": -3.7092905}, {"type": "node", "id": 11768532671, "lat": 40.3420135, "lon": -3.708629}, {"type": "node", "id": 11768532672, "lat": 40.3420062, "lon": -3.7086771, "tags": {"crossing:island": "no", "crossing:markings": "yes", "crossing:signals": "no", "highway": "crossing", "tactile_paving": "yes"}}, {"type": "node", "id": 11768532673, "lat": 40.341999, "lon": -3.7087091}, {"type": "node", "id": 11769874910, "lat": 40.344368, "lon": -3.7084149, "tags": {"crossing:markings": "yes", "crossing:signals": "no", "highway": "crossing", "tactile_paving": "yes"}}, {"type": "node", "id": 11769874917, "lat": 40.3438378, "lon": -3.7086344, "tags": {"crossing:markings": "yes", "crossing:signals": "no", "highway": "crossing", "tactile_paving": "yes"}}, {"type": "node", "id": 11769874956, "lat": 40.342164, "lon": -3.7088122}, {"type": "node", "id": 11769874958, "lat": 40.342174, "lon": -3.7088086, "tags": {"crossing:markings": "yes", "crossing:signals": "no", "highway": "crossing", "tactile_paving": "yes"}}, {"type": "node", "id": 11769874959, "lat": 40.3421973, "lon": -3.7087955}, {"type": "node", "id": 11769874960, "lat": 40.3421845, "lon": -3.7087027, "tags": {"crossing:markings": "yes", "crossing:signals": "no", "highway": "crossing", "tactile_paving": "yes"}}, {"type": "node", "id": 11769874961, "lat": 40.3421646, "lon": -3.7086829}, {"type": "node", "id": 11769874962, "lat": 40.3421997, "lon": -3.7087178}, {"type": "node", "id": 11769874963, "lat": 40.3422432, "lon": -3.7092318}, {"type": "node", "id": 11769874964, "lat": 40.3422621, "lon": -3.7092191, "tags": {"crossing:markings": "yes", "crossing:signals": "no", "highway": "crossing", "tactile_paving": "yes"}}, {"type": "node", "id": 11769874965, "lat": 40.3422783, "lon": -3.7092048}, {"type": "node", "id": 11769874966, "lat": 40.3422529, "lon": -3.709373}, {"type": "node", "id": 11769874967, "lat": 40.3422823, "lon": -3.7093831, "tags": {"crossing:markings": "yes", "crossing:signals": "no", "highway": "crossing", "tactile_paving": "yes"}}, {"type": "node", "id": 11769874968, "lat": 40.3423097, "lon": -3.7093666}, {"type": "node", "id": 11769874974, "lat": 40.3423394, "lon": -3.7105722, "tags": {"crossing:markings": "yes", "crossing:signals": "no", "highway": "crossing", "tactile_paving": "yes"}}, {"type": "way", "id": 27893844, "nodes": [306259125, 3293472396, 11769874910, 306256206, 11769874917, 306259089, 306259385, 3293472381, 3293472380, 306259348, 306259123, 11768532665, 306259261], "tags": {"highway": "residential", "lanes": "1", "maxspeed": "30", "name": "Calle de Gilena", "oneway": "yes", "postal_code": "28021", "surface": "asphalt"}}, {"type": "way", "id": 27893852, "nodes": [457700514, 3621303434, 11769874974, 306259254, 11769874967, 306259261], "tags": {"highway": "residential", "lanes": "1", "maxspeed": "30", "name": "Calle de Carmen Bordiu", "oneway": "yes", "postal_code": "28021", "surface": "asphalt"}}, {"type": "way", "id": 27893854, "nodes": [457701522, 11768532672, 306259289], "tags": {"highway": "residential", "lanes": "2", "lanes:backward": "1", "lanes:forward": "1", "maxspeed": "30", "name": "Plaza G\u00f3mez Acebo", "oneway": "no", "postal_code": "28021", "surface": "asphalt"}}, {"type": "way", "id": 122397195, "nodes": [306259261, 11769874964, 11769874958, 306259289], "tags": {"highway": "residential", "lanes": "1", "maxspeed": "30", "name": "Plaza G\u00f3mez Acebo", "oneway": "yes", "postal_code": "28021", "surface": "asphalt"}}, {"type": "way", "id": 122397295, "nodes": [306259249, 1367876451], "tags": {"highway": "footway", "lane_markings": "no", "name": "Plaza G\u00f3mez Acebo", "surface": "paving_stones"}}, {"type": "way", "id": 122397325, "nodes": [306259289, 11769874960, 306259339, 306259301], "tags": {"highway": "residential", "lanes": "1", "maxspeed": "30", "name": "Callej\u00f3n de G\u00f3mez Acebo", "oneway": "yes", "postal_code": "28021", "surface": "asphalt"}}, {"type": "way", "id": 322574716, "nodes": [3293472356, 3293472358, 11224048680, 3293472361, 306256083], "tags": {"access": "private", "highway": "service", "service": "driveway"}}, {"type": "way", "id": 322575493, "nodes": [457701522, 8346433178, 8346433177, 3293472372], "tags": {"highway": "residential", "lanes": "4", "lanes:backward": "2", "lanes:forward": "2", "maxspeed": "30", "name": "Calle de Domingo P\u00e1rraga", "oneway": "no", "postal_code": "28021", "surface": "asphalt", "turn:lanes:forward": "left|right"}}, {"type": "way", "id": 356719464, "nodes": [306256083, 3621303423, 306259249], "tags": {"highway": "residential", "lanes": "4", "lanes:backward": "2", "lanes:forward": "2", "maxspeed": "30", "name": "Calle de Domingo P\u00e1rraga", "oneway": "no", "postal_code": "28021", "surface": "asphalt", "turn:lanes:backward": "through|through;right"}}, {"type": "way", "id": 356719465, "nodes": [306259249, 248804781, 3621303421, 457701522], "tags": {"highway": "residential", "lanes": "4", "lanes:backward": "2", "lanes:forward": "2", "maxspeed": "30", "name": "Calle de Domingo P\u00e1rraga", "oneway": "no", "postal_code": "28021", "surface": "asphalt"}}, {"type": "way", "id": 356719470, "nodes": [1367876451, 306259261], "tags": {"highway": "residential", "lane_markings": "no", "lanes": "1", "maxspeed": "30", "name": "Plaza G\u00f3mez Acebo", "postal_code": "28021", "surface": "asphalt"}}, {"type": "way", "id": 1267057834, "nodes": [11768532666, 11768532665, 11768532664], "tags": {"footway": "crossing", "highway": "footway", "surface": "asphalt"}}, {"type": "way", "id": 1267057841, "nodes": [11768532673, 11768532672, 11768532671], "tags": {"footway": "crossing", "highway": "footway", "surface": "asphalt"}}, {"type": "way", "id": 1267229951, "nodes": [11769874959, 11769874958, 11769874956], "tags": {"footway": "crossing", "highway": "footway", "surface": "asphalt"}}, {"type": "way", "id": 1267229952, "nodes": [11769874962, 11769874960, 11769874961], "tags": {"footway": "crossing", "highway": "footway", "surface": "asphalt"}}, {"type": "way", "id": 1267229953, "nodes": [11769874965, 11769874964, 11769874963], "tags": {"footway": "crossing", "highway": "footway", "surface": "asphalt"}}, {"type": "way", "id": 1267229954, "nodes": [11769874968, 11769874967, 11769874966], "tags": {"footway": "crossing", "highway": "footway", "surface": "asphalt"}}]}