{"version": 0.6, "generator": "Overpass API 0.7.62.5 1bd436f1", "osm3s": {"timestamp_osm_base": "2025-03-23T15:41:45Z", "copyright": "The data included in this document is from www.openstreetmap.org. The data is made available under ODbL."}, "elements": [{"type": "node", "id": 219356405, "lat": 40.4631696, "lon": -3.6517236}, {"type": "node", "id": 219356413, "lat": 40.4629309, "lon": -3.6491286}, {"type": "node", "id": 219506386, "lat": 40.4618941, "lon": -3.6492638}, {"type": "node", "id": 219507209, "lat": 40.4625062, "lon": -3.6488115}, {"type": "node", "id": 219507213, "lat": 40.4619501, "lon": -3.6502619}, {"type": "node", "id": 219507215, "lat": 40.4618702, "lon": -3.6505722}, {"type": "node", "id": 219508306, "lat": 40.4622029, "lon": -3.6509194}, {"type": "node", "id": 219508308, "lat": 40.4614698, "lon": -3.6501753, "tags": {"highway": "crossing"}}, {"type": "node", "id": 219508309, "lat": 40.4609228, "lon": -3.6499672}, {"type": "node", "id": 353176258, "lat": 40.4616851, "lon": -3.6519788}, {"type": "node", "id": 353176264, "lat": 40.4625782, "lon": -3.6513112}, {"type": "node", "id": 353176277, "lat": 40.4612985, "lon": -3.6516981}, {"type": "node", "id": 353176487, "lat": 40.4628241, "lon": -3.6489992}, {"type": "node", "id": 1489535593, "lat": 40.460756, "lon": -3.6511194}, {"type": "node", "id": 1489535596, "lat": 40.4610043, "lon": -3.6514874}, {"type": "node", "id": 1489535600, "lat": 40.4612722, "lon": -3.650102}, {"type": "node", "id": 1489535607, "lat": 40.4615915, "lon": -3.6503024}, {"type": "node", "id": 1489535615, "lat": 40.4621296, "lon": -3.6489269}, {"type": "node", "id": 1489535616, "lat": 40.4621703, "lon": -3.6508794}, {"type": "node", "id": 1489535619, "lat": 40.4622507, "lon": -3.6488455}, {"type": "node", "id": 1489535620, "lat": 40.4623464, "lon": -3.6488184}, {"type": "node", "id": 3380592195, "lat": 40.4619199, "lon": -3.6497213}, {"type": "node", "id": 3380592209, "lat": 40.4622677, "lon": -3.6497693}, {"type": "node", "id": 5095156664, "lat": 40.4627191, "lon": -3.6489147}, {"type": "node", "id": 5095156666, "lat": 40.4624248, "lon": -3.648805}, {"type": "node", "id": 5095156679, "lat": 40.4626042, "lon": -3.6488494}, {"type": "node", "id": 5095156683, "lat": 40.4626693, "lon": -3.6488864, "tags": {"highway": "crossing"}}, {"type": "node", "id": 5095156712, "lat": 40.4628521, "lon": -3.6490209, "tags": {"crossing:signals": "yes", "highway": "crossing"}}, {"type": "node", "id": 5095156718, "lat": 40.4630276, "lon": -3.6516246, "tags": {"crossing:signals": "no", "highway": "crossing"}}, {"type": "node", "id": 5578580996, "lat": 40.4618273, "lon": -3.6506567, "tags": {"highway": "crossing"}}, {"type": "node", "id": 5578581004, "lat": 40.4618992, "lon": -3.6493538, "tags": {"highway": "crossing"}}, {"type": "node", "id": 5578581005, "lat": 40.4621763, "lon": -3.6508114, "tags": {"highway": "crossing"}}, {"type": "node", "id": 5578581014, "lat": 40.4623416, "lon": -3.6488761, "tags": {"highway": "crossing"}}, {"type": "node", "id": 5578581016, "lat": 40.461896, "lon": -3.6504925, "tags": {"highway": "crossing"}}, {"type": "node", "id": 5578598792, "lat": 40.4612466, "lon": -3.6501524, "tags": {"highway": "crossing"}}, {"type": "node", "id": 5578598794, "lat": 40.4609739, "lon": -3.6499869, "tags": {"highway": "crossing"}}, {"type": "node", "id": 11717497024, "lat": 40.4625288, "lon": -3.6512596, "tags": {"crossing:island": "no", "highway": "crossing", "source": "aerial imagery", "tactile_paving": "yes"}}, {"type": "node", "id": 11717497025, "lat": 40.462097, "lon": -3.6508044, "tags": {"crossing:island": "no", "highway": "crossing", "source": "aerial imagery", "tactile_paving": "yes"}}, {"type": "node", "id": 11717497026, "lat": 40.4621755, "lon": -3.6509755, "tags": {"crossing:island": "no", "highway": "crossing", "source": "aerial imagery"}}, {"type": "node", "id": 11717497028, "lat": 40.461345, "lon": -3.6516064, "tags": {"crossing:island": "no", "highway": "crossing", "source": "aerial imagery"}}, {"type": "node", "id": 11731266803, "lat": 40.4622263, "lon": -3.6502414, "tags": {"highway": "crossing", "source": "aerial imagery"}}, {"type": "node", "id": 12143763094, "lat": 40.462416, "lon": -3.6511418}, {"type": "node", "id": 12311160116, "lat": 40.4619602, "lon": -3.6514161}, {"type": "way", "id": 20506013, "nodes": [219356405, 5095156718, 353176264, 11717497024, 12143763094, 219508306, 1489535616, 11717497025, 219507215, 1489535607, 219508308, 1489535600, 5578598794, 219508309], "tags": {"highway": "residential", "maxspeed": "30", "name": "Calle Matapozuelos", "oneway": "yes", "source:maxspeed": "ES:zone30", "surface": "asphalt"}}, {"type": "way", "id": 135652656, "nodes": [1489535593, 5578598792, 1489535600], "tags": {"highway": "living_street", "motor_vehicle": "no", "name": "Calle Becerril de la Sierra", "surface": "paving_stones"}}, {"type": "way", "id": 135652662, "nodes": [353176258, 12311160116, 11717497026, 219508306], "tags": {"highway": "residential", "maxspeed": "30", "name": "Calle Fresno Viejo", "oneway": "yes", "source:maxspeed": "sign", "surface": "paving_stones"}}, {"type": "way", "id": 135652675, "nodes": [353176277, 11717497028, 5578580996, 219507215], "tags": {"highway": "residential", "maxspeed": "30", "name": "Calle R\u00edo Esgueva", "oneway": "yes", "source:maxspeed": "sign", "surface": "asphalt"}}, {"type": "way", "id": 135652679, "nodes": [1489535596, 1489535607], "tags": {"highway": "living_street", "motor_vehicle": "no", "name": "Calle Tudela de Duero", "surface": "paving_stones"}}, {"type": "way", "id": 135652698, "nodes": [1489535616, 5578581005, 11731266803, 3380592209, 5578581014, 1489535620], "tags": {"highway": "residential", "maxspeed": "30", "name": "Calle de Castromonte", "oneway": "yes", "source:maxspeed": "sign", "surface": "asphalt"}}, {"type": "way", "id": 135652723, "nodes": [219507215, 5578581016, 219507213, 3380592195, 5578581004, 219506386, 1489535615, 1489535619, 1489535620, 5095156666, 219507209, 5095156679, 5095156683, 5095156664, 353176487, 5095156712, 219356413], "tags": {"highway": "residential", "maxspeed": "30", "name": "Calle de Boecillo", "oneway": "yes", "source:maxspeed": "sign"}}]}