{"version": 0.6, "generator": "Overpass API 0.7.62.5 1bd436f1", "osm3s": {"timestamp_osm_base": "2025-03-23T15:23:16Z", "copyright": "The data included in this document is from www.openstreetmap.org. The data is made available under ODbL."}, "elements": [{"type": "node", "id": 25935523, "lat": 40.4306489, "lon": -3.7163298}, {"type": "node", "id": 25935524, "lat": 40.4305519, "lon": -3.7162708}, {"type": "node", "id": 25935531, "lat": 40.4316681, "lon": -3.717063}, {"type": "node", "id": 55138197, "lat": 40.4323222, "lon": -3.7175377}, {"type": "node", "id": 55161040, "lat": 40.4325245, "lon": -3.7191775}, {"type": "node", "id": 55161051, "lat": 40.4271531, "lon": -3.7148919}, {"type": "node", "id": 55161055, "lat": 40.4277862, "lon": -3.7154109}, {"type": "node", "id": 55161059, "lat": 40.4273542, "lon": -3.7161126}, {"type": "node", "id": 55161082, "lat": 40.4281253, "lon": -3.7168093}, {"type": "node", "id": 55161088, "lat": 40.4284856, "lon": -3.7159749}, {"type": "node", "id": 55161091, "lat": 40.4293142, "lon": -3.7166476}, {"type": "node", "id": 55161094, "lat": 40.4289351, "lon": -3.7175179}, {"type": "node", "id": 55161130, "lat": 40.4299035, "lon": -3.7183351, "tags": {"highway": "traffic_signals", "traffic_signals:sound": "yes"}}, {"type": "node", "id": 55161135, "lat": 40.4302182, "lon": -3.7173652, "tags": {"crossing": "no", "highway": "traffic_signals"}}, {"type": "node", "id": 55161145, "lat": 40.4299848, "lon": -3.7184152, "tags": {"highway": "traffic_signals", "traffic_signals:sound": "yes"}}, {"type": "node", "id": 55161154, "lat": 40.4296533, "lon": -3.7194384}, {"type": "node", "id": 55161167, "lat": 40.4293494, "lon": -3.720405, "tags": {"highway": "traffic_signals", "traffic_signals": "signal"}}, {"type": "node", "id": 55161170, "lat": 40.4311908, "lon": -3.7181387}, {"type": "node", "id": 55161174, "lat": 40.4318494, "lon": -3.7186516}, {"type": "node", "id": 622204580, "lat": 40.4306087, "lon": -3.716495, "tags": {"button_operated": "no", "crossing": "traffic_signals", "crossing:markings": "dots", "highway": "traffic_signals", "tactile_paving": "yes", "traffic_signals:sound": "yes", "traffic_signals:vibration": "no"}}, {"type": "node", "id": 622204581, "lat": 40.4305213, "lon": -3.7164404, "tags": {"button_operated": "no", "crossing": "traffic_signals", "crossing:markings": "dots", "highway": "traffic_signals", "tactile_paving": "yes", "traffic_signals:sound": "yes", "traffic_signals:vibration": "no"}}, {"type": "node", "id": 622204587, "lat": 40.4307992, "lon": -3.7164323, "tags": {"button_operated": "no", "crossing": "traffic_signals", "crossing:markings": "dots", "highway": "traffic_signals", "tactile_paving": "yes", "traffic_signals:sound": "yes", "traffic_signals:vibration": "no"}}, {"type": "node", "id": 929294336, "lat": 40.4319681, "lon": -3.7172774, "tags": {"button_operated": "no", "crossing": "traffic_signals", "crossing:markings": "dots", "highway": "crossing", "tactile_paving": "yes", "traffic_signals:sound": "yes", "traffic_signals:vibration": "no"}}, {"type": "node", "id": 1378696877, "lat": 40.4314295, "lon": -3.71689, "tags": {"button_operated": "no", "crossing": "traffic_signals", "crossing:markings": "dots", "highway": "traffic_signals", "tactile_paving": "yes", "traffic_signals:sound": "yes", "traffic_signals:vibration": "no"}}, {"type": "node", "id": 1378696878, "lat": 40.4315932, "lon": -3.7171698, "tags": {"button_operated": "no", "crossing": "traffic_signals", "highway": "crossing", "kerb": "lowered", "tactile_paving": "yes", "traffic_signals:sound": "yes", "traffic_signals:vibration": "no"}}, {"type": "node", "id": 1378696879, "lat": 40.4318636, "lon": -3.7172019}, {"type": "node", "id": 3471276061, "lat": 40.4302438, "lon": -3.7175947}, {"type": "node", "id": 3471365921, "lat": 40.4293948, "lon": -3.7202552, "tags": {"crossing": "traffic_signals", "highway": "crossing"}}, {"type": "node", "id": 3927556255, "lat": 40.4303661, "lon": -3.7174964, "tags": {"crossing": "uncontrolled", "highway": "crossing"}}, {"type": "node", "id": 3927556766, "lat": 40.4311475, "lon": -3.718105, "tags": {"crossing": "uncontrolled", "highway": "crossing"}}, {"type": "node", "id": 3927556768, "lat": 40.4312286, "lon": -3.7181682, "tags": {"highway": "give_way"}}, {"type": "node", "id": 3927556769, "lat": 40.4312556, "lon": -3.7181892, "tags": {"crossing": "uncontrolled", "highway": "crossing"}}, {"type": "node", "id": 3927556773, "lat": 40.4317953, "lon": -3.7186095, "tags": {"crossing": "zebra", "highway": "crossing", "tactile_paving": "yes"}}, {"type": "node", "id": 3927556775, "lat": 40.4319018, "lon": -3.7186925, "tags": {"crossing": "zebra", "highway": "crossing", "tactile_paving": "yes"}}, {"type": "node", "id": 4110020856, "lat": 40.4303215, "lon": -3.7161973}, {"type": "node", "id": 4203412903, "lat": 40.430173, "lon": -3.7173339, "tags": {"crossing": "traffic_signals", "highway": "crossing"}}, {"type": "node", "id": 4203412904, "lat": 40.4304715, "lon": -3.7164114}, {"type": "node", "id": 4203412905, "lat": 40.4304981, "lon": -3.7163289}, {"type": "node", "id": 4245283126, "lat": 40.4298505, "lon": -3.7182875, "tags": {"crossing": "traffic_signals", "highway": "crossing"}}, {"type": "node", "id": 4245283127, "lat": 40.4298951, "lon": -3.7182184}, {"type": "node", "id": 4324546709, "lat": 40.4318801, "lon": -3.7186755, "tags": {"highway": "give_way"}}, {"type": "node", "id": 4437657599, "lat": 40.4292663, "lon": -3.7166065, "tags": {"highway": "crossing"}}, {"type": "node", "id": 4457193354, "lat": 40.4307656, "lon": -3.7165296}, {"type": "node", "id": 4757946968, "lat": 40.4324515, "lon": -3.7191206, "tags": {"crossing": "uncontrolled", "highway": "crossing", "tactile_paving": "yes"}}, {"type": "node", "id": 5273347273, "lat": 40.4300001, "lon": -3.7171193}, {"type": "node", "id": 5273347274, "lat": 40.4301944, "lon": -3.7172742}, {"type": "node", "id": 5273350504, "lat": 40.4301614, "lon": -3.7173741}, {"type": "node", "id": 5273358099, "lat": 40.4302969, "lon": -3.7174425, "tags": {"crossing": "no", "highway": "traffic_signals"}}, {"type": "node", "id": 5273361954, "lat": 40.4303307, "lon": -3.717339, "tags": {"crossing": "traffic_signals", "highway": "crossing"}}, {"type": "node", "id": 5273361955, "lat": 40.4302416, "lon": -3.7172968, "tags": {"crossing": "traffic_signals", "highway": "crossing"}}, {"type": "node", "id": 5385241359, "lat": 40.4320374, "lon": -3.7173281, "tags": {"bus": "yes", "public_transport": "stop_position"}}, {"type": "node", "id": 8447103715, "lat": 40.429575, "lon": -3.7197, "tags": {"bus": "yes", "public_transport": "stop_position"}}, {"type": "node", "id": 8646829050, "lat": 40.4293644, "lon": -3.7166877, "tags": {"crossing": "zebra", "highway": "crossing"}}, {"type": "node", "id": 11237949945, "lat": 40.4284176, "lon": -3.7159132, "tags": {"crossing": "traffic_signals", "crossing:markings": "zebra", "highway": "crossing", "tactile_paving": "yes"}}, {"type": "node", "id": 11830386745, "lat": 40.4309838, "lon": -3.7166757}, {"type": "node", "id": 11830386746, "lat": 40.4315526, "lon": -3.7171091}, {"type": "node", "id": 11830386747, "lat": 40.4315721, "lon": -3.7171312}, {"type": "node", "id": 11830386753, "lat": 40.4313906, "lon": -3.7169856}, {"type": "node", "id": 12400147466, "lat": 40.4285539, "lon": -3.7160332}, {"type": "node", "id": 12400374736, "lat": 40.4305428, "lon": -3.7163215}, {"type": "node", "id": 12400374737, "lat": 40.4306378, "lon": -3.7163755}, {"type": "way", "id": 7593908, "nodes": [25935523, 12400374737, 622204580, 5273361954, 5273358099, 3471276061, 55161145, 55161154, 8447103715, 3471365921, 55161167], "tags": {"access:lanes": "yes|no", "bicycle:lanes": "yes|no", "bus:lanes": "yes|designated", "cycleway:lanes": "shared_lane|none", "highway": "primary", "lanes": "2", "lit": "yes", "maxspeed": "30", "motorcycle:lanes": "yes|yes", "name": "Calle del Marqu\u00e9s de Urquijo", "name:etymology:wikidata": "Q8843105", "oneway": "yes", "postal_code": "28008", "sidewalk": "right", "surface": "asphalt", "taxi:lanes": "yes|designated"}}, {"type": "way", "id": 7604160, "nodes": [55161040, 4757946968, 3927556775, 4324546709, 55161174, 3927556773, 3927556769, 3927556768, 55161170, 3927556766, 3927556255, 5273358099], "tags": {"highway": "residential", "lit": "yes", "maxspeed": "50", "name": "Calle de Tutor", "oneway": "yes", "postal_code": "28008", "sidewalk": "both", "surface": "asphalt"}}, {"type": "way", "id": 31768975, "nodes": [55161051, 55161055, 11237949945, 55161088, 12400147466, 4437657599, 55161091, 8646829050, 4203412903, 55161135], "tags": {"highway": "residential", "lanes": "1", "lit": "yes", "maxspeed": "30", "name": "Calle de Tutor", "oneway": "yes", "postal_code": "28008", "sidewalk": "both", "surface": "asphalt"}}, {"type": "way", "id": 65279237, "nodes": [55161130, 55161135], "tags": {"access:lanes": "yes|yes|no|no", "bicycle:lanes": "yes|yes|designated|no", "bus:lanes": "yes|yes|no|designated", "cycleway:lanes": "none|none|lane|none", "highway": "primary", "lanes": "4", "lit": "yes", "maxspeed": "50", "motorcycle:lanes": "yes|yes|no|yes", "name": "Calle del Marqu\u00e9s de Urquijo", "name:etymology:wikidata": "Q8843105", "oneway": "yes", "postal_code": "28008", "sidewalk": "right", "surface": "asphalt", "taxi:lanes": "yes|yes|no|designated"}}, {"type": "way", "id": 339929109, "nodes": [55138197, 5385241359, 929294336, 1378696879, 25935531, 1378696877, 622204587, 25935523], "tags": {"bicycle:lanes": "no|designated|no", "cycleway:lanes": "no|shared_lane|no", "highway": "primary", "lanes": "3", "lit": "yes", "maxspeed": "50", "maxspeed:lanes": "50|30|50", "name": "Calle de la Princesa", "name:etymology:wikidata": "Q5740935", "oneway": "yes", "parking:both": "no", "postal_code": "28008", "psv:lanes": "yes|yes|designated", "sidewalk": "right", "source:name": "common knowledge", "surface": "asphalt", "vehicle:lanes": "yes|yes|no"}}, {"type": "way", "id": 420411056, "nodes": [4245283126, 4245283127, 5273350504], "tags": {"footway": "sidewalk", "highway": "footway", "lit": "yes", "surface": "paving_stones"}}, {"type": "way", "id": 431525591, "nodes": [55161059, 55161082, 55161094, 4245283126, 55161130], "tags": {"cycleway": "shared_lane", "highway": "residential", "lanes": "1", "lit": "yes", "maxspeed": "30", "name": "Calle de Mart\u00edn de los Heros", "name:etymology:wikidata": "Q9029845", "oneway": "yes", "postal_code": "28008", "sidewalk": "both", "surface": "asphalt"}}, {"type": "way", "id": 545642109, "nodes": [5273347273, 5273347274], "tags": {"footway": "sidewalk", "highway": "footway", "lit": "yes", "surface": "paving_stones"}}, {"type": "way", "id": 545642434, "nodes": [5273350504, 4203412903, 5273347274], "tags": {"crossing": "traffic_signals", "footway": "crossing", "highway": "footway", "lit": "yes", "surface": "asphalt"}}, {"type": "way", "id": 545642435, "nodes": [5273347274, 4203412904, 4203412905, 4110020856], "tags": {"footway": "sidewalk", "highway": "footway", "lit": "yes", "surface": "paving_stones"}}, {"type": "way", "id": 545643691, "nodes": [5273361954, 5273361955, 5273347274], "tags": {"crossing": "traffic_signals", "footway": "crossing", "highway": "footway", "lit": "yes", "surface": "asphalt"}}, {"type": "way", "id": 604682696, "nodes": [55161135, 5273358099], "tags": {"highway": "residential", "lanes": "1", "lit": "yes", "maxspeed": "30", "name": "Calle de Tutor", "oneway": "yes", "postal_code": "28008", "sidewalk": "both", "surface": "asphalt"}}, {"type": "way", "id": 604682697, "nodes": [55161135, 5273361955, 622204581, 12400374736, 25935524], "tags": {"access:lanes": "yes|yes|no", "bicycle:lanes": "yes|yes|no", "bus:lanes": "yes|yes|designated", "cycleway:lanes": "none|shared_lane|none", "highway": "primary", "lanes": "3", "lit": "yes", "maxspeed": "50", "maxspeed:lanes": "50|30|50", "motorcycle:lanes": "yes|yes|yes", "name": "Calle del Marqu\u00e9s de Urquijo", "name:etymology:wikidata": "Q8843105", "oneway": "yes", "postal_code": "28008", "sidewalk": "separate", "surface": "asphalt", "taxi:lanes": "yes|yes|designated"}}, {"type": "way", "id": 1274075581, "nodes": [4457193354, 11830386745, 11830386753, 11830386746, 11830386747, 1378696878], "tags": {"footway": "sidewalk", "highway": "footway", "lit": "yes", "smoothness": "excellent", "surface": "paving_stones"}}]}