{"version": 0.6, "generator": "Overpass API 0.7.62.5 1bd436f1", "osm3s": {"timestamp_osm_base": "2025-03-23T13:48:30Z", "copyright": "The data included in this document is from www.openstreetmap.org. The data is made available under ODbL."}, "elements": [{"type": "node", "id": 248791604, "lat": 40.3553354, "lon": -3.7008816}, {"type": "node", "id": 248792040, "lat": 40.3569168, "lon": -3.700078, "tags": {"highway": "crossing"}}, {"type": "node", "id": 248792224, "lat": 40.3585236, "lon": -3.6994587}, {"type": "node", "id": 248792225, "lat": 40.3584889, "lon": -3.6993592, "tags": {"crossing": "marked", "crossing:markings": "yes", "highway": "crossing"}}, {"type": "node", "id": 248842147, "lat": 40.3548564, "lon": -3.6990247}, {"type": "node", "id": 315056723, "lat": 40.3539388, "lon": -3.7014778}, {"type": "node", "id": 315057013, "lat": 40.3551004, "lon": -3.69996, "tags": {"crossing": "uncontrolled", "highway": "crossing"}}, {"type": "node", "id": 315057297, "lat": 40.3549686, "lon": -3.6994545}, {"type": "node", "id": 315057303, "lat": 40.3561464, "lon": -3.6997132}, {"type": "node", "id": 401256601, "lat": 40.3563269, "lon": -3.7004061, "tags": {"highway": "crossing"}}, {"type": "node", "id": 401883745, "lat": 40.3601434, "lon": -3.6986083}, {"type": "node", "id": 522444831, "lat": 40.3525005, "lon": -3.7021259}, {"type": "node", "id": 577497536, "lat": 40.3601711, "lon": -3.6987133}, {"type": "node", "id": 1981781041, "lat": 40.3521167, "lon": -3.7023}, {"type": "node", "id": 1981781049, "lat": 40.3537196, "lon": -3.7015758}, {"type": "node", "id": 1981781065, "lat": 40.3557145, "lon": -3.7023671}, {"type": "node", "id": 1981781068, "lat": 40.3559995, "lon": -3.7034529}, {"type": "node", "id": 1981781071, "lat": 40.3561977, "lon": -3.7041843}, {"type": "node", "id": 3370152288, "lat": 40.3559648, "lon": -3.6990159}, {"type": "node", "id": 3370756597, "lat": 40.3554416, "lon": -3.700808, "tags": {"highway": "crossing"}}, {"type": "node", "id": 3376456194, "lat": 40.3562952, "lon": -3.7004212}, {"type": "node", "id": 3376456195, "lat": 40.3563615, "lon": -3.7003329}, {"type": "node", "id": 3377859781, "lat": 40.3546994, "lon": -3.7011398}, {"type": "node", "id": 3377860603, "lat": 40.3550579, "lon": -3.699981}, {"type": "node", "id": 3377860614, "lat": 40.3551333, "lon": -3.6998881}, {"type": "node", "id": 3377860615, "lat": 40.3551366, "lon": -3.6998645}, {"type": "node", "id": 3377860616, "lat": 40.3551471, "lon": -3.69994}, {"type": "node", "id": 3377860618, "lat": 40.3551848, "lon": -3.7000839}, {"type": "node", "id": 3377860620, "lat": 40.3551956, "lon": -3.7000891}, {"type": "node", "id": 3377860621, "lat": 40.355197, "lon": -3.7009187, "tags": {"crossing": "uncontrolled", "highway": "crossing"}}, {"type": "node", "id": 3377860622, "lat": 40.3552761, "lon": -3.7007994, "tags": {"highway": "crossing"}}, {"type": "node", "id": 3377860623, "lat": 40.3553153, "lon": -3.7007838, "tags": {"crossing": "uncontrolled", "crossing:markings": "yes", "crossing:signals": "no", "highway": "crossing"}}, {"type": "node", "id": 3377860626, "lat": 40.3553655, "lon": -3.7007638}, {"type": "node", "id": 3377860627, "lat": 40.3553828, "lon": -3.7008062}, {"type": "node", "id": 3377860628, "lat": 40.3554354, "lon": -3.7007834}, {"type": "node", "id": 3377860629, "lat": 40.3554526, "lon": -3.7008502, "tags": {"crossing": "uncontrolled", "crossing:markings": "yes", "crossing:signals": "no", "highway": "crossing"}}, {"type": "node", "id": 3377860630, "lat": 40.3563051, "lon": -3.7003248}, {"type": "node", "id": 3377860631, "lat": 40.3563203, "lon": -3.7003813}, {"type": "node", "id": 3377860633, "lat": 40.3568538, "lon": -3.7000762}, {"type": "node", "id": 3381172105, "lat": 40.3548842, "lon": -3.6991313}, {"type": "node", "id": 3381172109, "lat": 40.3550716, "lon": -3.699855}, {"type": "node", "id": 3381172111, "lat": 40.3559719, "lon": -3.6990433}, {"type": "node", "id": 3381172112, "lat": 40.3559888, "lon": -3.6991081}, {"type": "node", "id": 3381172114, "lat": 40.3560056, "lon": -3.6991727}, {"type": "node", "id": 3381172119, "lat": 40.3561283, "lon": -3.6996436}, {"type": "node", "id": 3381172123, "lat": 40.3561647, "lon": -3.6997835}, {"type": "node", "id": 3381172129, "lat": 40.3561957, "lon": -3.6999038}, {"type": "node", "id": 3381172133, "lat": 40.3562177, "lon": -3.6999869}, {"type": "node", "id": 3381172135, "lat": 40.3562274, "lon": -3.700024}, {"type": "node", "id": 3381172146, "lat": 40.3562887, "lon": -3.6998618}, {"type": "node", "id": 3381172153, "lat": 40.3563107, "lon": -3.6999458}, {"type": "node", "id": 3381172157, "lat": 40.3563194, "lon": -3.6998488}, {"type": "node", "id": 3381172160, "lat": 40.3563277, "lon": -3.6999383}, {"type": "node", "id": 3381172162, "lat": 40.3563371, "lon": -3.699975}, {"type": "node", "id": 3381172163, "lat": 40.356341, "lon": -3.6999324}, {"type": "node", "id": 3381172174, "lat": 40.3564588, "lon": -3.6997868}, {"type": "node", "id": 3381172180, "lat": 40.3564804, "lon": -3.6998706}, {"type": "node", "id": 3381172187, "lat": 40.3564985, "lon": -3.6998626}, {"type": "node", "id": 3381172190, "lat": 40.3565078, "lon": -3.6998989}, {"type": "node", "id": 3381172191, "lat": 40.3565128, "lon": -3.6998563}, {"type": "node", "id": 3381172313, "lat": 40.3566672, "lon": -3.6997879}, {"type": "node", "id": 3381172315, "lat": 40.3566765, "lon": -3.6998236}, {"type": "node", "id": 3381172330, "lat": 40.3567679, "lon": -3.6997434}, {"type": "node", "id": 3381172331, "lat": 40.3567774, "lon": -3.6997798}, {"type": "node", "id": 3384377981, "lat": 40.356349, "lon": -3.7003948}, {"type": "node", "id": 3387653738, "lat": 40.3515378, "lon": -3.7025625}, {"type": "node", "id": 3387653981, "lat": 40.3532769, "lon": -3.7017756}, {"type": "node", "id": 3387653995, "lat": 40.3546796, "lon": -3.7010603}, {"type": "node", "id": 3387653996, "lat": 40.3551752, "lon": -3.7008426}, {"type": "node", "id": 3389409319, "lat": 40.3517047, "lon": -3.7024868}, {"type": "node", "id": 3389409707, "lat": 40.3544095, "lon": -3.7011811}, {"type": "node", "id": 3389409714, "lat": 40.354588, "lon": -3.7011044}, {"type": "node", "id": 3390956095, "lat": 40.3540672, "lon": -3.7013355}, {"type": "node", "id": 3390956096, "lat": 40.3542347, "lon": -3.7012619}, {"type": "node", "id": 3392529813, "lat": 40.3550346, "lon": -3.699992, "tags": {"highway": "crossing"}}, {"type": "node", "id": 3392529818, "lat": 40.3552577, "lon": -3.7008067, "tags": {"highway": "crossing"}}, {"type": "node", "id": 3891884031, "lat": 40.3569264, "lon": -3.7001844}, {"type": "node", "id": 3891884032, "lat": 40.3569461, "lon": -3.7001756}, {"type": "node", "id": 3895140600, "lat": 40.3560285, "lon": -3.703566, "tags": {"crossing": "uncontrolled", "highway": "crossing"}}, {"type": "node", "id": 3898493580, "lat": 40.3550758, "lon": -3.700886}, {"type": "node", "id": 3898493586, "lat": 40.3552281, "lon": -3.701022}, {"type": "node", "id": 3898493587, "lat": 40.3553828, "lon": -3.7011128}, {"type": "node", "id": 3898493588, "lat": 40.3554706, "lon": -3.7009236}, {"type": "node", "id": 3898493604, "lat": 40.3583134, "lon": -3.6994455}, {"type": "node", "id": 3902981363, "lat": 40.3552606, "lon": -3.7010068}, {"type": "node", "id": 3902981365, "lat": 40.3552807, "lon": -3.7010805}, {"type": "node", "id": 3902981374, "lat": 40.355368, "lon": -3.7010408, "tags": {"bicycle": "yes", "crossing": "uncontrolled", "highway": "crossing"}}, {"type": "node", "id": 3902981379, "lat": 40.3554365, "lon": -3.700939}, {"type": "node", "id": 3902981382, "lat": 40.355453, "lon": -3.7010021}, {"type": "node", "id": 3902981388, "lat": 40.3555858, "lon": -3.7022443}, {"type": "node", "id": 3902981396, "lat": 40.3556716, "lon": -3.7022047, "tags": {"bicycle": "yes", "crossing": "uncontrolled", "highway": "crossing"}}, {"type": "node", "id": 3902981399, "lat": 40.355681, "lon": -3.7022455}, {"type": "node", "id": 3902981400, "lat": 40.3556841, "lon": -3.7018838}, {"type": "node", "id": 3902981412, "lat": 40.3557485, "lon": -3.7024968}, {"type": "node", "id": 3902981414, "lat": 40.3557572, "lon": -3.7025301, "tags": {"bicycle": "yes", "crossing": "uncontrolled", "highway": "crossing"}}, {"type": "node", "id": 3902981415, "lat": 40.3557578, "lon": -3.7021648}, {"type": "node", "id": 3902981417, "lat": 40.3557698, "lon": -3.7022107}, {"type": "node", "id": 3902981567, "lat": 40.3559668, "lon": -3.7033306, "tags": {"crossing": "uncontrolled", "highway": "crossing"}}, {"type": "node", "id": 3902981608, "lat": 40.3561396, "lon": -3.7039849, "tags": {"crossing": "traffic_signals", "crossing:markings": "yes", "crossing:signals": "yes", "highway": "crossing"}}, {"type": "node", "id": 3902981821, "lat": 40.3568599, "lon": -3.7002948}, {"type": "node", "id": 3909236312, "lat": 40.3522495, "lon": -3.7022398, "tags": {"crossing": "uncontrolled", "highway": "crossing"}}, {"type": "node", "id": 3912611671, "lat": 40.3546205, "lon": -3.7001885}, {"type": "node", "id": 3912611672, "lat": 40.3546236, "lon": -3.7001987, "tags": {"barrier": "entrance", "bicycle": "yes", "foot": "yes"}}, {"type": "node", "id": 3912611673, "lat": 40.3546674, "lon": -3.700342}, {"type": "node", "id": 3912611674, "lat": 40.3546731, "lon": -3.7005326}, {"type": "node", "id": 3912611675, "lat": 40.3550944, "lon": -3.7005353}, {"type": "node", "id": 3912611676, "lat": 40.3551377, "lon": -3.7008773, "tags": {"highway": "street_lamp"}}, {"type": "node", "id": 3912611677, "lat": 40.3551445, "lon": -3.700942, "tags": {"traffic_calming": "hump"}}, {"type": "node", "id": 3912611678, "lat": 40.3551625, "lon": -3.7007942, "tags": {"barrier": "entrance", "bicycle": "yes", "foot": "yes"}}, {"type": "node", "id": 3912611679, "lat": 40.3551941, "lon": -3.7009972, "tags": {"highway": "street_lamp"}}, {"type": "node", "id": 3912611680, "lat": 40.3553231, "lon": -3.7010307, "tags": {"highway": "street_lamp"}}, {"type": "node", "id": 3912611681, "lat": 40.355376, "lon": -3.700822, "tags": {"highway": "street_lamp"}}, {"type": "node", "id": 3912611682, "lat": 40.3553939, "lon": -3.7009989, "tags": {"highway": "street_lamp"}}, {"type": "node", "id": 3912611684, "lat": 40.3554745, "lon": -3.7008785, "tags": {"highway": "street_lamp"}}, {"type": "node", "id": 3912611686, "lat": 40.3555567, "lon": -3.7007427, "tags": {"highway": "street_lamp"}}, {"type": "node", "id": 3912611689, "lat": 40.3557304, "lon": -3.7007587, "tags": {"highway": "street_lamp"}}, {"type": "node", "id": 3912611690, "lat": 40.3557359, "lon": -3.7006605, "tags": {"highway": "street_lamp"}}, {"type": "node", "id": 3912611694, "lat": 40.3559566, "lon": -3.7005592, "tags": {"highway": "street_lamp"}}, {"type": "node", "id": 3912611696, "lat": 40.3559985, "lon": -3.700644, "tags": {"highway": "street_lamp"}}, {"type": "node", "id": 3912611699, "lat": 40.3561475, "lon": -3.7004722, "tags": {"highway": "street_lamp"}}, {"type": "node", "id": 3912611702, "lat": 40.3562633, "lon": -3.7005232, "tags": {"highway": "street_lamp"}}, {"type": "node", "id": 3912611704, "lat": 40.3563505, "lon": -3.700352, "tags": {"highway": "street_lamp"}}, {"type": "node", "id": 3912611723, "lat": 40.3568088, "lon": -3.7000966}, {"type": "node", "id": 3912611724, "lat": 40.3568159, "lon": -3.700124, "tags": {"highway": "crossing"}}, {"type": "node", "id": 3912611725, "lat": 40.3568413, "lon": -3.7002228, "tags": {"crossing": "uncontrolled", "crossing:markings": "yes", "crossing:signals": "no", "highway": "crossing"}}, {"type": "node", "id": 3914657226, "lat": 40.3553739, "lon": -3.7013534, "tags": {"highway": "street_lamp"}}, {"type": "node", "id": 3914657241, "lat": 40.355518, "lon": -3.7012721, "tags": {"highway": "street_lamp"}}, {"type": "node", "id": 3914657255, "lat": 40.3555975, "lon": -3.702289}, {"type": "node", "id": 3916514712, "lat": 40.3535966, "lon": -3.7016299, "tags": {"crossing": "uncontrolled", "highway": "crossing"}}, {"type": "node", "id": 3916514738, "lat": 40.3538368, "lon": -3.7016425}, {"type": "node", "id": 3916514763, "lat": 40.3539671, "lon": -3.7013801}, {"type": "node", "id": 3918640593, "lat": 40.3555198, "lon": -3.7008198, "tags": {"traffic_calming": "bump"}}, {"type": "node", "id": 3918640643, "lat": 40.3584127, "lon": -3.6993967, "tags": {"highway": "crossing"}}, {"type": "node", "id": 3918640645, "lat": 40.3584395, "lon": -3.6994969, "tags": {"highway": "crossing"}}, {"type": "node", "id": 11771180499, "lat": 40.3539412, "lon": -3.7013927}, {"type": "node", "id": 12216655346, "lat": 40.3584383, "lon": -3.6993841, "tags": {"highway": "crossing"}}, {"type": "node", "id": 12216655347, "lat": 40.3583473, "lon": -3.6994288, "tags": {"highway": "crossing"}}, {"type": "node", "id": 12216655348, "lat": 40.3580614, "lon": -3.6995596, "tags": {"highway": "crossing"}}, {"type": "node", "id": 12216655349, "lat": 40.3577468, "lon": -3.6997021, "tags": {"highway": "crossing"}}, {"type": "node", "id": 12216655350, "lat": 40.3584626, "lon": -3.6993721, "tags": {"highway": "crossing"}}, {"type": "node", "id": 12216655351, "lat": 40.3571218, "lon": -3.6999851, "tags": {"highway": "crossing"}}, {"type": "node", "id": 12216655352, "lat": 40.3569393, "lon": -3.7000678, "tags": {"highway": "crossing"}}, {"type": "node", "id": 12216655353, "lat": 40.3574318, "lon": -3.6998447, "tags": {"highway": "crossing"}}, {"type": "node", "id": 12216655354, "lat": 40.3569588, "lon": -3.700059, "tags": {"highway": "crossing"}}, {"type": "node", "id": 12231725538, "lat": 40.3561612, "lon": -3.704059}, {"type": "way", "id": 23056373, "nodes": [577497536, 248792224, 3918640645, 3891884032, 3891884031, 3912611725, 3918640593, 3377860629], "tags": {"highway": "residential", "lanes": "2", "name": "Calle de La Canci\u00f3n del Olvido", "postal_code": "28041"}}, {"type": "way", "id": 28668192, "nodes": [3377860616, 315057013, 3377860603], "tags": {"footway": "crossing", "highway": "footway"}}, {"type": "way", "id": 28668248, "nodes": [3370152288, 3381172111, 3381172112, 3381172114, 3381172119, 315057303, 3381172123, 3381172129, 3381172133, 3381172135, 3377860630], "tags": {"highway": "footway", "name": "Calle de Do\u00f1a Francisquita", "width": "6"}}, {"type": "way", "id": 32479171, "nodes": [3377860621, 3912611677, 3377859781, 315056723, 1981781049, 3916514712, 3387653981, 522444831, 3909236312, 1981781041, 3389409319, 3387653738], "tags": {"highway": "residential", "lanes": "2", "name": "Calle de la Hermandad de Donantes de Sangre", "postal_code": "28041"}}, {"type": "way", "id": 187504015, "nodes": [1981781071, 12231725538, 3902981608, 3895140600, 1981781068, 3902981567, 3902981414, 3902981412, 1981781065, 3902981399, 3902981396, 3898493587, 3902981374, 248791604], "tags": {"highway": "residential", "lanes": "2", "name": "Calle de El Caser\u00edo", "postal_code": "28041"}}, {"type": "way", "id": 330785435, "nodes": [3377860622, 3377860603], "tags": {"footway": "sidewalk", "highway": "footway", "lit": "yes", "surface": "paving_stones", "width": "4.5"}}, {"type": "way", "id": 330785436, "nodes": [3377860631, 3377860628], "tags": {"footway": "sidewalk", "highway": "footway", "lit": "yes", "surface": "paved", "width": "3.5"}}, {"type": "way", "id": 330785437, "nodes": [3377860633, 3912611723, 3377860630], "tags": {"footway": "sidewalk", "highway": "footway", "lit": "yes", "surface": "paved", "width": "3.5"}}, {"type": "way", "id": 330785440, "nodes": [3377860626, 3377860620], "tags": {"footway": "sidewalk", "highway": "footway", "lit": "yes", "surface": "paving_stones", "width": "2.2"}}, {"type": "way", "id": 330785447, "nodes": [3898493588, 3377860629, 3370756597], "tags": {"crossing": "uncontrolled", "crossing:markings": "yes", "crossing:signals": "no", "footway": "crossing", "highway": "footway", "lit": "yes", "surface": "paved", "width": "2"}}, {"type": "way", "id": 330785452, "nodes": [3377860620, 3377860618, 3377860616, 3377860614, 3377860615], "tags": {"footway": "sidewalk", "highway": "footway", "lit": "yes", "surface": "paved", "width": "4.5"}}, {"type": "way", "id": 330785453, "nodes": [3377860628, 3377860627, 3377860626], "tags": {"bicycle": "yes", "highway": "footway", "lit": "yes", "surface": "paved", "width": "3.5"}}, {"type": "way", "id": 330785455, "nodes": [401883745, 248792225, 12216655350, 12216655346, 3918640643, 12216655347, 3898493604, 12216655348, 12216655349, 12216655353, 12216655351, 12216655354, 12216655352, 248792040, 3912611724, 3376456195, 3384377981, 401256601, 3376456194, 3370756597], "tags": {"cycleway": "segregated", "highway": "cycleway", "oneway": "yes"}}, {"type": "way", "id": 331074784, "nodes": [3381172160, 3381172162], "tags": {"highway": "footway", "lit": "yes", "surface": "paved"}}, {"type": "way", "id": 331074789, "nodes": [3381172153, 3381172146, 3381172129], "tags": {"highway": "footway", "lit": "yes", "surface": "paved", "width": "3"}}, {"type": "way", "id": 331074790, "nodes": [3381172180, 3381172174, 3381172157, 3381172163], "tags": {"highway": "footway", "lit": "yes", "surface": "paved", "width": "3"}}, {"type": "way", "id": 331074793, "nodes": [3381172331, 3381172315, 3381172190, 3381172162, 3381172135], "tags": {"highway": "footway", "lit": "yes", "surface": "paved", "width": "3"}}, {"type": "way", "id": 331074795, "nodes": [3381172330, 3381172313, 3381172191, 3381172187, 3381172180, 3381172163, 3381172160, 3381172153, 3381172133], "tags": {"highway": "footway", "lit": "yes", "surface": "paved", "width": "3"}}, {"type": "way", "id": 331662417, "nodes": [3377860622, 3392529818], "tags": {"cycleway": "segregated", "highway": "cycleway", "surface": "paved"}}, {"type": "way", "id": 332133382, "nodes": [3392529818, 3392529813], "tags": {"cycleway": "segregated", "highway": "cycleway", "oneway": "yes", "surface": "paving_stones"}}, {"type": "way", "id": 332133398, "nodes": [3898493586, 3377860621, 3387653996], "tags": {"footway": "crossing", "highway": "footway", "lit": "yes", "surface": "paved", "width": "5"}}, {"type": "way", "id": 382479726, "nodes": [3377860629, 248791604], "tags": {"highway": "residential", "name": "Calle de La Canci\u00f3n del Olvido", "postal_code": "28041"}}, {"type": "way", "id": 386505630, "nodes": [3370756597, 3377860628], "tags": {"bicycle": "yes", "highway": "footway", "lit": "yes", "surface": "paved", "width": "2"}}, {"type": "way", "id": 386947759, "nodes": [3898493588, 3902981379], "tags": {"highway": "footway", "lit": "yes", "smoothness": "excellent", "surface": "paved", "width": "7"}}, {"type": "way", "id": 386947762, "nodes": [3902981821, 3898493588], "tags": {"footway": "sidewalk", "highway": "footway", "lit": "yes", "smoothness": "excellent", "surface": "paved", "width": "7"}}, {"type": "way", "id": 386947779, "nodes": [3902981382, 3902981374, 3902981365], "tags": {"footway": "crossing", "highway": "footway", "lit": "yes", "smoothness": "good", "surface": "paved", "width": "5"}}, {"type": "way", "id": 386947788, "nodes": [3914657255, 3902981388, 3902981365, 3902981363], "tags": {"footway": "sidewalk", "highway": "footway", "lit": "yes", "smoothness": "good", "surface": "paved", "width": "4"}}, {"type": "way", "id": 386947793, "nodes": [3902981363, 3898493586, 3916514738], "tags": {"footway": "sidewalk", "highway": "footway", "lit": "yes", "smoothness": "excellent", "surface": "paved", "width": "7"}}, {"type": "way", "id": 386947798, "nodes": [3902981417, 3902981415, 3902981400, 3902981382, 3902981379], "tags": {"footway": "sidewalk", "highway": "footway", "lit": "yes", "smoothness": "good", "surface": "paved", "width": "4"}}, {"type": "way", "id": 388048819, "nodes": [248791604, 3377860621], "tags": {"highway": "residential", "lanes": "2", "name": "Calle de la Hermandad de Donantes de Sangre", "postal_code": "28041"}}, {"type": "way", "id": 388048820, "nodes": [248842147, 3381172105, 315057297, 3381172109, 315057013, 3377860623, 248791604], "tags": {"highway": "residential", "name": "Calle de la Hermandad de Donantes de Sangre", "postal_code": "28041", "sidewalk": "both"}}, {"type": "way", "id": 388048822, "nodes": [3387653996, 3912611678, 3912611675, 3912611674, 3912611673, 3912611672, 3912611671], "tags": {"highway": "footway", "lit": "yes", "surface": "unpaved", "width": "2"}}, {"type": "way", "id": 1267376032, "nodes": [3377860626, 3377860623, 3377860622], "tags": {"bicycle": "yes", "crossing": "uncontrolled", "crossing:markings": "yes", "crossing:signals": "no", "footway": "crossing", "highway": "footway", "lit": "yes", "surface": "paved", "width": "3.5"}}, {"type": "way", "id": 1267376034, "nodes": [3392529818, 3387653996, 3898493580, 3387653995, 3389409714, 3389409707, 3390956096, 3390956095, 3916514763, 11771180499], "tags": {"footway": "sidewalk", "highway": "footway", "lit": "yes", "surface": "paved", "wheelchair": "yes", "width": "2.2"}}, {"type": "way", "id": 1313371832, "nodes": [3377860631, 401256601], "tags": {"highway": "footway", "name": "Calle de Do\u00f1a Francisquita", "width": "6"}}, {"type": "way", "id": 1313371833, "nodes": [3377860630, 3377860631], "tags": {"footway": "sidewalk", "highway": "footway", "name": "Calle de Do\u00f1a Francisquita", "width": "6"}}]}