{"version": 0.6, "generator": "Overpass API 0.7.62.5 1bd436f1", "osm3s": {"timestamp_osm_base": "2025-03-23T16:30:30Z", "copyright": "The data included in this document is from www.openstreetmap.org. The data is made available under ODbL."}, "elements": [{"type": "node", "id": 21734222, "lat": 40.416919, "lon": -3.7046791, "tags": {"source": "yahoo_maps"}}, {"type": "node", "id": 21734245, "lat": 40.4167624, "lon": -3.7069796, "tags": {"source": "yahoo_maps"}}, {"type": "node", "id": 21734246, "lat": 40.4168528, "lon": -3.7073845, "tags": {"source": "yahoo_maps"}}, {"type": "node", "id": 21734249, "lat": 40.4161369, "lon": -3.7079559, "tags": {"source": "yahoo_maps"}}, {"type": "node", "id": 21734252, "lat": 40.4167712, "lon": -3.7084672, "tags": {"crossing": "uncontrolled", "crossing:markings": "zebra", "highway": "crossing", "kerb": "lowered", "source": "yahoo_maps", "tactile_paving": "yes"}}, {"type": "node", "id": 21734253, "lat": 40.4175801, "lon": -3.7077616, "tags": {"source": "yahoo_maps"}}, {"type": "node", "id": 26213303, "lat": 40.4178558, "lon": -3.7090394}, {"type": "node", "id": 26213327, "lat": 40.4182283, "lon": -3.7073452}, {"type": "node", "id": 26213328, "lat": 40.4181302, "lon": -3.7072813, "tags": {"crossing": "uncontrolled", "highway": "crossing", "smoothness": "excellent", "wheelchair": "yes"}}, {"type": "node", "id": 26213329, "lat": 40.4179792, "lon": -3.7074056}, {"type": "node", "id": 26213330, "lat": 40.4177653, "lon": -3.7069019}, {"type": "node", "id": 178821107, "lat": 40.4173267, "lon": -3.7071397}, {"type": "node", "id": 178821110, "lat": 40.4172718, "lon": -3.7069367}, {"type": "node", "id": 178821128, "lat": 40.4172308, "lon": -3.7067819}, {"type": "node", "id": 178821132, "lat": 40.4172082, "lon": -3.7067046}, {"type": "node", "id": 178821153, "lat": 40.4168121, "lon": -3.7067922}, {"type": "node", "id": 333218855, "lat": 40.4180767, "lon": -3.7066515, "tags": {"crossing": "uncontrolled", "highway": "crossing", "kerb": "lowered", "smoothness": "excellent", "tactile_paving": "yes", "wheelchair": "yes"}}, {"type": "node", "id": 345198636, "lat": 40.4177948, "lon": -3.7069713, "tags": {"barrier": "gate", "bicycle": "no", "foot": "no"}}, {"type": "node", "id": 345198640, "lat": 40.4179625, "lon": -3.7073663, "tags": {"barrier": "gate", "bicycle": "no", "foot": "no"}}, {"type": "node", "id": 345198647, "lat": 40.4180236, "lon": -3.7067479, "tags": {"amenity": "parking_entrance", "parking": "underground"}}, {"type": "node", "id": 345198655, "lat": 40.4167888, "lon": -3.7068699}, {"type": "node", "id": 345198673, "lat": 40.4167666, "lon": -3.7069519}, {"type": "node", "id": 1258876333, "lat": 40.4163341, "lon": -3.7070298}, {"type": "node", "id": 1258876347, "lat": 40.4162606, "lon": -3.7070122, "tags": {"source": "yahoo_maps"}}, {"type": "node", "id": 1365680115, "lat": 40.4177665, "lon": -3.7090627}, {"type": "node", "id": 1522690014, "lat": 40.4178932, "lon": -3.7068389}, {"type": "node", "id": 1522690024, "lat": 40.4181768, "lon": -3.7072825}, {"type": "node", "id": 1636940728, "lat": 40.4180635, "lon": -3.7066571}, {"type": "node", "id": 1789051704, "lat": 40.4162687, "lon": -3.7078461}, {"type": "node", "id": 2449984986, "lat": 40.4171669, "lon": -3.7065415, "tags": {"addr:city": "Madrid", "addr:housenumber": "11", "addr:postcode": "28013", "addr:street": "Calle del Arenal", "entrance": "main"}}, {"type": "node", "id": 2449984995, "lat": 40.417496, "lon": -3.7077214, "tags": {"addr:city": "Madrid", "addr:housenumber": "17", "addr:postcode": "28013", "addr:street": "Calle del Arenal", "entrance": "main"}}, {"type": "node", "id": 2449984998, "lat": 40.4176301, "lon": -3.7081927, "tags": {"addr:city": "Madrid", "addr:housenumber": "19", "addr:postcode": "28013", "addr:street": "Calle del Arenal", "entrance": "main"}}, {"type": "node", "id": 2449985005, "lat": 40.4177581, "lon": -3.7089526, "tags": {"addr:city": "Madrid", "addr:housenumber": "23", "addr:postcode": "28013", "addr:street": "Calle del Arenal", "addr:ward": "Palacio", "entrance": "main"}}, {"type": "node", "id": 2449985007, "lat": 40.4176826, "lon": -3.7079032, "tags": {"addr:city": "Madrid", "addr:housenumber": "24", "addr:postcode": "28013", "addr:street": "Calle del Arenal", "entrance": "main"}}, {"type": "node", "id": 2449985009, "lat": 40.4177818, "lon": -3.7082717, "tags": {"addr:city": "Madrid", "addr:housenumber": "26", "addr:postcode": "28013", "addr:street": "Calle del Arenal", "entrance": "main"}}, {"type": "node", "id": 2506478084, "lat": 40.4162851, "lon": -3.7070187}, {"type": "node", "id": 2603326107, "lat": 40.4168096, "lon": -3.7048823}, {"type": "node", "id": 2603326118, "lat": 40.4168704, "lon": -3.7051736}, {"type": "node", "id": 2603326120, "lat": 40.4169394, "lon": -3.7054969}, {"type": "node", "id": 2603326135, "lat": 40.4170041, "lon": -3.705811}, {"type": "node", "id": 2622900858, "lat": 40.4161666, "lon": -3.707928}, {"type": "node", "id": 2622900904, "lat": 40.4171235, "lon": -3.7063738}, {"type": "node", "id": 2622900906, "lat": 40.4171934, "lon": -3.706644}, {"type": "node", "id": 2627770548, "lat": 40.4169173, "lon": -3.7047466}, {"type": "node", "id": 2627770549, "lat": 40.4169187, "lon": -3.7047767}, {"type": "node", "id": 2627770550, "lat": 40.4169219, "lon": -3.7048091}, {"type": "node", "id": 2627770551, "lat": 40.4169655, "lon": -3.7050152}, {"type": "node", "id": 2627770552, "lat": 40.4170066, "lon": -3.7052104}, {"type": "node", "id": 2627770553, "lat": 40.4170181, "lon": -3.7054236}, {"type": "node", "id": 2627770558, "lat": 40.4170494, "lon": -3.705414}, {"type": "node", "id": 2627770563, "lat": 40.417078, "lon": -3.7056382}, {"type": "node", "id": 2835449205, "lat": 40.4171987, "lon": -3.7061018}, {"type": "node", "id": 2835449207, "lat": 40.4172417, "lon": -3.7062786}, {"type": "node", "id": 2959216477, "lat": 40.4171142, "lon": -3.7057643}, {"type": "node", "id": 2959216478, "lat": 40.4171553, "lon": -3.7059188}, {"type": "node", "id": 2959216492, "lat": 40.4174793, "lon": -3.7072029}, {"type": "node", "id": 2959216494, "lat": 40.4175491, "lon": -3.7074412}, {"type": "node", "id": 2959216495, "lat": 40.4176183, "lon": -3.7076789}, {"type": "node", "id": 2959216525, "lat": 40.4178439, "lon": -3.7085234}, {"type": "node", "id": 2959216529, "lat": 40.4178875, "lon": -3.7086994}, {"type": "node", "id": 3344982236, "lat": 40.4167773, "lon": -3.7047263}, {"type": "node", "id": 3414972197, "lat": 40.4167907, "lon": -3.7047919, "tags": {"addr:city": "Madrid", "addr:housenumber": "1", "addr:postcode": "28013", "addr:street": "Calle del Arenal", "entrance": "main"}}, {"type": "node", "id": 3414972199, "lat": 40.4170963, "lon": -3.7057002, "tags": {"addr:city": "Madrid", "addr:housenumber": "10", "addr:postcode": "28013", "addr:street": "Calle del Arenal", "entrance": "main"}}, {"type": "node", "id": 3414972200, "lat": 40.4169439, "lon": -3.7049126, "tags": {"addr:city": "Madrid", "addr:housenumber": "2", "addr:postcode": "28013", "addr:street": "Calle del Arenal", "entrance": "main"}}, {"type": "node", "id": 3414972201, "lat": 40.4175058, "lon": -3.707292, "tags": {"addr:city": "Madrid", "addr:housenumber": "20", "addr:postcode": "28013", "addr:street": "Calle del Arenal", "entrance": "main"}}, {"type": "node", "id": 3414972202, "lat": 40.4175655, "lon": -3.7074974, "tags": {"addr:city": "Madrid", "addr:housenumber": "22", "addr:postcode": "28013", "addr:street": "Calle del Arenal", "entrance": "main"}}, {"type": "node", "id": 3414972203, "lat": 40.4178641, "lon": -3.7086035, "tags": {"addr:city": "Madrid", "addr:housenumber": "28", "addr:postcode": "28013", "addr:street": "Calle del Arenal", "entrance": "main"}}, {"type": "node", "id": 3414972204, "lat": 40.41684, "lon": -3.7050267, "tags": {"addr:city": "Madrid", "addr:housenumber": "3", "addr:postcode": "28013", "addr:street": "Calle del Arenal", "entrance": "main"}}, {"type": "node", "id": 3414972205, "lat": 40.4169861, "lon": -3.7051128, "tags": {"addr:city": "Madrid", "addr:housenumber": "4", "addr:postcode": "28013", "addr:street": "Calle del Arenal", "entrance": "main"}}, {"type": "node", "id": 3414972206, "lat": 40.4169025, "lon": -3.7053216, "tags": {"addr:city": "Madrid", "addr:housenumber": "5", "addr:postcode": "28013", "addr:street": "Calle del Arenal", "entrance": "main"}}, {"type": "node", "id": 3414972207, "lat": 40.4170239, "lon": -3.7052927, "tags": {"addr:city": "Madrid", "addr:housenumber": "6", "addr:postcode": "28013", "addr:street": "Calle del Arenal", "entrance": "main"}}, {"type": "node", "id": 3414972208, "lat": 40.4169563, "lon": -3.7055791, "tags": {"addr:city": "Madrid", "addr:housenumber": "7", "addr:postcode": "28013", "addr:street": "Calle del Arenal", "entrance": "main"}}, {"type": "node", "id": 3414972209, "lat": 40.4170481, "lon": -3.7055309, "tags": {"addr:city": "Madrid", "addr:housenumber": "8", "addr:postcode": "28013", "addr:street": "Calle del Arenal", "door": "hinged", "entrance": "main", "wheelchair": "yes"}}, {"type": "node", "id": 3414972210, "lat": 40.4170799, "lon": -3.7061755, "tags": {"addr:city": "Madrid", "addr:housenumber": "9", "addr:postcode": "28013", "addr:street": "Calle del Arenal", "entrance": "main"}}, {"type": "node", "id": 3414972214, "lat": 40.4170212, "lon": -3.7058995}, {"type": "node", "id": 3414972215, "lat": 40.417175, "lon": -3.7059998}, {"type": "node", "id": 3414972216, "lat": 40.417198, "lon": -3.7066593}, {"type": "node", "id": 3414972218, "lat": 40.4173403, "lon": -3.7071859}, {"type": "node", "id": 3414972219, "lat": 40.4173571, "lon": -3.7072402}, {"type": "node", "id": 3414972224, "lat": 40.4174396, "lon": -3.7070661}, {"type": "node", "id": 3414972225, "lat": 40.4174573, "lon": -3.7071212}, {"type": "node", "id": 3414972226, "lat": 40.4174825, "lon": -3.7076834}, {"type": "node", "id": 3414972228, "lat": 40.4175201, "lon": -3.7078124}, {"type": "node", "id": 3414972232, "lat": 40.4176272, "lon": -3.7077179}, {"type": "node", "id": 3414972233, "lat": 40.4176366, "lon": -3.707759}, {"type": "node", "id": 3414972235, "lat": 40.4177209, "lon": -3.7080265}, {"type": "node", "id": 3414972237, "lat": 40.4177259, "lon": -3.7085319}, {"type": "node", "id": 3414972238, "lat": 40.4177294, "lon": -3.7085853}, {"type": "node", "id": 3414972239, "lat": 40.4177345, "lon": -3.7086429}, {"type": "node", "id": 3414972242, "lat": 40.4178207, "lon": -3.7084319}, {"type": "node", "id": 3414972243, "lat": 40.4178316, "lon": -3.7084733}, {"type": "node", "id": 3414972245, "lat": 40.4178977, "lon": -3.7087381}, {"type": "node", "id": 3414972246, "lat": 40.4179114, "lon": -3.7087949}, {"type": "node", "id": 3414972247, "lat": 40.4179285, "lon": -3.7090204}, {"type": "node", "id": 3502487950, "lat": 40.416901, "lon": -3.7073649}, {"type": "node", "id": 3507528492, "lat": 40.4162208, "lon": -3.7078803, "tags": {"crossing": "uncontrolled", "crossing:markings": "zebra", "highway": "crossing", "kerb": "lowered", "tactile_paving": "no"}}, {"type": "node", "id": 3507529700, "lat": 40.4163124, "lon": -3.7070249}, {"type": "node", "id": 3507557298, "lat": 40.4168206, "lon": -3.7074059}, {"type": "node", "id": 3586790683, "lat": 40.4172896, "lon": -3.7064712}, {"type": "node", "id": 3586790686, "lat": 40.4173362, "lon": -3.7066561}, {"type": "node", "id": 3609553780, "lat": 40.4177493, "lon": -3.7088371}, {"type": "node", "id": 3660795680, "lat": 40.41774, "lon": -3.7087192, "tags": {"addr:city": "Madrid", "addr:housenumber": "21", "addr:postcode": "28013", "addr:street": "Calle del Arenal", "addr:ward": "Palacio", "entrance": "main"}}, {"type": "node", "id": 4111477157, "lat": 40.416817, "lon": -3.704918}, {"type": "node", "id": 4111477160, "lat": 40.4168629, "lon": -3.7051375}, {"type": "node", "id": 5302261816, "lat": 40.4170909, "lon": -3.7059143}, {"type": "node", "id": 5302261817, "lat": 40.4171164, "lon": -3.7060209}, {"type": "node", "id": 5302261818, "lat": 40.4172633, "lon": -3.7066361}, {"type": "node", "id": 5302261819, "lat": 40.4168303, "lon": -3.7047055}, {"type": "node", "id": 5302261820, "lat": 40.4169751, "lon": -3.7054293}, {"type": "node", "id": 5302264621, "lat": 40.4173997, "lon": -3.7071548}, {"type": "node", "id": 5302264622, "lat": 40.4177848, "lon": -3.708528}, {"type": "node", "id": 6553725482, "lat": 40.4170341, "lon": -3.705958}, {"type": "node", "id": 6553725484, "lat": 40.4171504, "lon": -3.706478}, {"type": "node", "id": 6553795885, "lat": 40.4174176, "lon": -3.7074472}, {"type": "node", "id": 6553795886, "lat": 40.4174374, "lon": -3.7075138}, {"type": "node", "id": 6553795887, "lat": 40.4175395, "lon": -3.7078804}, {"type": "node", "id": 6553795888, "lat": 40.4177136, "lon": -3.7084873}, {"type": "node", "id": 6553795889, "lat": 40.4177364, "lon": -3.7086699}, {"type": "node", "id": 6553795890, "lat": 40.4177513, "lon": -3.7088657}, {"type": "node", "id": 6553795891, "lat": 40.4177541, "lon": -3.7089047}, {"type": "node", "id": 6553795892, "lat": 40.4177624, "lon": -3.7090087}, {"type": "node", "id": 6553795897, "lat": 40.4179186, "lon": -3.7088904}, {"type": "node", "id": 6553795900, "lat": 40.4178151, "lon": -3.7084089}, {"type": "node", "id": 6553795901, "lat": 40.4178044, "lon": -3.7083649}, {"type": "node", "id": 6553795902, "lat": 40.4177907, "lon": -3.7083083}, {"type": "node", "id": 6553795903, "lat": 40.4176997, "lon": -3.7079582}, {"type": "node", "id": 6553795904, "lat": 40.4176533, "lon": -3.7078104}, {"type": "node", "id": 6553795908, "lat": 40.4175848, "lon": -3.7075639}, {"type": "node", "id": 6553795910, "lat": 40.4174872, "lon": -3.7072281}, {"type": "node", "id": 6553795915, "lat": 40.4173238, "lon": -3.7066071}, {"type": "node", "id": 6553795916, "lat": 40.4173092, "lon": -3.7065492}, {"type": "node", "id": 6553795917, "lat": 40.4172734, "lon": -3.7064072}, {"type": "node", "id": 6553795918, "lat": 40.4172032, "lon": -3.7061204}, {"type": "node", "id": 6553795922, "lat": 40.4170631, "lon": -3.7055846}, {"type": "node", "id": 6553795923, "lat": 40.4170331, "lon": -3.7054773}, {"type": "node", "id": 6553795924, "lat": 40.4169963, "lon": -3.7051616}, {"type": "node", "id": 6553795925, "lat": 40.4169758, "lon": -3.705064}, {"type": "node", "id": 9071663150, "lat": 40.4171548, "lon": -3.7069005, "tags": {"entrance": "main"}}, {"type": "node", "id": 9071663157, "lat": 40.4172512, "lon": -3.706859, "tags": {"barrier": "gate"}}, {"type": "node", "id": 9174462500, "lat": 40.4175124, "lon": -3.7077735}, {"type": "node", "id": 9524668820, "lat": 40.4175798, "lon": -3.7080183}, {"type": "node", "id": 9524668822, "lat": 40.4177419, "lon": -3.7087443}, {"type": "node", "id": 9524668823, "lat": 40.4177474, "lon": -3.7088172}, {"type": "node", "id": 11240809532, "lat": 40.4179277, "lon": -3.7074177, "tags": {"highway": "street_lamp", "support": "wall_mounted"}}, {"type": "node", "id": 11240809534, "lat": 40.4179627, "lon": -3.7074983, "tags": {"highway": "street_lamp", "support": "wall_mounted"}}, {"type": "node", "id": 11240809535, "lat": 40.4178482, "lon": -3.7075928, "tags": {"highway": "street_lamp", "support": "wall_mounted"}}, {"type": "node", "id": 11240809536, "lat": 40.4178001, "lon": -3.7075274, "tags": {"highway": "street_lamp", "support": "wall_mounted"}}, {"type": "node", "id": 11240815674, "lat": 40.4176744, "lon": -3.7077175, "tags": {"highway": "street_lamp", "support": "wall_mounted"}}, {"type": "node", "id": 11240815675, "lat": 40.4174691, "lon": -3.707816, "tags": {"highway": "street_lamp", "support": "wall_mounted"}}, {"type": "node", "id": 11240815676, "lat": 40.4174539, "lon": -3.7079403, "tags": {"highway": "street_lamp", "support": "wall_mounted"}}, {"type": "node", "id": 11240815678, "lat": 40.4173341, "lon": -3.7079267, "tags": {"highway": "street_lamp", "support": "wall_mounted"}}, {"type": "node", "id": 11240829437, "lat": 40.4176577, "lon": -3.7076553, "tags": {"highway": "street_lamp", "support": "wall_mounted"}}, {"type": "node", "id": 11380145208, "lat": 40.4177497, "lon": -3.7081423, "tags": {"historic": "memorial", "memorial": "plaque"}}, {"type": "node", "id": 11380145209, "lat": 40.4177433, "lon": -3.7081166, "tags": {"historic": "memorial", "inscription": "En esta casa falleci\u00f3 el compositor y pianista Pedro de Alb\u00e9niz (1795 -1885). Primer Maestro de Piano en el Real Conservatorio de m\u00fasica.", "material": "metal", "memorial": "plaque", "name": "Placa conmemorativa Pedro de Alb\u00e9niz"}}, {"type": "node", "id": 12285057987, "lat": 40.4173171, "lon": -3.7068307}, {"type": "node", "id": 12336640244, "lat": 40.4169174, "lon": -3.7047148}, {"type": "node", "id": 12364856126, "lat": 40.4180626, "lon": -3.7066046}, {"type": "node", "id": 12364856127, "lat": 40.4179318, "lon": -3.7062581}, {"type": "node", "id": 12364856128, "lat": 40.4179332, "lon": -3.7062432}, {"type": "node", "id": 12364856129, "lat": 40.4180655, "lon": -3.70616}, {"type": "node", "id": 12364856130, "lat": 40.4180868, "lon": -3.7061264}, {"type": "node", "id": 12364856131, "lat": 40.4180932, "lon": -3.7060965}, {"type": "node", "id": 12364856132, "lat": 40.4180825, "lon": -3.7060461}, {"type": "node", "id": 12364856133, "lat": 40.417946, "lon": -3.7056809}, {"type": "node", "id": 12364856134, "lat": 40.4179325, "lon": -3.7056799}, {"type": "node", "id": 12364856135, "lat": 40.4174409, "lon": -3.7060003}, {"type": "node", "id": 12364856136, "lat": 40.4174196, "lon": -3.7060097}, {"type": "node", "id": 12364856137, "lat": 40.4171952, "lon": -3.7060869}, {"type": "node", "id": 12364856138, "lat": 40.4171369, "lon": -3.7061068}, {"type": "node", "id": 12364856139, "lat": 40.4179485, "lon": -3.7063023}, {"type": "node", "id": 12364856149, "lat": 40.4180391, "lon": -3.7059299}, {"type": "node", "id": 12364869806, "lat": 40.417908, "lon": -3.7056959}, {"type": "node", "id": 12390199758, "lat": 40.4178433, "lon": -3.7088831}, {"type": "node", "id": 12390199759, "lat": 40.4178283, "lon": -3.7087728}, {"type": "way", "id": 4518851, "nodes": [21734249, 2622900858, 3507528492, 1789051704, 3507557298, 21734246, 3502487950, 3414972218], "tags": {"access": "destination", "cycleway": "shared_lane", "emergency": "yes", "goods": "yes", "highway": "residential", "lanes": "1", "lit": "yes", "maxspeed": "20", "motor_vehicle": "destination", "name": "Calle de Bordadores", "name:etymology:wikidata": "Q24656602", "oneway": "yes", "postal_code": "28013", "psv": "yes", "source": "survey", "surface": "paving_stones:20"}}, {"type": "way", "id": 7642947, "nodes": [21734246, 21734245], "tags": {"highway": "pedestrian", "lit": "yes", "name": "Plaza de San Gin\u00e9s", "postal_code": "28013", "smoothness": "intermediate", "surface": "sett"}}, {"type": "way", "id": 7971923, "nodes": [21734252, 3414972228], "tags": {"access": "destination", "emergency": "yes", "goods": "yes", "highway": "residential", "lit": "yes", "motor_vehicle": "destination", "name": "Calle de las Hileras", "oneway": "yes", "postal_code": "28013", "psv": "yes", "surface": "asphalt"}}, {"type": "way", "id": 7971925, "nodes": [3414972225, 26213330, 1636940728, 333218855], "tags": {"access": "destination", "bicycle": "yes", "cycleway:both": "no", "emergency": "yes", "foot": "yes", "goods": "yes", "highway": "residential", "lit": "yes", "motor_vehicle": "yes", "name": "Calle de San Mart\u00edn", "oneway": "yes", "postal_code": "28013", "psv": "yes", "sidewalk": "both", "surface": "asphalt"}}, {"type": "way", "id": 17252048, "nodes": [1258876347, 2506478084, 3507529700, 1258876333, 21734245], "tags": {"highway": "pedestrian", "lit": "yes", "name": "Calle de Coloreros", "postal_code": "28013", "smoothness": "good", "surface": "paving_stones"}}, {"type": "way", "id": 31053349, "nodes": [26213330, 345198636, 345198640, 26213329], "tags": {"highway": "footway", "lit": "yes", "name": "Calle Francisco Piquer", "surface": "paving_stones"}}, {"type": "way", "id": 31053350, "nodes": [345198673, 345198655], "tags": {"highway": "pedestrian", "layer": "-1", "lit": "yes", "name": "Pasadizo de San Gin\u00e9s", "postal_code": "28013", "smoothness": "good", "surface": "paving_stones", "tunnel": "building_passage"}}, {"type": "way", "id": 31053351, "nodes": [345198655, 178821153, 3414972216, 5302261818], "tags": {"highway": "pedestrian", "lit": "yes", "name": "Pasadizo de San Gin\u00e9s", "postal_code": "28013", "smoothness": "good", "surface": "paving_stones"}}, {"type": "way", "id": 31053352, "nodes": [21734245, 345198673], "tags": {"highway": "pedestrian", "lit": "yes", "name": "Pasadizo de San Gin\u00e9s", "postal_code": "28013", "smoothness": "good", "surface": "paving_stones"}}, {"type": "way", "id": 43631108, "nodes": [26213330, 1522690014, 345198647], "tags": {"highway": "service", "lit": "yes", "oneway": "yes", "surface": "asphalt"}}, {"type": "way", "id": 334382540, "nodes": [3414972247, 26213303, 1365680115, 6553795892, 2449985005, 6553795891, 6553795890, 3609553780, 9524668823, 9524668822, 3660795680, 6553795889, 3414972239, 3414972238, 3414972237, 6553795888, 2449984998, 9524668820, 6553795887, 3414972228, 9174462500, 2449984995, 3414972226, 6553795886, 6553795885, 3414972219, 3414972218, 178821107, 178821110, 9071663157, 178821128, 178821132, 3414972216, 2622900906, 2449984986, 6553725484, 2622900904, 3414972210, 6553725482, 3414972214, 2603326135, 3414972208, 2603326120, 3414972206, 2603326118, 4111477160, 3414972204, 4111477157, 2603326107, 3414972197, 3344982236, 5302261819, 21734222, 12336640244, 2627770548, 2627770549, 2627770550, 3414972200, 2627770551, 6553795925, 3414972205, 6553795924, 2627770552, 3414972207, 2627770558, 2627770553, 6553795923, 3414972209, 6553795922, 2627770563, 3414972199, 2959216477, 2959216478, 3414972215, 12364856137, 2835449205, 6553795918, 2835449207, 6553795917, 3586790683, 6553795916, 6553795915, 3586790686, 3414972224, 3414972225, 2959216492, 6553795910, 3414972201, 2959216494, 3414972202, 6553795908, 2959216495, 3414972232, 3414972233, 6553795904, 2449985007, 6553795903, 3414972235, 11380145209, 11380145208, 2449985009, 6553795902, 6553795901, 6553795900, 3414972242, 3414972243, 2959216525, 3414972203, 2959216529, 3414972245, 3414972246, 6553795897, 3414972247], "tags": {"area": "yes", "highway": "pedestrian", "lit": "yes", "name": "Calle Arenal", "oneway": "no", "postal_code": "28013", "smoothness": "good", "surface": "paving_stones", "wheelchair": "yes"}}, {"type": "way", "id": 334382541, "nodes": [3414972228, 21734253, 3414972232], "tags": {"foot": "yes", "highway": "living_street", "lit": "yes", "name": "Calle de las Hileras", "oneway": "yes", "postal_code": "28013", "smoothness": "good", "surface": "asphalt"}}, {"type": "way", "id": 334382542, "nodes": [3414972232, 26213329, 26213328, 1522690024, 26213327], "tags": {"access": "destination", "bicycle": "yes", "foot": "yes", "highway": "residential", "horse": "destination", "lanes": "1", "lit": "yes", "motor_vehicle": "yes", "name": "Calle de las Hileras", "oneway": "yes", "postal_code": "28013", "sidewalk": "both", "surface": "asphalt"}}, {"type": "way", "id": 435012914, "nodes": [3414972218, 5302264621, 3414972225], "tags": {"access": "destination", "emergency": "yes", "goods": "yes", "highway": "living_street", "lit": "yes", "maxspeed": "20", "motor_vehicle": "destination", "name": "Calle de Bordadores", "name:etymology:wikidata": "Q24656602", "oneway": "yes", "postal_code": "28013", "psv": "yes", "source": "survey", "surface": "paving_stones:20"}}, {"type": "way", "id": 548874631, "nodes": [26213303, 12390199758, 12390199759, 5302264622, 21734253, 5302264621, 12285057987, 5302261818, 12364856138, 5302261817, 5302261816, 5302261820, 5302261819], "tags": {"bicycle": "dismount", "highway": "pedestrian", "lit": "yes", "name": "Calle del Arenal", "name:etymology:wikidata": "Q5740980", "oneway": "no", "postal_code": "28013", "smoothness": "good", "surface": "asphalt", "wheelchair": "yes", "wikidata": "Q5740980", "wikipedia": "es:Calle del Arenal"}}, {"type": "way", "id": 980704023, "nodes": [9071663157, 9071663150], "tags": {"covered": "no", "handrail": "yes", "handrail:left": "yes", "handrail:right": "yes", "highway": "steps", "incline": "up", "lit": "yes", "ramp": "no", "step_count": "12", "surface": "paving_stones", "tactile_paving": "no"}}, {"type": "way", "id": 1327832785, "nodes": [12285057987, 9071663157], "tags": {"highway": "pedestrian", "lit": "yes", "name": "Calle del Arenal"}}, {"type": "way", "id": 1336821612, "nodes": [12364856126, 12364856139, 12364856127, 12364856128, 12364856129, 12364856130, 12364856131, 12364856132, 12364856149, 12364856133, 12364856134, 12364869806, 12364856135, 12364856136, 12364856137, 12364856138], "tags": {"footway": "sidewalk", "highway": "footway", "lit": "yes", "surface": "paving_stones"}}]}