{"version": 0.6, "generator": "Overpass API 0.7.62.5 1bd436f1", "osm3s": {"timestamp_osm_base": "2025-03-23T15:31:33Z", "copyright": "The data included in this document is from www.openstreetmap.org. The data is made available under ODbL."}, "elements": [{"type": "node", "id": 56025184, "lat": 40.4717987, "lon": -3.6838173}, {"type": "node", "id": 56038251, "lat": 40.4715063, "lon": -3.6819869}, {"type": "node", "id": 56038254, "lat": 40.4718844, "lon": -3.683605}, {"type": "node", "id": 56038699, "lat": 40.4717634, "lon": -3.6836783}, {"type": "node", "id": 56039021, "lat": 40.4713475, "lon": -3.6818022}, {"type": "node", "id": 56039049, "lat": 40.4713703, "lon": -3.6814707}, {"type": "node", "id": 56039279, "lat": 40.471415, "lon": -3.6816031}, {"type": "node", "id": 56066558, "lat": 40.4714583, "lon": -3.681988}, {"type": "node", "id": 1439704527, "lat": 40.4717091, "lon": -3.6823576, "tags": {"bench": "no", "bus": "yes", "highway": "bus_stop", "lit": "yes", "name": "Chamart\u00edn", "operator": "EMT Madrid", "public_transport": "platform", "ref": "1917", "shelter": "no", "source": "https://navegapormadrid.emtmadrid.es/app/", "tactile_paving": "yes"}}, {"type": "node", "id": 1439704535, "lat": 40.4718159, "lon": -3.6829397, "tags": {"bench": "no", "bus": "yes", "highway": "bus_stop", "lit": "yes", "name": "Estaci\u00f3n de Chamart\u00edn", "operator": "EMT Madrid", "public_transport": "platform", "ref": "3420", "shelter": "no", "source": "https://navegapormadrid.emtmadrid.es/app/", "tactile_paving": "yes"}}, {"type": "node", "id": 1493669260, "lat": 40.4716059, "lon": -3.6824168, "tags": {"bus": "yes", "public_transport": "stop_position"}}, {"type": "node", "id": 2095715869, "lat": 40.4706096, "lon": -3.6829447}, {"type": "node", "id": 2095715872, "lat": 40.4713031, "lon": -3.6826546}, {"type": "node", "id": 2095715874, "lat": 40.4705692, "lon": -3.6827752}, {"type": "node", "id": 2095715875, "lat": 40.4714418, "lon": -3.6826004, "tags": {"access": "yes", "amenity": "parking", "fee": "yes", "parking": "multi-storey"}}, {"type": "node", "id": 2095715878, "lat": 40.471511, "lon": -3.6825723}, {"type": "node", "id": 2095715879, "lat": 40.4704841, "lon": -3.6824124}, {"type": "node", "id": 2095715880, "lat": 40.4711796, "lon": -3.6821284}, {"type": "node", "id": 2095715881, "lat": 40.4714034, "lon": -3.6820439}, {"type": "node", "id": 2095715884, "lat": 40.470528, "lon": -3.6825996}, {"type": "node", "id": 2095715885, "lat": 40.4712648, "lon": -3.6824912}, {"type": "node", "id": 2095715889, "lat": 40.4712236, "lon": -3.6823156}, {"type": "node", "id": 2095715890, "lat": 40.4715607, "lon": -3.683197}, {"type": "node", "id": 2548097467, "lat": 40.4715588, "lon": -3.683039, "tags": {"bench": "no", "bus": "yes", "highway": "bus_stop", "lit": "yes", "name": "Estaci\u00f3n de Chamart\u00edn", "public_transport": "platform", "shelter": "no", "source": "https://navegapormadrid.emtmadrid.es/app/", "tactile_paving": "yes"}}, {"type": "node", "id": 3463280828, "lat": 40.4714063, "lon": -3.6821177}, {"type": "node", "id": 3463280829, "lat": 40.4714179, "lon": -3.6820072}, {"type": "node", "id": 3463280830, "lat": 40.4715249, "lon": -3.6820681}, {"type": "node", "id": 3463280831, "lat": 40.4716298, "lon": -3.6825196}, {"type": "node", "id": 3463280832, "lat": 40.4717028, "lon": -3.6828189}, {"type": "node", "id": 3464341236, "lat": 40.4708151, "lon": -3.6824832}, {"type": "node", "id": 3464341237, "lat": 40.4708574, "lon": -3.6826584}, {"type": "node", "id": 3464341239, "lat": 40.4711976, "lon": -3.6822049}, {"type": "node", "id": 3464341240, "lat": 40.4715102, "lon": -3.6825689}, {"type": "node", "id": 3464341241, "lat": 40.4715789, "lon": -3.68287}, {"type": "node", "id": 3464378771, "lat": 40.4713623, "lon": -3.6816281}, {"type": "node", "id": 6281544200, "lat": 40.4716781, "lon": -3.6833046}, {"type": "node", "id": 6281544202, "lat": 40.4718069, "lon": -3.6832519}, {"type": "node", "id": 6717371484, "lat": 40.4714656, "lon": -3.6827933}, {"type": "node", "id": 6717442585, "lat": 40.4715531, "lon": -3.6827566, "tags": {"crossing": "uncontrolled", "crossing:markings": "zebra", "highway": "crossing", "tactile_paving": "yes"}}, {"type": "node", "id": 6717442586, "lat": 40.4716751, "lon": -3.6827054, "tags": {"crossing": "uncontrolled", "crossing:markings": "zebra", "highway": "crossing", "tactile_paving": "yes"}}, {"type": "node", "id": 6717442587, "lat": 40.4718151, "lon": -3.6826465}, {"type": "node", "id": 6717442588, "lat": 40.4720482, "lon": -3.6823472}, {"type": "node", "id": 6717442644, "lat": 40.4716261, "lon": -3.6834743}, {"type": "node", "id": 6717442645, "lat": 40.4714878, "lon": -3.6827841}, {"type": "node", "id": 6717442646, "lat": 40.4719632, "lon": -3.6824468}, {"type": "node", "id": 6834324012, "lat": 40.47236, "lon": -3.6830161}, {"type": "node", "id": 6834324014, "lat": 40.4719137, "lon": -3.6830544}, {"type": "node", "id": 6834324015, "lat": 40.4716859, "lon": -3.6821117, "tags": {"barrier": "kerb", "kerb": "lowered", "tactile_paving": "yes"}}, {"type": "node", "id": 6834324016, "lat": 40.4713391, "lon": -3.6822566, "tags": {"barrier": "kerb", "kerb": "lowered", "tactile_paving": "yes"}}, {"type": "node", "id": 6834324017, "lat": 40.4717731, "lon": -3.6831112, "tags": {"crossing": "uncontrolled", "crossing:markings": "zebra", "highway": "crossing", "tactile_paving": "yes"}}, {"type": "node", "id": 6834324018, "lat": 40.4716457, "lon": -3.6831627, "tags": {"crossing": "uncontrolled", "crossing:island": "no", "crossing:markings": "zebra", "highway": "crossing", "tactile_paving": "yes"}}, {"type": "node", "id": 6834324019, "lat": 40.4714296, "lon": -3.6822188, "tags": {"crossing": "uncontrolled", "crossing:island": "no", "crossing:markings": "zebra", "highway": "crossing", "tactile_paving": "yes"}}, {"type": "node", "id": 6834324020, "lat": 40.4715484, "lon": -3.6821692, "tags": {"crossing": "uncontrolled", "crossing:island": "no", "crossing:markings": "zebra", "highway": "crossing", "tactile_paving": "yes"}}, {"type": "node", "id": 6834324021, "lat": 40.4717906, "lon": -3.6826569}, {"type": "node", "id": 6935540320, "lat": 40.4722519, "lon": -3.6824061}, {"type": "node", "id": 6935540321, "lat": 40.4723561, "lon": -3.6828626}, {"type": "node", "id": 6935540322, "lat": 40.4720375, "lon": -3.6814658}, {"type": "node", "id": 6935540323, "lat": 40.4721793, "lon": -3.6820876}, {"type": "node", "id": 7891177506, "lat": 40.4708984, "lon": -3.6828278}, {"type": "node", "id": 8724259248, "lat": 40.4712783, "lon": -3.6815173}, {"type": "node", "id": 9471644609, "lat": 40.4721281, "lon": -3.6823127, "tags": {"barrier": "kerb", "kerb": "flush", "tactile_paving": "yes"}}, {"type": "node", "id": 9471644611, "lat": 40.4714219, "lon": -3.6826082, "tags": {"highway": "crossing"}}, {"type": "node", "id": 12253373083, "lat": 40.4718074, "lon": -3.6830634, "tags": {"bus": "yes", "highway": "bus_stop", "name": "Est. Chamart\u00edn", "network": "Consorcio Regional de Transportes de Madrid", "network:short": "CRTM", "network:wikidata": "Q8350122", "public_transport": "platform", "ref": "50032", "source": "GTFS Red de Autobuses Interurbanos", "source:date": "2024-09-29", "source:website": "https://datos.crtm.es/datasets/885399f83408473c8d815e40c5e702b7/about"}}, {"type": "node", "id": 12255732827, "lat": 40.4721, "lon": -3.68269, "tags": {"bus": "yes", "highway": "bus_stop", "name": "Chamart\u00edn", "network": "Consorcio Regional de Transportes de Madrid", "network:short": "CRTM", "network:wikidata": "Q8350122", "public_transport": "platform", "ref": "25", "source": "GTFS Red de Autobuses Urbanos", "source:date": "2024-10-16", "source:website": "https://www.arcgis.com/home/item.html?id=357e63c2904f43aeb5d8a267a64346d8"}}, {"type": "way", "id": 7708694, "nodes": [56039049, 56039279, 56038251], "tags": {"cycleway:right": "no", "highway": "tertiary", "lanes": "3", "lit": "yes", "maxspeed": "40", "name": "Calle de la Hiedra", "oneway": "yes", "source:maxspeed": "sign", "surface": "asphalt"}}, {"type": "way", "id": 7708698, "nodes": [56039021, 3464378771, 56039049], "tags": {"cycleway:right": "no", "highway": "tertiary", "lanes": "1", "lit": "yes", "maxspeed": "40", "name": "Calle de la Hiedra", "oneway": "yes", "source:maxspeed": "sign", "surface": "asphalt"}}, {"type": "way", "id": 7711284, "nodes": [2095715881, 3463280829, 56066558, 56038251], "tags": {"cycleway:right": "no", "highway": "tertiary", "lanes": "1", "lit": "yes", "maxspeed": "40", "noname": "yes", "oneway": "yes", "source:maxspeed": "sign", "surface": "asphalt"}}, {"type": "way", "id": 199576744, "nodes": [2095715878, 2095715875, 9471644611, 2095715872, 7891177506], "tags": {"highway": "service", "lanes": "1", "lit": "yes", "maxheight": "4.2", "service": "parking_aisle", "surface": "asphalt", "tunnel": "building_passage"}}, {"type": "way", "id": 199576745, "nodes": [2095715874, 3464341237], "tags": {"highway": "service", "lanes": "1", "lit": "yes", "service": "parking_aisle", "surface": "asphalt"}}, {"type": "way", "id": 199576746, "nodes": [2095715880, 2095715881], "tags": {"highway": "service", "lanes": "1", "lit": "yes", "oneway": "yes", "service": "parking_aisle", "surface": "asphalt"}}, {"type": "way", "id": 199576750, "nodes": [3464341239, 2095715889, 2095715885, 2095715872], "tags": {"highway": "service", "lanes": "1", "lit": "yes", "maxheight": "4.2", "service": "parking_aisle", "surface": "asphalt", "tunnel": "building_passage"}}, {"type": "way", "id": 339140015, "nodes": [3463280831, 6717442586, 3463280832], "tags": {"cycleway:right": "no", "highway": "tertiary", "lanes": "3", "lit": "yes", "maxspeed": "40", "noname": "yes", "oneway": "yes", "surface": "asphalt"}}, {"type": "way", "id": 339140017, "nodes": [3463280828, 2095715881], "tags": {"cycleway:right": "no", "highway": "tertiary", "lanes": "2", "lit": "yes", "maxspeed": "40", "name": "Calle de la Hiedra", "oneway": "yes", "source:maxspeed": "sign", "surface": "asphalt"}}, {"type": "way", "id": 339140021, "nodes": [3463280832, 6834324017, 6281544202], "tags": {"cycleway:right": "no", "highway": "tertiary", "lanes": "3", "lit": "24/7", "maxheight": "4.2", "maxspeed": "40", "noname": "yes", "oneway": "yes", "shoulder": "no", "surface": "asphalt", "tunnel": "building_passage"}}, {"type": "way", "id": 339250857, "nodes": [3464341240, 6834324019, 3463280828], "tags": {"cycleway:right": "no", "highway": "tertiary", "lanes": "3", "lit": "24/7", "maxheight": "4.2", "maxspeed": "40", "noname": "yes", "oneway": "yes", "shoulder": "no", "source:maxspeed": "sign", "surface": "asphalt", "tunnel": "building_passage"}}, {"type": "way", "id": 339250858, "nodes": [3464341239, 2095715880], "tags": {"highway": "service", "lanes": "1", "lit": "yes", "service": "parking_aisle", "surface": "asphalt"}}, {"type": "way", "id": 339250859, "nodes": [3464341236, 2095715889], "tags": {"highway": "service", "lanes": "1", "lit": "yes", "maxheight": "4.2", "service": "parking_aisle", "surface": "asphalt", "tunnel": "building_passage"}}, {"type": "way", "id": 339250860, "nodes": [3464341237, 2095715885], "tags": {"highway": "service", "lanes": "1", "layer": "-1", "lit": "yes", "maxheight": "4.2", "service": "parking_aisle", "surface": "asphalt", "tunnel": "building_passage"}}, {"type": "way", "id": 339250861, "nodes": [3464341241, 6717442585, 2095715878, 3464341240], "tags": {"cycleway:right": "no", "highway": "tertiary", "lanes": "3", "lit": "yes", "maxspeed": "40", "noname": "yes", "oneway": "yes", "source:maxspeed": "sign", "surface": "asphalt"}}, {"type": "way", "id": 339250864, "nodes": [7891177506, 2095715869, 2095715874, 2095715884, 2095715879, 2095715880], "tags": {"highway": "service", "lanes": "1", "lit": "yes", "service": "parking_aisle", "surface": "asphalt"}}, {"type": "way", "id": 359631119, "nodes": [56025184, 56038699, 6281544200, 6834324018, 3464341241], "tags": {"cycleway:right": "no", "highway": "tertiary", "lanes": "3", "lit": "24/7", "maxheight": "4.2", "maxspeed": "40", "noname": "yes", "oneway": "yes", "shoulder": "no", "source:maxspeed": "sign", "surface": "asphalt", "tunnel": "building_passage"}}, {"type": "way", "id": 511241910, "nodes": [3463280830, 6834324020, 1493669260], "tags": {"cycleway:right": "no", "highway": "tertiary", "lanes": "3", "lit": "24/7", "maxheight": "4.2", "maxspeed": "40", "noname": "yes", "oneway": "yes", "shoulder": "no", "surface": "asphalt", "tunnel": "building_passage"}}, {"type": "way", "id": 670772881, "nodes": [6281544200, 6281544202], "tags": {"cycleway:both": "no", "description": "Cambio de sentido", "highway": "tertiary", "lane_markings": "no", "layer": "-1", "lit": "24/7", "maxheight": "4.2", "noname": "yes", "surface": "asphalt", "tunnel": "yes"}}, {"type": "way", "id": 714623616, "nodes": [6717442587, 6717442646], "tags": {"footway": "sidewalk", "highway": "footway", "lit": "24/7", "surface": "paving_stones", "tunnel": "building_passage"}}, {"type": "way", "id": 714623620, "nodes": [6717442587, 6834324021, 6717442586, 6717442585, 6717442645, 6717371484], "tags": {"footway": "crossing", "highway": "footway", "lit": "24/7", "surface": "asphalt"}}, {"type": "way", "id": 714623621, "nodes": [6717442644, 2095715890, 6717371484, 9471644611, 6834324016], "tags": {"footway": "sidewalk", "highway": "footway", "lit": "24/7", "surface": "paving_stones", "tunnel": "building_passage"}}, {"type": "way", "id": 729522939, "nodes": [6281544202, 56038254], "tags": {"cycleway:right": "no", "highway": "tertiary", "lanes": "3", "lit": "24/7", "maxheight": "4.2", "maxspeed": "40", "noname": "yes", "oneway": "yes", "shoulder": "no", "surface": "asphalt", "tunnel": "building_passage"}}, {"type": "way", "id": 729522942, "nodes": [6834324012, 6281544202], "tags": {"access": "no", "highway": "service", "name": "Calle de la Hiedra", "oneway": "yes", "psv": "yes", "source:name": "Ayuntamiento de Madrid", "source:name:date": "2016-10-27", "surface": "asphalt", "taxi": "yes", "tunnel": "building_passage"}}, {"type": "way", "id": 740777581, "nodes": [2095715881, 56039021], "tags": {"cycleway:right": "no", "highway": "tertiary", "lanes": "2", "lit": "yes", "maxspeed": "40", "name": "Calle de la Hiedra", "oneway": "yes", "source:maxspeed": "sign", "surface": "asphalt"}}, {"type": "way", "id": 740777582, "nodes": [56038251, 3463280830], "tags": {"cycleway:right": "no", "highway": "tertiary", "lanes": "3", "lit": "yes", "maxspeed": "40", "name": "Calle de la Hiedra", "oneway": "yes", "source:maxspeed": "sign", "surface": "asphalt"}}, {"type": "way", "id": 740786285, "nodes": [6935540320, 6935540321, 6834324014], "tags": {"footway": "sidewalk", "highway": "footway", "lit": "24/7", "surface": "asphalt", "tunnel": "building_passage"}}, {"type": "way", "id": 740786288, "nodes": [6935540322, 6935540323], "tags": {"footway": "sidewalk", "highway": "footway", "lit": "24/7", "tunnel": "building_passage"}}, {"type": "way", "id": 759273852, "nodes": [6834324014, 6717442587, 6834324015], "tags": {"footway": "sidewalk", "highway": "footway", "lit": "24/7", "surface": "paving_stones", "tunnel": "building_passage"}}, {"type": "way", "id": 759273854, "nodes": [2095715890, 6834324018, 6834324017, 6834324014], "tags": {"footway": "crossing", "highway": "footway", "lit": "24/7", "surface": "asphalt", "tunnel": "building_passage"}}, {"type": "way", "id": 907548423, "nodes": [1493669260, 3463280831], "tags": {"cycleway:right": "no", "highway": "tertiary", "lanes": "3", "lit": "24/7", "maxheight": "4.2", "maxspeed": "40", "noname": "yes", "oneway": "yes", "shoulder": "no", "surface": "asphalt", "tunnel": "building_passage"}}, {"type": "way", "id": 942108827, "nodes": [56039021, 8724259248], "tags": {"cycleway:right": "no", "highway": "construction", "lanes": "2", "lit": "yes", "maxspeed": "50", "name": "Calle de la Hiedra", "oneway": "yes", "source:maxspeed": "sign", "surface": "asphalt"}}, {"type": "way", "id": 1027386679, "nodes": [6834324015, 6834324020, 6834324019, 6834324016], "tags": {"footway": "crossing", "highway": "footway", "lit": "24/7", "surface": "asphalt", "tunnel": "building_passage"}}, {"type": "way", "id": 1027386681, "nodes": [6717442646, 6717442588, 9471644609], "tags": {"footway": "sidewalk", "highway": "footway", "lit": "yes", "surface": "paving_stones"}}]}