{"version": 0.6, "generator": "Overpass API 0.7.62.5 1bd436f1", "osm3s": {"timestamp_osm_base": "2025-03-23T10:52:59Z", "copyright": "The data included in this document is from www.openstreetmap.org. The data is made available under ODbL."}, "elements": [{"type": "node", "id": 21734219, "lat": 40.4172234, "lon": -3.7031381, "tags": {"source": "yahoo_maps"}}, {"type": "node", "id": 21734220, "lat": 40.4172383, "lon": -3.7035682, "tags": {"source": "yahoo_maps"}}, {"type": "node", "id": 21960415, "lat": 40.4177045, "lon": -3.7034823, "tags": {"source": "yahoo_maps"}}, {"type": "node", "id": 21960421, "lat": 40.4184174, "lon": -3.7030558, "tags": {"source": "yahoo_maps"}}, {"type": "node", "id": 21960432, "lat": 40.4180631, "lon": -3.7025894, "tags": {"source": "yahoo_maps"}}, {"type": "node", "id": 21960445, "lat": 40.4182329, "lon": -3.7024955, "tags": {"source": "yahoo_maps"}}, {"type": "node", "id": 21960491, "lat": 40.4187494, "lon": -3.703753, "tags": {"source": "yahoo_maps"}}, {"type": "node", "id": 21960681, "lat": 40.4194164, "lon": -3.7044072, "tags": {"source": "yahoo_maps"}}, {"type": "node", "id": 21960737, "lat": 40.41883, "lon": -3.7037165, "tags": {"source": "yahoo_maps"}}, {"type": "node", "id": 21969828, "lat": 40.4185241, "lon": -3.6995814, "tags": {"source": "yahoo_maps"}}, {"type": "node", "id": 25906640, "lat": 40.4196259, "lon": -3.7014761, "tags": {"source": "yahoo_maps"}}, {"type": "node", "id": 25906642, "lat": 40.4181007, "lon": -3.7022447, "tags": {"source": "yahoo_maps"}}, {"type": "node", "id": 25906643, "lat": 40.4183332, "lon": -3.7012157}, {"type": "node", "id": 25906774, "lat": 40.419113, "lon": -3.7034382, "tags": {"source": "yahoo_maps"}}, {"type": "node", "id": 25906777, "lat": 40.4185396, "lon": -3.703026, "tags": {"source": "yahoo_maps"}}, {"type": "node", "id": 25906778, "lat": 40.4185954, "lon": -3.7030535, "tags": {"source": "yahoo_maps"}}, {"type": "node", "id": 25906779, "lat": 40.4187754, "lon": -3.7034849, "tags": {"source": "yahoo_maps"}}, {"type": "node", "id": 25906785, "lat": 40.4188902, "lon": -3.702734, "tags": {"source": "yahoo_maps"}}, {"type": "node", "id": 25907052, "lat": 40.4195804, "lon": -3.7030849, "tags": {"source": "yahoo_maps"}}, {"type": "node", "id": 25907102, "lat": 40.4191679, "lon": -3.7041298, "tags": {"source": "yahoo_maps"}}, {"type": "node", "id": 26066614, "lat": 40.4201142, "lon": -3.7030162, "tags": {"highway": "traffic_signals", "source": "yahoo_maps"}}, {"type": "node", "id": 184049246, "lat": 40.41961, "lon": -3.705508}, {"type": "node", "id": 184049247, "lat": 40.418919, "lon": -3.7049815}, {"type": "node", "id": 344923509, "lat": 40.4186092, "lon": -3.7031858, "tags": {"access": "yes", "amenity": "parking", "fee": "yes", "layer": "-1", "name": "Aparcamiento Plaza del Carmen", "parking": "underground"}}, {"type": "node", "id": 390826838, "lat": 40.4192227, "lon": -3.7029793}, {"type": "node", "id": 390826839, "lat": 40.4178485, "lon": -3.7021918}, {"type": "node", "id": 534586126, "lat": 40.4193307, "lon": -3.7032874}, {"type": "node", "id": 534950139, "lat": 40.418433, "lon": -3.7030939}, {"type": "node", "id": 929294354, "lat": 40.4172722, "lon": -3.7020569, "tags": {"barrier": "lift_gate"}}, {"type": "node", "id": 1276929187, "lat": 40.4192543, "lon": -3.7051059}, {"type": "node", "id": 1632020533, "lat": 40.4188878, "lon": -3.7048243, "tags": {"addr:city": "Madrid", "addr:housenumber": "22", "addr:postcode": "28013", "addr:street": "Calle del Carmen", "entrance": "main"}}, {"type": "node", "id": 1632020535, "lat": 40.4187155, "lon": -3.7048234, "tags": {"addr:city": "Madrid", "addr:housenumber": "25", "addr:postcode": "28013", "addr:street": "Calle del Carmen", "entrance": "main", "source": "survey"}}, {"type": "node", "id": 1632020536, "lat": 40.4187768, "lon": -3.7048755, "tags": {"addr:city": "Madrid", "addr:housenumber": "27", "addr:postcode": "28013", "addr:street": "Calle del Carmen", "entrance": "main", "source": "survey"}}, {"type": "node", "id": 1632020540, "lat": 40.4181889, "lon": -3.7042329}, {"type": "node", "id": 1632020544, "lat": 40.418328, "lon": -3.7043742}, {"type": "node", "id": 1632020546, "lat": 40.4183928, "lon": -3.7043}, {"type": "node", "id": 1632020547, "lat": 40.4184232, "lon": -3.7044913}, {"type": "node", "id": 1632020550, "lat": 40.4185073, "lon": -3.7044343}, {"type": "node", "id": 1632020552, "lat": 40.4185507, "lon": -3.7046487}, {"type": "node", "id": 1632020554, "lat": 40.4186008, "lon": -3.7045426}, {"type": "node", "id": 1632020556, "lat": 40.4185884, "lon": -3.7046943}, {"type": "node", "id": 1632020566, "lat": 40.418694, "lon": -3.7046639}, {"type": "node", "id": 1632020569, "lat": 40.418686, "lon": -3.7047908}, {"type": "node", "id": 1632020572, "lat": 40.4187528, "lon": -3.7047234}, {"type": "node", "id": 1632020574, "lat": 40.4187328, "lon": -3.7048426}, {"type": "node", "id": 1632020580, "lat": 40.4188205, "lon": -3.7038295}, {"type": "node", "id": 1632020581, "lat": 40.418803, "lon": -3.7048949}, {"type": "node", "id": 1632020582, "lat": 40.4188418, "lon": -3.7047878}, {"type": "node", "id": 1632020587, "lat": 40.418896, "lon": -3.7048308}, {"type": "node", "id": 1716935252, "lat": 40.4193061, "lon": -3.7032312}, {"type": "node", "id": 1782593932, "lat": 40.4172275, "lon": -3.7031342}, {"type": "node", "id": 1782593935, "lat": 40.4172322, "lon": -3.7036441, "tags": {"camera:direction": "355", "camera:mount": "wall", "camera:type": "dome", "man_made": "surveillance", "surveillance": "public", "surveillance:type": "camera", "surveillance:zone": "area"}}, {"type": "node", "id": 1782593942, "lat": 40.4172413, "lon": -3.7034857}, {"type": "node", "id": 1782593949, "lat": 40.4173576, "lon": -3.7030658}, {"type": "node", "id": 1782593964, "lat": 40.4172474, "lon": -3.7034921}, {"type": "node", "id": 1782593966, "lat": 40.4173737, "lon": -3.7035237}, {"type": "node", "id": 1782593985, "lat": 40.4174328, "lon": -3.7030255}, {"type": "node", "id": 1782593987, "lat": 40.4174863, "lon": -3.7037088}, {"type": "node", "id": 1782593994, "lat": 40.4175484, "lon": -3.703567}, {"type": "node", "id": 1782593999, "lat": 40.4175864, "lon": -3.7035444}, {"type": "node", "id": 1782594007, "lat": 40.4175942, "lon": -3.7029311}, {"type": "node", "id": 1782594022, "lat": 40.4176138, "lon": -3.7034926}, {"type": "node", "id": 1782594045, "lat": 40.4176585, "lon": -3.7034411}, {"type": "node", "id": 1782594054, "lat": 40.4177018, "lon": -3.7028741}, {"type": "node", "id": 1782594058, "lat": 40.4177246, "lon": -3.703404}, {"type": "node", "id": 1782594065, "lat": 40.4178515, "lon": -3.7027934}, {"type": "node", "id": 1782594070, "lat": 40.4178598, "lon": -3.703331}, {"type": "node", "id": 1782594109, "lat": 40.4180344, "lon": -3.7026921}, {"type": "node", "id": 1782594111, "lat": 40.4180093, "lon": -3.7032431}, {"type": "node", "id": 1782594125, "lat": 40.4180962, "lon": -3.7031919}, {"type": "node", "id": 1782594131, "lat": 40.4181423, "lon": -3.7026325}, {"type": "node", "id": 1782594138, "lat": 40.4181969, "lon": -3.7026021}, {"type": "node", "id": 1782594144, "lat": 40.4182494, "lon": -3.7030979}, {"type": "node", "id": 1782594167, "lat": 40.4182514, "lon": -3.7031019}, {"type": "node", "id": 1782594169, "lat": 40.418318, "lon": -3.7030624}, {"type": "node", "id": 1782594171, "lat": 40.4183336, "lon": -3.7030152}, {"type": "node", "id": 2601026859, "lat": 40.4176277, "lon": -3.7037578}, {"type": "node", "id": 2601026895, "lat": 40.4177916, "lon": -3.7038778}, {"type": "node", "id": 2601026955, "lat": 40.4180568, "lon": -3.7041026}, {"type": "node", "id": 2601026964, "lat": 40.418116, "lon": -3.7041647}, {"type": "node", "id": 2603326146, "lat": 40.4171919, "lon": -3.7029787}, {"type": "node", "id": 2603326150, "lat": 40.4172, "lon": -3.7029845}, {"type": "node", "id": 2603326162, "lat": 40.4172442, "lon": -3.7034904}, {"type": "node", "id": 2603326176, "lat": 40.4173164, "lon": -3.7030874}, {"type": "node", "id": 2603326199, "lat": 40.4173811, "lon": -3.7028869}, {"type": "node", "id": 2603326205, "lat": 40.4174304, "lon": -3.7030197}, {"type": "node", "id": 2603326213, "lat": 40.4174685, "lon": -3.7028398}, {"type": "node", "id": 2603326254, "lat": 40.4177267, "lon": -3.7034146}, {"type": "node", "id": 2620439833, "lat": 40.4175322, "lon": -3.7028058}, {"type": "node", "id": 2620439834, "lat": 40.4175938, "lon": -3.7027728}, {"type": "node", "id": 2620439837, "lat": 40.4176763, "lon": -3.7035683}, {"type": "node", "id": 2620439838, "lat": 40.417686, "lon": -3.703622}, {"type": "node", "id": 2620439839, "lat": 40.4177076, "lon": -3.7027112}, {"type": "node", "id": 2620439841, "lat": 40.4177153, "lon": -3.7035274}, {"type": "node", "id": 2620439846, "lat": 40.4178066, "lon": -3.7026579}, {"type": "node", "id": 2620439849, "lat": 40.4178343, "lon": -3.7037336}, {"type": "node", "id": 2620439851, "lat": 40.4178875, "lon": -3.7026144}, {"type": "node", "id": 2620439853, "lat": 40.4179045, "lon": -3.7034185}, {"type": "node", "id": 2620439861, "lat": 40.4179444, "lon": -3.702585}, {"type": "node", "id": 2620439872, "lat": 40.4180284, "lon": -3.703347}, {"type": "node", "id": 2620439874, "lat": 40.4180443, "lon": -3.7025288}, {"type": "node", "id": 2620439878, "lat": 40.4180535, "lon": -3.7038951}, {"type": "node", "id": 2620439879, "lat": 40.4180633, "lon": -3.7038799}, {"type": "node", "id": 2620439905, "lat": 40.4182584, "lon": -3.7032136}, {"type": "node", "id": 2620439929, "lat": 40.4183232, "lon": -3.7042082}, {"type": "node", "id": 2620439938, "lat": 40.4183529, "lon": -3.7031603}, {"type": "node", "id": 2620439940, "lat": 40.4183923, "lon": -3.703181}, {"type": "node", "id": 2620439947, "lat": 40.4185237, "lon": -3.7034929}, {"type": "node", "id": 2620439949, "lat": 40.4186646, "lon": -3.70383}, {"type": "node", "id": 2622900849, "lat": 40.4185541, "lon": -3.7044885, "tags": {"addr:city": "Madrid", "addr:housenumber": "14", "addr:postcode": "28013", "addr:street": "Calle del Carmen", "entrance": "main", "source": "survey"}}, {"type": "node", "id": 2622900850, "lat": 40.4186386, "lon": -3.7046131, "tags": {"addr:city": "Madrid", "addr:housenumber": "16", "addr:postcode": "28013", "addr:street": "Calle del Carmen", "entrance": "main", "source": "survey"}}, {"type": "node", "id": 2622900851, "lat": 40.4183748, "lon": -3.7044318, "tags": {"addr:city": "Madrid", "addr:housenumber": "17", "addr:postcode": "28013", "addr:street": "Calle del Carmen", "entrance": "main", "source": "survey"}}, {"type": "node", "id": 2622900918, "lat": 40.4179147, "lon": -3.7039705}, {"type": "node", "id": 2622900922, "lat": 40.4180253, "lon": -3.7040699}, {"type": "node", "id": 2627770598, "lat": 40.4181057, "lon": -3.7025069}, {"type": "node", "id": 2627770604, "lat": 40.418297, "lon": -3.702401}, {"type": "node", "id": 2709861731, "lat": 40.4195019, "lon": -3.7019539}, {"type": "node", "id": 2709861734, "lat": 40.4198435, "lon": -3.7018003}, {"type": "node", "id": 2709861738, "lat": 40.4198613, "lon": -3.7018068}, {"type": "node", "id": 2709861740, "lat": 40.4198728, "lon": -3.701821}, {"type": "node", "id": 2709861741, "lat": 40.4198779, "lon": -3.7018338}, {"type": "node", "id": 2709861760, "lat": 40.419367, "lon": -3.7020202}, {"type": "node", "id": 2709861775, "lat": 40.4192369, "lon": -3.7020845}, {"type": "node", "id": 2709861778, "lat": 40.4191643, "lon": -3.70212}, {"type": "node", "id": 2709861786, "lat": 40.4190652, "lon": -3.7021685}, {"type": "node", "id": 2709861792, "lat": 40.4188224, "lon": -3.7022877}, {"type": "node", "id": 2709861795, "lat": 40.4187806, "lon": -3.702795}, {"type": "node", "id": 2709861797, "lat": 40.4186138, "lon": -3.7023895}, {"type": "node", "id": 2709861798, "lat": 40.41845, "lon": -3.7029532}, {"type": "node", "id": 2709861801, "lat": 40.4183144, "lon": -3.7025459}, {"type": "node", "id": 2709861806, "lat": 40.4190171, "lon": -3.7030618}, {"type": "node", "id": 2709875768, "lat": 40.4198895, "lon": -3.7012654}, {"type": "node", "id": 2709875785, "lat": 40.4194996, "lon": -3.7015801}, {"type": "node", "id": 2709875792, "lat": 40.4195863, "lon": -3.7014908}, {"type": "node", "id": 2709875794, "lat": 40.4195768, "lon": -3.7015202}, {"type": "node", "id": 2709875795, "lat": 40.4194032, "lon": -3.7016535}, {"type": "node", "id": 2709875799, "lat": 40.4192895, "lon": -3.7017421}, {"type": "node", "id": 2959314663, "lat": 40.4184795, "lon": -3.7029363}, {"type": "node", "id": 2959314665, "lat": 40.418489, "lon": -3.7029639}, {"type": "node", "id": 3037720921, "lat": 40.4190261, "lon": -3.7049295}, {"type": "node", "id": 3037720931, "lat": 40.4192062, "lon": -3.7050683}, {"type": "node", "id": 3234843748, "lat": 40.418457, "lon": -3.7024829, "tags": {"addr:city": "Madrid", "addr:housenumber": "25", "addr:postcode": "28013", "addr:street": "Calle de la Montera", "entrance": "main"}}, {"type": "node", "id": 3234843749, "lat": 40.4187505, "lon": -3.7023234, "tags": {"addr:city": "Madrid", "addr:housenumber": "29", "addr:postcode": "28013", "addr:street": "Calle de la Montera", "entrance": "main"}}, {"type": "node", "id": 3234843750, "lat": 40.4188801, "lon": -3.7022596, "tags": {"addr:city": "Madrid", "addr:housenumber": "33", "addr:postcode": "28013", "addr:street": "Calle de la Montera", "entrance": "main"}}, {"type": "node", "id": 3234843751, "lat": 40.4190031, "lon": -3.7021995, "tags": {"addr:city": "Madrid", "addr:housenumber": "35", "addr:postcode": "28013", "addr:street": "Calle de la Montera", "entrance": "main"}}, {"type": "node", "id": 3234843752, "lat": 40.4190466, "lon": -3.7021774, "tags": {"addr:city": "Madrid", "addr:housenumber": "37", "addr:postcode": "28013", "addr:street": "Calle de la Montera", "entrance": "main"}}, {"type": "node", "id": 3234843753, "lat": 40.419108, "lon": -3.7021476, "tags": {"addr:city": "Madrid", "addr:housenumber": "39", "addr:postcode": "28013", "addr:street": "Calle de la Montera", "entrance": "main"}}, {"type": "node", "id": 3234843754, "lat": 40.4191803, "lon": -3.7021124, "tags": {"addr:city": "Madrid", "addr:housenumber": "41", "addr:postcode": "28013", "addr:street": "Calle de la Montera", "entrance": "main"}}, {"type": "node", "id": 3234843755, "lat": 40.4193463, "lon": -3.7016978, "tags": {"addr:city": "Madrid", "addr:housenumber": "42", "addr:postcode": "28013", "addr:street": "Calle de la Montera", "entrance": "main"}}, {"type": "node", "id": 3234843756, "lat": 40.4192741, "lon": -3.7020661, "tags": {"addr:city": "Madrid", "addr:housenumber": "43", "addr:postcode": "28013", "addr:street": "Calle de la Montera", "amenity": "bureau_de_change", "entrance": "main", "name": "euroExchange", "opening_hours": "Mo-Su 09:00-22:00"}}, {"type": "node", "id": 3234843757, "lat": 40.4194803, "lon": -3.7015948, "tags": {"addr:city": "Madrid", "addr:housenumber": "44", "addr:postcode": "28013", "addr:street": "Calle de la Montera", "entrance": "main"}}, {"type": "node", "id": 3234843758, "lat": 40.4194441, "lon": -3.7019829, "tags": {"addr:city": "Madrid", "addr:housenumber": "45", "addr:postcode": "28013", "addr:street": "Calle de la Montera", "entrance": "main"}}, {"type": "node", "id": 3234843759, "lat": 40.4196584, "lon": -3.7018832, "tags": {"addr:city": "Madrid", "addr:housenumber": "47", "addr:postcode": "28013", "addr:street": "Calle de la Montera", "entrance": "main"}}, {"type": "node", "id": 3235326688, "lat": 40.4182859, "lon": -3.7023062}, {"type": "node", "id": 3235326714, "lat": 40.4184958, "lon": -3.7044461}, {"type": "node", "id": 3235326730, "lat": 40.4185752, "lon": -3.7021566}, {"type": "node", "id": 3235326736, "lat": 40.4185886, "lon": -3.704555}, {"type": "node", "id": 3235326755, "lat": 40.4186886, "lon": -3.7046712}, {"type": "node", "id": 3235339684, "lat": 40.4189193, "lon": -3.7048477}, {"type": "node", "id": 3235339691, "lat": 40.4189362, "lon": -3.7037127}, {"type": "node", "id": 3235339710, "lat": 40.4191014, "lon": -3.7035433}, {"type": "node", "id": 3244676819, "lat": 40.419321, "lon": -3.7051585}, {"type": "node", "id": 3254549718, "lat": 40.4179329, "lon": -3.7027488}, {"type": "node", "id": 3254549719, "lat": 40.4179835, "lon": -3.702721}, {"type": "node", "id": 3254549724, "lat": 40.4181392, "lon": -3.7031575}, {"type": "node", "id": 3254549725, "lat": 40.418142, "lon": -3.7031652}, {"type": "node", "id": 3254549728, "lat": 40.4182106, "lon": -3.703116}, {"type": "node", "id": 3254944784, "lat": 40.4185773, "lon": -3.7022231}, {"type": "node", "id": 3254944808, "lat": 40.418675, "lon": -3.7021684}, {"type": "node", "id": 3254944819, "lat": 40.4187113, "lon": -3.7021478}, {"type": "node", "id": 3254944834, "lat": 40.4187648, "lon": -3.7020536}, {"type": "node", "id": 3254944836, "lat": 40.4187679, "lon": -3.7021165}, {"type": "node", "id": 3254944857, "lat": 40.418884, "lon": -3.7019951}, {"type": "node", "id": 3254944861, "lat": 40.4189148, "lon": -3.7019803}, {"type": "node", "id": 3257430332, "lat": 40.4190965, "lon": -3.703533}, {"type": "node", "id": 3257430333, "lat": 40.4191892, "lon": -3.7034574}, {"type": "node", "id": 3315570752, "lat": 40.4191061, "lon": -3.7049912, "tags": {"addr:city": "Madrid", "addr:housenumber": "26", "addr:postcode": "28013", "addr:street": "Calle del Carmen", "entrance": "main"}}, {"type": "node", "id": 3315570754, "lat": 40.4182749, "lon": -3.7043203, "tags": {"addr:city": "Madrid", "addr:housenumber": "15", "addr:postcode": "28013", "addr:street": "Calle del Carmen", "entrance": "main", "source": "survey"}}, {"type": "node", "id": 3315570755, "lat": 40.4187248, "lon": -3.7046948, "tags": {"addr:city": "Madrid", "addr:housenumber": "18", "addr:postcode": "28013", "addr:street": "Calle del Carmen", "entrance": "main", "source": "survey"}}, {"type": "node", "id": 3315570756, "lat": 40.4184862, "lon": -3.7045691, "tags": {"addr:city": "Madrid", "addr:housenumber": "19", "addr:postcode": "28013", "addr:street": "Calle del Carmen", "entrance": "main", "source": "survey"}}, {"type": "node", "id": 3315570757, "lat": 40.4188109, "lon": -3.7047655, "tags": {"addr:city": "Madrid", "addr:housenumber": "20", "addr:postcode": "28013", "addr:street": "Calle del Carmen", "entrance": "main", "source": "survey"}}, {"type": "node", "id": 3315570758, "lat": 40.4185782, "lon": -3.7046821, "tags": {"addr:city": "Madrid", "addr:housenumber": "21", "addr:postcode": "28013", "addr:street": "Calle del Carmen", "entrance": "main", "source": "survey"}}, {"type": "node", "id": 3315570759, "lat": 40.4186568, "lon": -3.704762, "tags": {"addr:city": "Madrid", "addr:housenumber": "23", "addr:postcode": "28013", "addr:street": "Calle del Carmen", "entrance": "main", "source": "survey"}}, {"type": "node", "id": 3315570760, "lat": 40.4174758, "lon": -3.7035493, "tags": {"addr:city": "Madrid", "addr:housenumber": "4", "addr:postcode": "28013", "addr:street": "Calle del Carmen", "entrance": "main", "source": "survey"}}, {"type": "node", "id": 3315586561, "lat": 40.4177549, "lon": -3.7038509, "tags": {"addr:city": "Madrid", "addr:housenumber": "5", "addr:postcode": "28013", "addr:street": "Calle del Carmen", "entrance": "main", "source": "survey"}}, {"type": "node", "id": 3315586562, "lat": 40.4177628, "lon": -3.7036799, "tags": {"addr:city": "Madrid", "addr:housenumber": "6", "addr:postcode": "28013", "addr:street": "Calle del Carmen", "entrance": "main", "source": "survey"}}, {"type": "node", "id": 3315586563, "lat": 40.4178478, "lon": -3.7039201, "tags": {"addr:city": "Madrid", "addr:housenumber": "7", "addr:postcode": "28013", "addr:street": "Calle del Carmen", "entrance": "main", "source": "survey"}}, {"type": "node", "id": 3315586564, "lat": 40.4179352, "lon": -3.703808, "tags": {"addr:city": "Madrid", "addr:housenumber": "8", "addr:postcode": "28013", "addr:street": "Calle del Carmen", "entrance": "main", "source": "survey"}}, {"type": "node", "id": 3315586565, "lat": 40.4179693, "lon": -3.7040195, "tags": {"addr:city": "Madrid", "addr:housenumber": "9", "addr:postcode": "28013", "addr:street": "Calle del Carmen", "entrance": "main", "source": "survey"}}, {"type": "node", "id": 3387932318, "lat": 40.4190977, "lon": -3.7051141}, {"type": "node", "id": 3387932320, "lat": 40.4191319, "lon": -3.7051407}, {"type": "node", "id": 3387932329, "lat": 40.419344, "lon": -3.7053051}, {"type": "node", "id": 3387932330, "lat": 40.419346, "lon": -3.7053}, {"type": "node", "id": 3387932333, "lat": 40.4194125, "lon": -3.7053515}, {"type": "node", "id": 3387932334, "lat": 40.4194133, "lon": -3.70535}, {"type": "node", "id": 3387932361, "lat": 40.4195662, "lon": -3.7054699}, {"type": "node", "id": 3387932389, "lat": 40.4196097, "lon": -3.7055094}, {"type": "node", "id": 3387932894, "lat": 40.4196271, "lon": -3.7055239}, {"type": "node", "id": 3387944869, "lat": 40.419216, "lon": -3.7052059}, {"type": "node", "id": 3411942226, "lat": 40.4196476, "lon": -3.7054759}, {"type": "node", "id": 3411942227, "lat": 40.4196666, "lon": -3.705431}, {"type": "node", "id": 3411968694, "lat": 40.4189511, "lon": -3.7048721}, {"type": "node", "id": 3412466778, "lat": 40.4183554, "lon": -3.7042507}, {"type": "node", "id": 3412467103, "lat": 40.4187171, "lon": -3.7048251}, {"type": "node", "id": 3412475623, "lat": 40.4184039, "lon": -3.7044676}, {"type": "node", "id": 3412477711, "lat": 40.418152, "lon": -3.704198}, {"type": "node", "id": 3412512763, "lat": 40.4180404, "lon": -3.7040856, "tags": {"addr:city": "Madrid", "addr:housenumber": "11", "addr:postcode": "28013", "addr:street": "Calle del Carmen", "entrance": "main", "source": "survey"}}, {"type": "node", "id": 3412512764, "lat": 40.4175686, "lon": -3.703724}, {"type": "node", "id": 3412512765, "lat": 40.4176277, "lon": -3.7035827}, {"type": "node", "id": 3412512772, "lat": 40.4177285, "lon": -3.7038316}, {"type": "node", "id": 3412523838, "lat": 40.4176426, "lon": -3.7034557}, {"type": "node", "id": 3412532924, "lat": 40.4186955, "lon": -3.7038743}, {"type": "node", "id": 3412532925, "lat": 40.418732, "lon": -3.7039268}, {"type": "node", "id": 3412532926, "lat": 40.4187973, "lon": -3.703734}, {"type": "node", "id": 3412532927, "lat": 40.4188598, "lon": -3.7037925}, {"type": "node", "id": 3412532928, "lat": 40.4188682, "lon": -3.703814, "tags": {"crossing": "uncontrolled", "highway": "crossing", "tactile_paving": "no"}}, {"type": "node", "id": 3412532929, "lat": 40.4191276, "lon": -3.7029836}, {"type": "node", "id": 3412532930, "lat": 40.4191767, "lon": -3.7029482}, {"type": "node", "id": 3412532931, "lat": 40.4192469, "lon": -3.7030457}, {"type": "node", "id": 3412532933, "lat": 40.4193482, "lon": -3.7033277}, {"type": "node", "id": 3412546847, "lat": 40.4189067, "lon": -3.7022466}, {"type": "node", "id": 3413025226, "lat": 40.4177329, "lon": -3.7028574, "tags": {"addr:city": "Madrid", "addr:housenumber": "11", "addr:postcode": "28013", "addr:street": "Calle de la Montera", "entrance": "main", "source": "survey"}}, {"type": "node", "id": 3413025227, "lat": 40.4178074, "lon": -3.7028173, "tags": {"addr:city": "Madrid", "addr:housenumber": "13", "addr:postcode": "28013", "addr:street": "Calle de la Montera", "entrance": "main", "source": "survey"}}, {"type": "node", "id": 3413025228, "lat": 40.4178951, "lon": -3.7027695, "tags": {"addr:city": "Madrid", "addr:housenumber": "15", "addr:postcode": "28013", "addr:street": "Calle de la Montera", "entrance": "main", "source": "survey"}}, {"type": "node", "id": 3413025229, "lat": 40.4180089, "lon": -3.7027066, "tags": {"addr:city": "Madrid", "addr:housenumber": "19", "addr:postcode": "28013", "addr:street": "Calle de la Montera", "entrance": "main", "source": "survey"}}, {"type": "node", "id": 3413025230, "lat": 40.4176665, "lon": -3.7034359, "tags": {"addr:city": "Madrid", "addr:housenumber": "20", "addr:postcode": "28013", "addr:street": "Calle de Tetu\u00e1n", "entrance": "main", "source": "survey"}}, {"type": "node", "id": 3413025231, "lat": 40.4179188, "lon": -3.703296, "tags": {"addr:city": "Madrid", "addr:housenumber": "26", "addr:postcode": "28013", "addr:street": "Calle de Tetu\u00e1n", "entrance": "main", "source": "survey"}}, {"type": "node", "id": 3413025232, "lat": 40.41781, "lon": -3.7034728, "tags": {"addr:city": "Madrid", "addr:housenumber": "21", "addr:postcode": "28013", "addr:street": "Calle de Tetu\u00e1n", "entrance": "main", "source": "survey"}}, {"type": "node", "id": 3413025233, "lat": 40.4180793, "lon": -3.7026673, "tags": {"addr:city": "Madrid", "addr:housenumber": "21", "addr:postcode": "28013", "addr:street": "Calle de la Montera", "entrance": "main", "source": "survey"}}, {"type": "node", "id": 3413025234, "lat": 40.4179694, "lon": -3.7033814, "tags": {"addr:city": "Madrid", "addr:housenumber": "23", "addr:postcode": "28013", "addr:street": "Calle de Tetu\u00e1n", "entrance": "main", "source": "survey"}}, {"type": "node", "id": 3413025235, "lat": 40.4177977, "lon": -3.70337, "tags": {"addr:city": "Madrid", "addr:housenumber": "24", "addr:postcode": "28013", "addr:street": "Calle de Tetu\u00e1n", "entrance": "main", "source": "survey"}}, {"type": "node", "id": 3413025237, "lat": 40.4180478, "lon": -3.70322, "tags": {"addr:city": "Madrid", "addr:housenumber": "30", "addr:postcode": "28013", "addr:street": "Calle de Tetu\u00e1n", "entrance": "main", "source": "survey"}}, {"type": "node", "id": 3413025238, "lat": 40.4181091, "lon": -3.7031846, "tags": {"addr:city": "Madrid", "addr:housenumber": "32", "addr:postcode": "28013", "addr:street": "Calle de Tetu\u00e1n", "entrance": "main", "source": "survey"}}, {"type": "node", "id": 3413025239, "lat": 40.4181619, "lon": -3.7031442, "tags": {"addr:city": "Madrid", "addr:housenumber": "34", "addr:postcode": "28013", "addr:street": "Calle de Tetu\u00e1n", "entrance": "main", "source": "survey"}}, {"type": "node", "id": 3413025240, "lat": 40.4182235, "lon": -3.70311, "tags": {"addr:city": "Madrid", "addr:housenumber": "36", "addr:postcode": "28013", "addr:street": "Calle de Tetu\u00e1n", "entrance": "main", "source": "survey"}}, {"type": "node", "id": 3413025242, "lat": 40.4173887, "lon": -3.7030491, "tags": {"addr:city": "Madrid", "addr:housenumber": "5", "addr:postcode": "28013", "addr:street": "Calle de la Montera", "entrance": "main", "source": "survey"}}, {"type": "node", "id": 3413025243, "lat": 40.4175212, "lon": -3.7029706, "tags": {"addr:city": "Madrid", "addr:housenumber": "7", "addr:postcode": "28013", "addr:street": "Calle de la Montera", "entrance": "main", "source": "survey"}}, {"type": "node", "id": 3413025244, "lat": 40.4176531, "lon": -3.7028999, "tags": {"addr:city": "Madrid", "addr:housenumber": "9", "addr:postcode": "28013", "addr:street": "Calle de la Montera", "entrance": "main", "source": "survey"}}, {"type": "node", "id": 3413025251, "lat": 40.4177608, "lon": -3.7028424}, {"type": "node", "id": 3413025268, "lat": 40.4179497, "lon": -3.703278}, {"type": "node", "id": 3413063108, "lat": 40.4184301, "lon": -3.7024852}, {"type": "node", "id": 3413063109, "lat": 40.4184326, "lon": -3.7024958}, {"type": "node", "id": 3413063110, "lat": 40.4184976, "lon": -3.7024503}, {"type": "node", "id": 3413063111, "lat": 40.418501, "lon": -3.7024597}, {"type": "node", "id": 3413063116, "lat": 40.4189809, "lon": -3.7024092}, {"type": "node", "id": 3413063117, "lat": 40.4189858, "lon": -3.702208}, {"type": "node", "id": 3413063119, "lat": 40.4190145, "lon": -3.7021937}, {"type": "node", "id": 3413063130, "lat": 40.4191439, "lon": -3.7027668}, {"type": "node", "id": 3414873427, "lat": 40.4183598, "lon": -3.703091, "tags": {"crossing": "uncontrolled", "crossing:island": "no", "crossing:markings": "no", "highway": "crossing", "tactile_paving": "no"}}, {"type": "node", "id": 3429275120, "lat": 40.4196352, "lon": -3.7030533}, {"type": "node", "id": 3429275121, "lat": 40.4196835, "lon": -3.7030481}, {"type": "node", "id": 3429367511, "lat": 40.4197724, "lon": -3.7013597, "tags": {"addr:city": "Madrid", "addr:housenumber": "48", "addr:postcode": "28013", "addr:street": "Calle de la Montera", "entrance": "main"}}, {"type": "node", "id": 3429367512, "lat": 40.4182724, "lon": -3.7024146}, {"type": "node", "id": 3429367514, "lat": 40.4189432, "lon": -3.7019641}, {"type": "node", "id": 3429367515, "lat": 40.4189834, "lon": -3.7019455}, {"type": "node", "id": 3429367516, "lat": 40.4191208, "lon": -3.7018775}, {"type": "node", "id": 3429367517, "lat": 40.4191803, "lon": -3.7018342}, {"type": "node", "id": 3429367518, "lat": 40.4192454, "lon": -3.7017808}, {"type": "node", "id": 3429367523, "lat": 40.4198538, "lon": -3.7012945}, {"type": "node", "id": 3429367534, "lat": 40.4199347, "lon": -3.7012397}, {"type": "node", "id": 3429367539, "lat": 40.4200197, "lon": -3.7030218, "tags": {"button_operated": "no", "crossing": "traffic_signals", "highway": "crossing", "tactile_paving": "yes", "traffic_signals:sound": "yes", "wheelchair": "yes"}}, {"type": "node", "id": 3429401814, "lat": 40.4176798, "lon": -3.7027262, "tags": {"addr:city": "Madrid", "addr:housenumber": "12;10", "addr:postcode": "28013", "addr:street": "Calle de la Montera", "entrance": "main"}}, {"type": "node", "id": 3429401815, "lat": 40.4177583, "lon": -3.7026839, "tags": {"addr:city": "Madrid", "addr:housenumber": "14", "addr:postcode": "28013", "addr:street": "Calle de la Montera", "entrance": "main"}}, {"type": "node", "id": 3429401816, "lat": 40.4178555, "lon": -3.7026316, "tags": {"addr:city": "Madrid", "addr:housenumber": "16", "addr:postcode": "28013", "addr:street": "Calle de la Montera", "entrance": "main"}}, {"type": "node", "id": 3429401818, "lat": 40.4179718, "lon": -3.7025696, "tags": {"addr:city": "Madrid", "addr:housenumber": "20", "addr:postcode": "28013", "addr:street": "Calle de la Montera", "entrance": "main"}}, {"type": "node", "id": 3429401819, "lat": 40.4184199, "lon": -3.7022369, "tags": {"addr:city": "Madrid", "addr:housenumber": "24", "addr:postcode": "28013", "addr:street": "Calle de la Montera", "entrance": "main"}}, {"type": "node", "id": 3429401820, "lat": 40.4186262, "lon": -3.7021957, "tags": {"addr:city": "Madrid", "addr:housenumber": "26", "addr:postcode": "28013", "addr:street": "Calle de la Montera", "entrance": "main"}}, {"type": "node", "id": 3429401821, "lat": 40.4186992, "lon": -3.7021547, "tags": {"addr:city": "Madrid", "addr:housenumber": "28", "addr:postcode": "28013", "addr:street": "Calle de la Montera", "entrance": "main"}}, {"type": "node", "id": 3429401822, "lat": 40.418722, "lon": -3.702142, "tags": {"addr:city": "Madrid", "addr:housenumber": "30", "addr:postcode": "28013", "addr:street": "Calle de la Montera", "entrance": "main"}}, {"type": "node", "id": 3429401823, "lat": 40.4188244, "lon": -3.7020243, "tags": {"addr:city": "Madrid", "addr:housenumber": "32", "addr:postcode": "28013", "addr:street": "Calle de la Montera", "entrance": "main"}}, {"type": "node", "id": 3429401824, "lat": 40.4190521, "lon": -3.7019115, "tags": {"addr:city": "Madrid", "addr:housenumber": "34", "addr:postcode": "28013", "addr:street": "Calle de la Montera", "entrance": "main"}}, {"type": "node", "id": 3429401825, "lat": 40.4191506, "lon": -3.7018559, "tags": {"addr:city": "Madrid", "addr:housenumber": "36", "addr:postcode": "28013", "addr:street": "Calle de la Montera", "entrance": "main"}}, {"type": "node", "id": 3429401826, "lat": 40.4192297, "lon": -3.7017948, "tags": {"addr:city": "Madrid", "addr:housenumber": "38", "addr:postcode": "28013", "addr:street": "Calle de la Montera", "entrance": "main"}}, {"type": "node", "id": 3429401828, "lat": 40.4192718, "lon": -3.7017593, "tags": {"addr:city": "Madrid", "addr:housenumber": "40", "addr:postcode": "28013", "addr:street": "Calle de la Montera", "entrance": "main"}}, {"type": "node", "id": 3429401830, "lat": 40.4175647, "lon": -3.7027881, "tags": {"addr:city": "Madrid", "addr:housenumber": "8", "addr:postcode": "28013", "addr:street": "Calle de la Montera", "entrance": "main"}}, {"type": "node", "id": 3429401831, "lat": 40.4180708, "lon": -3.7025184}, {"type": "node", "id": 3429401832, "lat": 40.4182094, "lon": -3.7024495, "tags": {"entrance": "main"}}, {"type": "node", "id": 3429401833, "lat": 40.4182575, "lon": -3.7025731}, {"type": "node", "id": 3431845454, "lat": 40.417401, "lon": -3.7028762, "tags": {"addr:city": "Madrid", "addr:housenumber": "4", "addr:postcode": "28013", "addr:street": "Calle de la Montera", "entrance": "main"}}, {"type": "node", "id": 3506679268, "lat": 40.4187, "lon": -3.7037171}, {"type": "node", "id": 3506679269, "lat": 40.418731, "lon": -3.7038189}, {"type": "node", "id": 3644961946, "lat": 40.4174862, "lon": -3.7028303, "tags": {"addr:city": "Madrid", "addr:housenumber": "6", "addr:postcode": "28013", "addr:street": "Calle de la Montera", "entrance": "main"}}, {"type": "node", "id": 3753576443, "lat": 40.4197212, "lon": -3.7016538}, {"type": "node", "id": 3949472817, "lat": 40.418003, "lon": -3.699446}, {"type": "node", "id": 3949472820, "lat": 40.418477, "lon": -3.6995998}, {"type": "node", "id": 3949472821, "lat": 40.4184903, "lon": -3.6996217}, {"type": "node", "id": 3949472822, "lat": 40.4184987, "lon": -3.6996524}, {"type": "node", "id": 4173565966, "lat": 40.4193593, "lon": -3.7043409, "tags": {"crossing": "unmarked", "highway": "crossing", "tactile_paving": "no"}}, {"type": "node", "id": 4309740760, "lat": 40.419965, "lon": -3.7016334}, {"type": "node", "id": 4309740762, "lat": 40.4199596, "lon": -3.7014711, "tags": {"barrier": "kerb", "kerb": "flush", "tactile_paving": "yes"}}, {"type": "node", "id": 4405974035, "lat": 40.4197166, "lon": -3.7014053}, {"type": "node", "id": 4405974044, "lat": 40.419746, "lon": -3.7013817}, {"type": "node", "id": 4405974064, "lat": 40.4198246, "lon": -3.7013182}, {"type": "node", "id": 4405974065, "lat": 40.4198266, "lon": -3.7013165}, {"type": "node", "id": 5292423517, "lat": 40.4185735, "lon": -3.7031026}, {"type": "node", "id": 5292423518, "lat": 40.4188602, "lon": -3.7029073}, {"type": "node", "id": 5292423519, "lat": 40.4190379, "lon": -3.7033635}, {"type": "node", "id": 5292423520, "lat": 40.4188171, "lon": -3.7035789}, {"type": "node", "id": 5302261811, "lat": 40.4183258, "lon": -3.7042918}, {"type": "node", "id": 5302261812, "lat": 40.4176554, "lon": -3.7035287}, {"type": "node", "id": 5302261813, "lat": 40.4188627, "lon": -3.7021445}, {"type": "node", "id": 5302264623, "lat": 40.4189129, "lon": -3.7049077}, {"type": "node", "id": 5302264625, "lat": 40.4188694, "lon": -3.7049445}, {"type": "node", "id": 5302264626, "lat": 40.4188968, "lon": -3.7048958}, {"type": "node", "id": 5302264634, "lat": 40.4190148, "lon": -3.7049829}, {"type": "node", "id": 5302264635, "lat": 40.4187525, "lon": -3.7047892}, {"type": "node", "id": 5302264636, "lat": 40.4186642, "lon": -3.7047047}, {"type": "node", "id": 5302264637, "lat": 40.4181144, "lon": -3.7040521}, {"type": "node", "id": 5302264638, "lat": 40.4179757, "lon": -3.7039279}, {"type": "node", "id": 5302264639, "lat": 40.4175995, "lon": -3.70365}, {"type": "node", "id": 5302264640, "lat": 40.4172097, "lon": -3.7030631}, {"type": "node", "id": 5302264641, "lat": 40.4184448, "lon": -3.7023776}, {"type": "node", "id": 5302264642, "lat": 40.4187966, "lon": -3.7021805}, {"type": "node", "id": 5302264643, "lat": 40.4189486, "lon": -3.7020977}, {"type": "node", "id": 5302264644, "lat": 40.4191686, "lon": -3.7019768}, {"type": "node", "id": 5302264645, "lat": 40.4194757, "lon": -3.7017722}, {"type": "node", "id": 5426990620, "lat": 40.4183938, "lon": -3.7029829, "tags": {"crossing": "uncontrolled", "crossing:markings": "no", "highway": "crossing", "tactile_paving": "no"}}, {"type": "node", "id": 6109456224, "lat": 40.4199743, "lon": -3.7018208}, {"type": "node", "id": 6109456237, "lat": 40.419949, "lon": -3.701236}, {"type": "node", "id": 6109456243, "lat": 40.4199015, "lon": -3.7016358}, {"type": "node", "id": 6455528048, "lat": 40.4196725, "lon": -3.7016773}, {"type": "node", "id": 6535509924, "lat": 40.4195016, "lon": -3.7017597}, {"type": "node", "id": 6553804248, "lat": 40.4190144, "lon": -3.7036325}, {"type": "node", "id": 6553804249, "lat": 40.4192454, "lon": -3.7034109}, {"type": "node", "id": 6553804250, "lat": 40.4193142, "lon": -3.7033552}, {"type": "node", "id": 6553804268, "lat": 40.4189593, "lon": -3.7029124}, {"type": "node", "id": 6553804269, "lat": 40.418987, "lon": -3.702984}, {"type": "node", "id": 6553804270, "lat": 40.4190109, "lon": -3.7030457}, {"type": "node", "id": 6553804271, "lat": 40.4191553, "lon": -3.7029636}, {"type": "node", "id": 6553827366, "lat": 40.4171951, "lon": -3.7029838}, {"type": "node", "id": 6553827377, "lat": 40.4177254, "lon": -3.7027016}, {"type": "node", "id": 6553827378, "lat": 40.417787, "lon": -3.7026685}, {"type": "node", "id": 6553827379, "lat": 40.4181296, "lon": -3.7024937}, {"type": "node", "id": 6553827380, "lat": 40.4183808, "lon": -3.7022571}, {"type": "node", "id": 6553827381, "lat": 40.4196874, "lon": -3.7014293}, {"type": "node", "id": 6553827382, "lat": 40.4198001, "lon": -3.7013373}, {"type": "node", "id": 6553827383, "lat": 40.4198663, "lon": -3.7018117}, {"type": "node", "id": 6553827826, "lat": 40.4175242, "lon": -3.7035611}, {"type": "node", "id": 6553827828, "lat": 40.4180723, "lon": -3.7041189}, {"type": "node", "id": 6553827829, "lat": 40.4181031, "lon": -3.7041512}, {"type": "node", "id": 6553827830, "lat": 40.4182565, "lon": -3.7043016}, {"type": "node", "id": 6553827831, "lat": 40.4183389, "lon": -3.7043876}, {"type": "node", "id": 6553827832, "lat": 40.4184719, "lon": -3.7045514}, {"type": "node", "id": 6553827833, "lat": 40.4185649, "lon": -3.704666}, {"type": "node", "id": 6553827834, "lat": 40.4186434, "lon": -3.7047488}, {"type": "node", "id": 6553827836, "lat": 40.4188617, "lon": -3.7048036}, {"type": "node", "id": 6553827837, "lat": 40.4188335, "lon": -3.7047818}, {"type": "node", "id": 6553827838, "lat": 40.4189175, "lon": -3.7048464}, {"type": "node", "id": 6553827839, "lat": 40.4190426, "lon": -3.7049422}, {"type": "node", "id": 6553827840, "lat": 40.4191362, "lon": -3.7050143}, {"type": "node", "id": 6553827841, "lat": 40.4191762, "lon": -3.7050452}, {"type": "node", "id": 6553860785, "lat": 40.419347, "lon": -3.7020301}, {"type": "node", "id": 6553860786, "lat": 40.4193031, "lon": -3.7020518}, {"type": "node", "id": 6553860787, "lat": 40.4192555, "lon": -3.7020753}, {"type": "node", "id": 6553860788, "lat": 40.4192105, "lon": -3.7020975}, {"type": "node", "id": 6553860789, "lat": 40.419139, "lon": -3.7021325}, {"type": "node", "id": 6553860790, "lat": 40.4190811, "lon": -3.7021607}, {"type": "node", "id": 6553860791, "lat": 40.4190253, "lon": -3.7021882}, {"type": "node", "id": 6553860792, "lat": 40.4189925, "lon": -3.7022047}, {"type": "node", "id": 6553860793, "lat": 40.4189476, "lon": -3.7022267}, {"type": "node", "id": 6553860794, "lat": 40.4188468, "lon": -3.702276}, {"type": "node", "id": 6553860796, "lat": 40.4181688, "lon": -3.7026177}, {"type": "node", "id": 6553860797, "lat": 40.4181052, "lon": -3.702653}, {"type": "node", "id": 6553860798, "lat": 40.4180529, "lon": -3.7026819}, {"type": "node", "id": 6553860799, "lat": 40.418022, "lon": -3.7026991}, {"type": "node", "id": 6553860800, "lat": 40.4179693, "lon": -3.7027288}, {"type": "node", "id": 6553860801, "lat": 40.4179541, "lon": -3.7027371}, {"type": "node", "id": 6553860802, "lat": 40.4178711, "lon": -3.7027827}, {"type": "node", "id": 6553860803, "lat": 40.4179144, "lon": -3.7027589}, {"type": "node", "id": 6553860804, "lat": 40.4178308, "lon": -3.7028046}, {"type": "node", "id": 6553860805, "lat": 40.4177486, "lon": -3.702849}, {"type": "node", "id": 6553860806, "lat": 40.4177151, "lon": -3.702867}, {"type": "node", "id": 6553860807, "lat": 40.417472, "lon": -3.7029972}, {"type": "node", "id": 6553860808, "lat": 40.4174065, "lon": -3.7030396}, {"type": "node", "id": 6553860809, "lat": 40.4173738, "lon": -3.7030571}, {"type": "node", "id": 6553860810, "lat": 40.417336, "lon": -3.7030771}, {"type": "node", "id": 6553860811, "lat": 40.4173252, "lon": -3.7030828}, {"type": "node", "id": 6679949263, "lat": 40.4185738, "lon": -3.7034225}, {"type": "node", "id": 6679949264, "lat": 40.4189097, "lon": -3.7034507}, {"type": "node", "id": 6679949265, "lat": 40.418752, "lon": -3.703306}, {"type": "node", "id": 6679949266, "lat": 40.4186418, "lon": -3.703378}, {"type": "node", "id": 6679949267, "lat": 40.4188994, "lon": -3.7036483}, {"type": "node", "id": 6679949268, "lat": 40.4188597, "lon": -3.7035687}, {"type": "node", "id": 6679949269, "lat": 40.4188474, "lon": -3.7032804}, {"type": "node", "id": 6679949270, "lat": 40.4188091, "lon": -3.7032744}, {"type": "node", "id": 6869591586, "lat": 40.4180378, "lon": -3.6994483}, {"type": "node", "id": 7868569093, "lat": 40.4199506, "lon": -3.7018239}, {"type": "node", "id": 8071133806, "lat": 40.4199278, "lon": -3.701635}, {"type": "node", "id": 8094906096, "lat": 40.4182572, "lon": -3.7030985, "tags": {"addr:city": "Madrid", "addr:housenumber": "38", "addr:postcode": "28013", "addr:street": "Calle de Tetu\u00e1n", "entrance": "main"}}, {"type": "node", "id": 8588809551, "lat": 40.4180985, "lon": -3.7022015}, {"type": "node", "id": 8588809552, "lat": 40.4183165, "lon": -3.7012131}, {"type": "node", "id": 9029849699, "lat": 40.4181937, "lon": -3.704142}, {"type": "node", "id": 9067769834, "lat": 40.4188933, "lon": -3.7031921, "tags": {"highway": "street_lamp", "lamp_mount": "straight_mast"}}, {"type": "node", "id": 9067769837, "lat": 40.4179181, "lon": -3.7022064}, {"type": "node", "id": 12400360869, "lat": 40.4200863, "lon": -3.7030174}, {"type": "node", "id": 12413488866, "lat": 40.4185169, "lon": -3.6996466, "tags": {"crossing": "uncontrolled", "crossing:markings": "yes", "highway": "crossing"}}, {"type": "node", "id": 12511955716, "lat": 40.4198752, "lon": -3.7018263}, {"type": "node", "id": 12511955717, "lat": 40.4198699, "lon": -3.7018165}, {"type": "node", "id": 12511955718, "lat": 40.4198571, "lon": -3.7018038}, {"type": "node", "id": 12511955719, "lat": 40.4198518, "lon": -3.7018021}, {"type": "node", "id": 12511955720, "lat": 40.419848, "lon": -3.7018011}, {"type": "node", "id": 12511955721, "lat": 40.4198272, "lon": -3.701807}, {"type": "node", "id": 12511955740, "lat": 40.4198131, "lon": -3.7018133}, {"type": "node", "id": 12511955741, "lat": 40.4197748, "lon": -3.7018306}, {"type": "node", "id": 12513854423, "lat": 40.41968, "lon": -3.7018734}, {"type": "node", "id": 12513854426, "lat": 40.4196418, "lon": -3.7018907}, {"type": "node", "id": 12513854429, "lat": 40.4195498, "lon": -3.7019323}, {"type": "node", "id": 12513854432, "lat": 40.4195114, "lon": -3.7019496}, {"type": "way", "id": 4291377, "nodes": [344923509, 5292423517, 5292423518, 5292423519, 5292423520, 25906779], "tags": {"highway": "service", "layer": "-1", "lit": "24/7", "oneway": "yes", "service": "parking_aisle", "tunnel": "yes"}}, {"type": "way", "id": 4328798, "nodes": [21969828, 12413488866, 25906643, 25906642, 3429401831, 21960432], "tags": {"highway": "living_street", "lit": "yes", "maxspeed": "20", "name": "Calle de la Aduana", "oneway": "yes", "oneway:bicycle": "no", "postal_code": "28013", "sidewalk": "both", "smoothness": "good", "surface": "asphalt"}}, {"type": "way", "id": 4328801, "nodes": [21960445, 3429401833, 5426990620, 21960421], "tags": {"highway": "residential", "lit": "yes", "maxspeed": "20", "name": "Calle de San Alberto", "oneway": "yes", "oneway:bicycle": "no", "postal_code": "28013", "surface": "paving_stones"}}, {"type": "way", "id": 4328804, "nodes": [21960491, 3506679269, 3412532924, 3412466778, 5302261811], "tags": {"access": "delivery", "highway": "living_street", "lit": "yes", "name": "Calle de la Salud", "oneway": "no", "postal_code": "28013", "surface": "paving_stones", "width": "4"}}, {"type": "way", "id": 5935914, "nodes": [5302264639, 3412512765, 5302261812, 21960415, 3414873427, 21960421], "tags": {"access": "delivery", "highway": "living_street", "lit": "yes", "name": "Calle de Tetu\u00e1n", "name:etymology:wikidata": "Q5740881", "postal_code": "28013", "surface": "paving_stones"}}, {"type": "way", "id": 7642961, "nodes": [25906779, 25906778, 25906777, 534950139], "tags": {"highway": "service", "lit": "yes", "oneway": "yes", "service": "parking_aisle"}}, {"type": "way", "id": 7643016, "nodes": [929294354, 390826839], "tags": {"cycleway:both": "no", "highway": "residential", "lane_markings": "no", "lit": "yes", "motor_vehicle": "private", "name": "Pasaje de la Caja de Ahorros", "postal_code": "28013", "smoothness": "good", "surface": "paving_stones"}}, {"type": "way", "id": 31021401, "nodes": [21960737, 344923509], "tags": {"highway": "service", "lit": "yes", "oneway": "yes", "service": "parking_aisle"}}, {"type": "way", "id": 31021534, "nodes": [21960421, 534950139, 6679949263, 3506679268, 21960491], "tags": {"highway": "residential", "lit": "yes", "maxspeed": "20", "name": "Plaza del Carmen", "name:etymology:wikidata": "Q6080406", "oneway": "yes", "oneway:bicycle": "no", "postal_code": "28013", "sidewalk": "both", "surface": "paving_stones"}}, {"type": "way", "id": 31021535, "nodes": [21960491, 3412532926, 21960737], "tags": {"highway": "residential", "lit": "yes", "maxspeed": "20", "name": "Calle de la Salud", "oneway": "yes", "oneway:bicycle": "no", "postal_code": "28013", "sidewalk": "both", "surface": "paving_stones"}}, {"type": "way", "id": 41559062, "nodes": [21960432, 21960445], "tags": {"highway": "living_street", "lit": "yes", "maxspeed": "20", "name": "Calle de la Montera", "name:etymology:wikidata": "Q5740928", "oneway": "yes", "oneway:bicycle": "no", "postal_code": "28013", "smoothness": "good", "surface": "asphalt"}}, {"type": "way", "id": 80321901, "nodes": [390826839, 9067769837], "tags": {"handrail": "no", "highway": "steps", "incline": "up", "lit": "yes", "name": "Pasaje de la Caja de Ahorros", "ramp": "no", "step_count": "12", "surface": "paving_stones"}}, {"type": "way", "id": 150822159, "nodes": [21960681, 4173565966, 25907102, 3412532928, 3412532927, 21960737], "tags": {"highway": "residential", "lanes": "1", "lit": "yes", "name": "Calle Abada", "oneway": "yes", "postal_code": "28013", "surface": "asphalt"}}, {"type": "way", "id": 334156471, "nodes": [1782593966, 1782593964, 2603326162, 1782593942, 21734220, 1782593935, 1782593987, 3412512764, 2601026859, 3412512772, 3315586561, 2601026895, 3315586563, 2622900918, 3315586565, 2622900922, 3412512763, 2601026955, 6553827828, 6553827829, 2601026964, 3412477711, 1632020540, 6553827830, 3315570754, 1632020544, 6553827831, 2622900851, 3412475623, 1632020547, 6553827832, 3315570756, 1632020552, 6553827833, 3315570758, 1632020556, 6553827834, 3315570759, 1632020569, 1632020535, 3412467103, 1632020574, 1632020536, 1632020581, 5302264625, 184049247, 3387932318, 3387932320, 3387944869, 3387932329, 3387932330, 3387932333, 3387932334, 3387932361, 184049246, 3387932389, 3387932894, 3411942226, 3411942227, 3244676819, 1276929187, 3037720931, 6553827841, 6553827840, 3315570752, 6553827839, 3037720921, 3411968694, 3235339684, 6553827838, 1632020587, 1632020533, 6553827836, 1632020582, 6553827837, 3315570757, 1632020572, 3315570755, 1632020566, 3235326755, 2622900850, 3235326736, 1632020554, 2622900849, 1632020550, 3235326714, 1632020546, 3412466778, 2620439929, 2620439879, 2620439878, 3315586564, 2620439849, 3315586562, 2620439838, 3412512765, 1782593994, 6553827826, 3315570760, 1782593966], "tags": {"area": "yes", "highway": "pedestrian", "lit": "yes", "name": "Calle del Carmen", "postal_code": "28013", "smoothness": "excellent", "surface": "paving_stones", "wheelchair": "yes"}}, {"type": "way", "id": 334165985, "nodes": [390826838, 3412532930, 6553804271, 3412532929, 2709861806, 6553804270, 6553804269, 6553804268, 25906785, 2709861795, 2959314665, 2959314663, 2709861798, 5426990620, 1782594171, 3414873427, 2620439940, 2620439947, 2620439949, 3412532924, 3412532925, 1632020580, 3412532927, 3235339691, 6553804248, 3235339710, 3257430332, 3257430333, 6553804249, 6553804250, 3412532933, 534586126, 1716935252, 3412532931, 390826838], "tags": {"area": "yes", "highway": "pedestrian", "lit": "yes", "name": "Plaza del Carmen", "name:etymology:wikidata": "Q6080406", "place": "square", "postal_code": "28013", "source": "common knowledge", "surface": "paving_stones", "wikidata": "Q6080406", "wikipedia": "es:Plaza del Carmen (Madrid)"}}, {"type": "way", "id": 334373211, "nodes": [2603326254, 1782594058, 3413025230, 1782594045, 3412523838, 1782594022, 1782593999, 1782593994, 3412512765, 2620439838, 2620439837, 2620439841, 3413025232, 2620439853, 3413025234, 2620439872, 2620439905, 2620439938, 2620439940, 3414873427, 1782594171, 1782594169, 8094906096, 1782594167, 1782594144, 3413025240, 3254549728, 3413025239, 3254549724, 3254549725, 3413025238, 1782594125, 3413025237, 1782594111, 3413025268, 3413025231, 1782594070, 3413025235, 2603326254], "tags": {"area": "yes", "highway": "pedestrian", "lit": "yes", "noname": "yes", "oneway": "no", "postal_code": "28013", "surface": "paving_stones"}}, {"type": "way", "id": 335819317, "nodes": [3429367523, 4405974065, 4405974064, 6553827382, 3429367511, 4405974044, 4405974035, 6553827381, 25906640, 2709875792, 2709875794, 2709875785, 3234843757, 2709875795, 3234843755, 2709875799, 3429401828, 3429367518, 3429401826, 3429367517, 3429401825, 3429367516, 3429401824, 3429367515, 3429367514, 3254944861, 3254944857, 3429401823, 3254944834, 3254944836, 3429401822, 3254944819, 3429401821, 3254944808, 3429401820, 3254944784, 3235326730, 3429401819, 6553827380, 3235326688, 2627770604, 3429367512, 3429401832, 6553827379, 2627770598, 3429401831, 2620439874, 3429401818, 2620439861, 2620439851, 3429401816, 2620439846, 6553827378, 3429401815, 6553827377, 2620439839, 3429401814, 2620439834, 3429401830, 2620439833, 3644961946, 2603326213, 3431845454, 2603326199, 2603326150, 6553827366, 2603326146, 5302264640, 21734219, 1782593932, 2603326176, 6553860811, 6553860810, 1782593949, 6553860809, 3413025242, 6553860808, 1782593985, 2603326205, 6553860807, 3413025243, 1782594007, 3413025244, 1782594054, 6553860806, 3413025226, 6553860805, 3413025251, 3413025227, 6553860804, 1782594065, 6553860802, 3413025228, 6553860803, 3254549718, 6553860801, 6553860800, 3254549719, 3413025229, 6553860799, 1782594109, 6553860798, 3413025233, 6553860797, 1782594131, 6553860796, 1782594138, 3429401833, 2709861801, 3413063108, 3413063109, 3234843748, 3413063111, 3413063110, 2709861797, 3234843749, 2709861792, 6553860794, 3234843750, 3412546847, 6553860793, 3413063117, 6553860792, 3234843751, 3413063119, 6553860791, 3234843752, 2709861786, 6553860790, 3234843753, 6553860789, 2709861778, 3234843754, 6553860788, 2709861775, 6553860787, 3234843756, 6553860786, 6553860785, 2709861760, 3234843758, 2709861731, 12513854432, 12513854429, 12513854426, 3234843759, 12513854423, 12511955741, 12511955740, 12511955721, 2709861734, 12511955720, 12511955719, 12511955718, 2709861738, 6553827383, 12511955717, 2709861740, 12511955716, 2709861741, 7868569093, 6109456224, 4309740760, 4309740762, 6109456237, 3429367534, 2709875768, 3429367523], "tags": {"alt_name": "Calle Montera", "area": "yes", "bicycle": "dismount", "highway": "pedestrian", "lit": "yes", "name": "Calle de la Montera", "name:etymology:wikidata": "Q5740928", "postal_code": "28013", "surface": "concrete:plates", "wheelchair": "yes"}}, {"type": "way", "id": 548874627, "nodes": [3412546847, 5302261813], "tags": {"highway": "footway", "lit": "yes", "name": "Pasaje del Comercio", "surface": "paving_stones"}}, {"type": "way", "id": 548874635, "nodes": [21734220, 5302264639, 5302264638, 5302264637, 9029849699, 5302261811, 5302264636, 5302264635, 5302264626, 5302264623, 5302264634, 3411942226], "tags": {"bicycle": "dismount", "highway": "pedestrian", "lit": "yes", "name": "Calle del Carmen", "name:etymology:wikidata": "Q5740988", "oneway": "no", "postal_code": "28013", "smoothness": "excellent", "surface": "paving_stones", "wheelchair": "yes", "wikidata": "Q5740988", "wikipedia": "es:Calle del Carmen (Madrid)"}}, {"type": "way", "id": 548874636, "nodes": [21960432, 5302264640], "tags": {"bicycle": "dismount", "highway": "pedestrian", "lit": "yes", "name": "Calle de la Montera", "name:etymology:wikidata": "Q5740928", "postal_code": "28013", "smoothness": "good", "surface": "asphalt"}}, {"type": "way", "id": 651935510, "nodes": [8071133806, 6109456243, 3753576443, 6455528048, 6535509924, 5302264645, 5302264644, 5302264643, 5302261813, 5302264642, 5302264641, 21960445], "tags": {"bicycle": "dismount", "highway": "pedestrian", "lit": "yes", "motor_vehicle": "destination", "name": "Calle de la Montera", "name:etymology:wikidata": "Q5740928", "postal_code": "28013", "smoothness": "good", "surface": "asphalt"}}, {"type": "way", "id": 688424906, "nodes": [21960737, 6679949267, 25906774, 534586126, 25907052, 3429275120, 3429275121, 3429367539, 12400360869, 26066614], "tags": {"highway": "residential", "lit": "yes", "maxspeed": "30", "name": "Calle de la Salud", "oneway": "yes", "postal_code": "28013", "sidewalk": "both", "surface": "asphalt"}}, {"type": "way", "id": 710480610, "nodes": [6679949266, 6679949265], "tags": {"bridge": "yes", "highway": "footway", "layer": "1", "lit": "yes", "surface": "paving_stones"}}, {"type": "way", "id": 710480611, "nodes": [6679949263, 6679949266], "tags": {"highway": "path", "lit": "yes", "surface": "paving_stones"}}, {"type": "way", "id": 710480612, "nodes": [6679949265, 6679949270, 6679949269, 6679949264, 6679949268, 6679949267], "tags": {"highway": "path", "lit": "yes", "surface": "paving_stones"}}, {"type": "way", "id": 810300254, "nodes": [3413063116, 3412546847], "tags": {"highway": "footway", "lit": "24/7", "name": "Pasaje del Comercio", "surface": "paving_stones", "tunnel": "yes"}}, {"type": "way", "id": 810300255, "nodes": [3413063130, 3413063116], "tags": {"highway": "footway", "lit": "yes", "name": "Pasaje del Comercio", "surface": "paving_stones"}}, {"type": "way", "id": 925454152, "nodes": [3949472817, 6869591586, 3949472820, 3949472821, 3949472822, 8588809552, 8588809551, 25906642], "tags": {"footway": "sidewalk", "highway": "footway", "lit": "yes", "smoothness": "excellent", "surface": "paving_stones", "wheelchair": "yes"}}, {"type": "way", "id": 980231616, "nodes": [9067769837, 25906642], "tags": {"highway": "footway", "incline": "up", "lit": "yes", "name": "Pasaje de la Caja de Ahorros", "surface": "paving_stones"}}]}