{"version": 0.6, "generator": "Overpass API 0.7.62.5 1bd436f1", "osm3s": {"timestamp_osm_base": "2025-03-23T12:35:15Z", "copyright": "The data included in this document is from www.openstreetmap.org. The data is made available under ODbL."}, "elements": [{"type": "node", "id": 26412913, "lat": 40.4523818, "lon": -3.703159}, {"type": "node", "id": 26412916, "lat": 40.4510621, "lon": -3.7033586}, {"type": "node", "id": 26413032, "lat": 40.4505383, "lon": -3.7034373}, {"type": "node", "id": 81580397, "lat": 40.451168, "lon": -3.6996433}, {"type": "node", "id": 98725372, "lat": 40.4518715, "lon": -3.7041217}, {"type": "node", "id": 98725373, "lat": 40.4518602, "lon": -3.704356}, {"type": "node", "id": 98725375, "lat": 40.4517982, "lon": -3.7055208}, {"type": "node", "id": 98725377, "lat": 40.4517312, "lon": -3.707011}, {"type": "node", "id": 98725379, "lat": 40.451707, "lon": -3.7074229}, {"type": "node", "id": 98725380, "lat": 40.4517003, "lon": -3.7077147}, {"type": "node", "id": 98725381, "lat": 40.4517063, "lon": -3.708056}, {"type": "node", "id": 98725382, "lat": 40.451707, "lon": -3.708417}, {"type": "node", "id": 98725383, "lat": 40.4517109, "lon": -3.708805}, {"type": "node", "id": 98725384, "lat": 40.4517144, "lon": -3.7093515}, {"type": "node", "id": 98726079, "lat": 40.4511475, "lon": -3.7044621}, {"type": "node", "id": 98726080, "lat": 40.4511815, "lon": -3.7047574}, {"type": "node", "id": 98726081, "lat": 40.4511753, "lon": -3.7062187, "tags": {"crossing": "unmarked", "highway": "crossing", "tactile_paving": "yes"}}, {"type": "node", "id": 98731451, "lat": 40.4516876, "lon": -3.7096254}, {"type": "node", "id": 98731452, "lat": 40.4517013, "lon": -3.7099676}, {"type": "node", "id": 339391878, "lat": 40.451809, "lon": -3.7032474, "tags": {"highway": "traffic_signals"}}, {"type": "node", "id": 339391897, "lat": 40.4519149, "lon": -3.7032301}, {"type": "node", "id": 1439703195, "lat": 40.4513332, "lon": -3.7034398, "tags": {"bench": "yes", "bin": "no", "bus": "yes", "highway": "bus_stop", "lit": "yes", "name": "Teruel", "operator": "EMT Madrid", "public_transport": "platform", "ref": "1570", "shelter": "yes", "source": "https://navegapormadrid.emtmadrid.es/app/", "tactile_paving": "yes"}}, {"type": "node", "id": 1439703215, "lat": 40.4515601, "lon": -3.7031365, "tags": {"bench": "yes", "bin": "no", "bus": "yes", "highway": "bus_stop", "lit": "yes", "name": "Teruel", "operator": "EMT Madrid", "public_transport": "platform", "ref": "1569", "shelter": "yes", "source": "https://navegapormadrid.emtmadrid.es/app/", "tactile_paving": "yes"}}, {"type": "node", "id": 1474148445, "lat": 40.4510259, "lon": -3.7017382}, {"type": "node", "id": 1474148446, "lat": 40.4511683, "lon": -3.6999574}, {"type": "node", "id": 1474148448, "lat": 40.45127, "lon": -3.7004862}, {"type": "node", "id": 1474148455, "lat": 40.4514776, "lon": -3.7015665}, {"type": "node", "id": 2283386639, "lat": 40.4521411, "lon": -3.7031962}, {"type": "node", "id": 2283386649, "lat": 40.4520155, "lon": -3.7023335, "tags": {"noexit": "yes"}}, {"type": "node", "id": 2972134285, "lat": 40.4517156, "lon": -3.7032616, "tags": {"button_operated": "no", "crossing": "traffic_signals", "crossing:island": "no", "highway": "crossing", "kerb": "lowered", "tactile_paving": "yes", "traffic_signals:sound": "no", "traffic_signals:vibration": "no"}}, {"type": "node", "id": 3971975775, "lat": 40.4511681, "lon": -3.699727, "tags": {"crossing": "uncontrolled", "highway": "crossing", "kerb": "flush", "tactile_paving": "yes"}}, {"type": "node", "id": 5963987032, "lat": 40.4513214, "lon": -3.7033197, "tags": {"bus": "yes", "name": "Bravo Murillo - Carolinas", "operator": "EMT Madrid", "public_transport": "stop_position", "ref": "1570", "source": "https://navegapormadrid.emtmadrid.es/app/"}}, {"type": "node", "id": 5970506942, "lat": 40.4515624, "lon": -3.7032846, "tags": {"bus": "yes", "name": "Bravo Murillo - Teruel", "operator": "EMT Madrid", "public_transport": "stop_position", "ref": "1569", "source": "https://navegapormadrid.emtmadrid.es/app/"}}, {"type": "node", "id": 6934412482, "lat": 40.4517839, "lon": -3.703121, "tags": {"crossing": "uncontrolled", "crossing:markings": "zebra", "highway": "crossing", "tactile_paving": "yes"}}, {"type": "node", "id": 6934422583, "lat": 40.4519096, "lon": -3.7033857, "tags": {"button_operated": "no", "crossing": "traffic_signals", "highway": "crossing", "tactile_paving": "yes", "traffic_signals:sound": "no", "traffic_signals:vibration": "no"}}, {"type": "node", "id": 6934422584, "lat": 40.4510631, "lon": -3.7035091, "tags": {"crossing:markings": "yes", "crossing:signals": "no", "highway": "crossing", "tactile_paving": "yes"}}, {"type": "node", "id": 8398199213, "lat": 40.4517171, "lon": -3.7094231, "tags": {"crossing": "uncontrolled", "crossing:markings": "zebra", "highway": "crossing"}}, {"type": "node", "id": 8398199214, "lat": 40.4517131, "lon": -3.7094719, "tags": {"direction": "forward", "highway": "give_way", "traffic_sign": "ES:R1"}}, {"type": "node", "id": 8400874014, "lat": 40.4517504, "lon": -3.7065932, "tags": {"crossing": "uncontrolled", "crossing:markings": "zebra", "highway": "crossing", "tactile_paving": "yes"}}, {"type": "node", "id": 8402036983, "lat": 40.451712, "lon": -3.709285, "tags": {"crossing": "uncontrolled", "crossing:markings": "zebra", "highway": "crossing"}}, {"type": "node", "id": 8402489212, "lat": 40.4516994, "lon": -3.7099204, "tags": {"crossing": "unmarked", "highway": "crossing", "tactile_paving": "no"}}, {"type": "node", "id": 8409510076, "lat": 40.4511895, "lon": -3.7061299}, {"type": "node", "id": 8419169735, "lat": 40.4517065, "lon": -3.7081421, "tags": {"crossing": "uncontrolled", "crossing:markings": "zebra", "highway": "crossing", "tactile_paving": "yes"}}, {"type": "node", "id": 8419397877, "lat": 40.4517241, "lon": -3.7071153, "tags": {"highway": "give_way"}}, {"type": "node", "id": 8419484450, "lat": 40.4517018, "lon": -3.7077993, "tags": {"crossing": "unmarked", "highway": "crossing", "tactile_paving": "no"}}, {"type": "node", "id": 8420975569, "lat": 40.4517255, "lon": -3.7070896, "tags": {"crossing": "unmarked", "highway": "crossing", "tactile_paving": "no"}}, {"type": "node", "id": 8458948187, "lat": 40.450599, "lon": -3.7035744, "tags": {"barrier": "kerb", "kerb": "flush", "tactile_paving": "yes"}}, {"type": "node", "id": 8458948194, "lat": 40.451068, "lon": -3.7035529, "tags": {"highway": "give_way"}}, {"type": "node", "id": 8486897767, "lat": 40.4518284, "lon": -3.7043139}, {"type": "node", "id": 8486897769, "lat": 40.4518747, "lon": -3.7033906}, {"type": "node", "id": 8486897770, "lat": 40.451955, "lon": -3.7033794}, {"type": "node", "id": 8493690469, "lat": 40.4519178, "lon": -3.7041547}, {"type": "node", "id": 8493711868, "lat": 40.4523417, "lon": -3.7033074}, {"type": "node", "id": 8493711875, "lat": 40.4519238, "lon": -3.7040016}, {"type": "node", "id": 8493711876, "lat": 40.451962, "lon": -3.7040503}, {"type": "node", "id": 8493711877, "lat": 40.4523564, "lon": -3.7039802}, {"type": "node", "id": 8493711878, "lat": 40.4519806, "lon": -3.7033693}, {"type": "node", "id": 8493711879, "lat": 40.4518784, "lon": -3.7034319}, {"type": "node", "id": 8493711889, "lat": 40.4519194, "lon": -3.7041132, "tags": {"crossing": "unmarked", "crossing:markings": "no", "highway": "crossing"}}, {"type": "node", "id": 8493711890, "lat": 40.451911, "lon": -3.7034447, "tags": {"highway": "give_way"}}, {"type": "node", "id": 8563965568, "lat": 40.4523552, "lon": -3.7039234}, {"type": "node", "id": 8563965573, "lat": 40.4521156, "lon": -3.7030626, "tags": {"crossing": "unmarked", "crossing:markings": "no", "highway": "crossing", "tactile_paving": "no"}}, {"type": "node", "id": 8563965574, "lat": 40.451105, "lon": -3.7032101}, {"type": "node", "id": 8563965575, "lat": 40.4527989, "lon": -3.7029435, "tags": {"barrier": "kerb", "kerb": "flush", "tactile_paving": "yes"}}, {"type": "node", "id": 8563965576, "lat": 40.4527392, "lon": -3.7029525}, {"type": "node", "id": 8563972585, "lat": 40.4510612, "lon": -3.7032149}, {"type": "node", "id": 8563972586, "lat": 40.4510439, "lon": -3.7032177}, {"type": "node", "id": 9569328012, "lat": 40.4527879, "lon": -3.7029451}, {"type": "node", "id": 11269072934, "lat": 40.451767, "lon": -3.7062584}, {"type": "node", "id": 12127494824, "lat": 40.4520071, "lon": -3.7032158, "tags": {"highway": "traffic_signals", "traffic_signals": "signal", "traffic_signals:direction": "forward"}}, {"type": "node", "id": 12127494825, "lat": 40.451751, "lon": -3.7032587, "tags": {"highway": "traffic_signals", "traffic_signals": "signal", "traffic_signals:direction": "forward"}}, {"type": "node", "id": 12127494826, "lat": 40.4516716, "lon": -3.7032682, "tags": {"highway": "traffic_signals", "traffic_signals": "signal", "traffic_signals:direction": "backward"}}, {"type": "way", "id": 9939547, "nodes": [339391878, 6934412482, 1474148455, 1474148448, 1474148446, 3971975775, 81580397], "tags": {"highway": "residential", "lane_markings": "no", "lit": "yes", "name": "Calle de Teruel", "oneway": "yes", "sidewalk": "both", "source": "survey", "surface": "asphalt"}}, {"type": "way", "id": 11070000, "nodes": [98731452, 8402489212, 98731451, 8398199214, 8398199213, 98725384, 8402036983, 98725383, 98725382, 8419169735, 98725381, 8419484450, 98725380, 98725379, 8419397877, 8420975569, 98725377, 8400874014, 11269072934, 98725375, 98725373, 98725372, 8493711890, 6934422583, 339391897], "tags": {"highway": "residential", "lanes": "1", "lit": "yes", "maxspeed": "30", "name": "Calle de San Raimundo", "oneway": "yes", "postal_code": "28039", "sidewalk": "both", "source:width": "ARCore", "surface": "asphalt", "width": "6.2", "wikidata": "Q28974673"}}, {"type": "way", "id": 11070084, "nodes": [98726081, 8409510076, 98726080, 98726079, 8458948194, 6934422584, 26412916], "tags": {"highway": "living_street", "lanes": "1", "lit": "yes", "maxspeed": "20", "name": "Calle de Las Carolinas", "oneway": "yes", "postal_code": "28039", "surface": "paving_stones"}}, {"type": "way", "id": 24448116, "nodes": [1474148445, 8563972585, 26412916], "tags": {"highway": "residential", "lit": "yes", "name": "Calle de Tiziano", "oneway": "yes", "sidewalk": "both", "surface": "asphalt"}}, {"type": "way", "id": 82567739, "nodes": [26412913, 2283386639], "tags": {"alt_name": "Bravo Murillo", "cycleway:both": "shared_lane", "cycleway:both:lane": "pictogram", "highway": "secondary", "lanes": "6", "lanes:backward": "3", "lanes:forward": "3", "lanes:psv:backward": "1", "lanes:psv:forward": "1", "lit": "yes", "maxspeed": "50", "name": "Calle de Bravo Murillo", "name:etymology:wikidata": "Q200476", "parking:both": "no", "sidewalk:both": "separate", "surface": "asphalt"}}, {"type": "way", "id": 219141072, "nodes": [339391878, 2972134285, 12127494826, 5970506942, 5963987032, 26412916], "tags": {"alt_name": "Bravo Murillo", "cycleway:both": "shared_lane", "cycleway:both:lane": "pictogram", "highway": "secondary", "lanes": "6", "lanes:backward": "3", "lanes:forward": "3", "lanes:psv:backward": "1", "lanes:psv:forward": "1", "lit": "yes", "maxspeed": "50", "name": "Calle de Bravo Murillo", "name:etymology:wikidata": "Q200476", "parking:both": "no", "sidewalk": "both", "surface": "asphalt"}}, {"type": "way", "id": 219141075, "nodes": [2283386639, 8563965573, 2283386649], "tags": {"access": "customers", "highway": "service", "lit": "yes", "surface": "asphalt"}}, {"type": "way", "id": 740663495, "nodes": [8563965575, 9569328012, 8563965576, 8563965573, 6934412482, 8563965574], "tags": {"footway": "sidewalk", "highway": "footway", "lit": "yes", "surface": "paving_stones"}}, {"type": "way", "id": 910983033, "nodes": [8486897769, 6934422584, 8458948187], "tags": {"footway": "sidewalk", "highway": "footway", "lit": "yes", "surface": "paving_stones"}}, {"type": "way", "id": 913619811, "nodes": [8486897767, 8493711879, 8486897769], "tags": {"footway": "sidewalk", "highway": "footway", "lit": "yes", "surface": "paving_stones"}}, {"type": "way", "id": 913619812, "nodes": [8493711868, 8493711878, 8486897770], "tags": {"footway": "sidewalk", "highway": "footway", "lit": "yes", "surface": "paving_stones"}}, {"type": "way", "id": 913619813, "nodes": [8486897770, 6934422583, 8486897769], "tags": {"footway": "crossing", "highway": "footway", "surface": "paving_stones"}}, {"type": "way", "id": 914333911, "nodes": [8486897770, 8493711875, 8493711876, 8493711877, 8563965568, 8493711868], "tags": {"footway": "sidewalk", "highway": "footway", "lit": "yes", "surface": "paving_stones"}}, {"type": "way", "id": 914333914, "nodes": [8493690469, 8493711889, 8493711875], "tags": {"crossing": "unmarked", "crossing:markings": "no", "footway": "crossing", "highway": "footway", "lit": "yes", "surface": "asphalt"}}, {"type": "way", "id": 922487904, "nodes": [8563965574, 8563972585, 8563972586], "tags": {"footway": "crossing", "highway": "footway"}}, {"type": "way", "id": 1014474059, "nodes": [2283386639, 339391897], "tags": {"alt_name": "Bravo Murillo", "cycleway:both": "shared_lane", "cycleway:both:lane": "pictogram", "highway": "secondary", "lanes": "6", "lanes:backward": "3", "lanes:forward": "3", "lanes:psv:backward": "1", "lanes:psv:forward": "1", "lit": "yes", "maxspeed": "50", "name": "Calle de Bravo Murillo", "name:etymology:wikidata": "Q200476", "parking:both": "no", "sidewalk": "separate", "surface": "asphalt"}}, {"type": "way", "id": 1014474060, "nodes": [339391897, 339391878], "tags": {"alt_name": "Bravo Murillo", "cycleway:both": "shared_lane", "cycleway:both:lane": "pictogram", "highway": "secondary", "lanes": "6", "lanes:backward": "3", "lanes:forward": "3", "lanes:psv:backward": "1", "lanes:psv:forward": "1", "lit": "yes", "maxspeed": "50", "name": "Calle de Bravo Murillo", "name:etymology:wikidata": "Q200476", "parking:both": "no", "sidewalk": "separate", "surface": "asphalt"}}, {"type": "way", "id": 1014474061, "nodes": [26412916, 26413032], "tags": {"alt_name": "Bravo Murillo", "cycleway": "shared_lane", "highway": "secondary", "lanes": "6", "lanes:backward": "3", "lanes:forward": "3", "lanes:psv:backward": "1", "lanes:psv:forward": "1", "lit": "yes", "maxspeed": "50", "name": "Calle de Bravo Murillo", "name:etymology:wikidata": "Q200476", "parking:both": "no", "sidewalk": "both", "surface": "asphalt"}}]}