{"version": 0.6, "generator": "Overpass API 0.7.62.5 1bd436f1", "osm3s": {"timestamp_osm_base": "2025-03-23T14:48:29Z", "copyright": "The data included in this document is from www.openstreetmap.org. The data is made available under ODbL."}, "elements": [{"type": "node", "id": 21716457, "lat": 40.4464386, "lon": -3.6551298}, {"type": "node", "id": 21716458, "lat": 40.4466238, "lon": -3.654639}, {"type": "node", "id": 21716459, "lat": 40.4470019, "lon": -3.653723}, {"type": "node", "id": 25926130, "lat": 40.4461037, "lon": -3.6564809, "tags": {"highway": "motorway_junction", "ref": "4A"}}, {"type": "node", "id": 25926430, "lat": 40.4457794, "lon": -3.6569649}, {"type": "node", "id": 25926431, "lat": 40.44535, "lon": -3.6577874}, {"type": "node", "id": 25926434, "lat": 40.4452332, "lon": -3.6580229}, {"type": "node", "id": 249286100, "lat": 40.4470847, "lon": -3.6563518}, {"type": "node", "id": 249286115, "lat": 40.4482728, "lon": -3.6570545}, {"type": "node", "id": 249286124, "lat": 40.4464521, "lon": -3.6559754}, {"type": "node", "id": 249286125, "lat": 40.4459736, "lon": -3.6557074}, {"type": "node", "id": 249286126, "lat": 40.4448235, "lon": -3.6550394, "tags": {"highway": "crossing"}}, {"type": "node", "id": 254354118, "lat": 40.4465571, "lon": -3.6551849}, {"type": "node", "id": 254354929, "lat": 40.446654, "lon": -3.65428}, {"type": "node", "id": 255321941, "lat": 40.4455835, "lon": -3.6575404}, {"type": "node", "id": 335641795, "lat": 40.4460467, "lon": -3.6558146}, {"type": "node", "id": 335672230, "lat": 40.4451037, "lon": -3.658288}, {"type": "node", "id": 355637507, "lat": 40.4461058, "lon": -3.655642}, {"type": "node", "id": 355637524, "lat": 40.4469183, "lon": -3.6536685}, {"type": "node", "id": 513232089, "lat": 40.4471347, "lon": -3.6562201, "tags": {"highway": "traffic_signals"}}, {"type": "node", "id": 513232104, "lat": 40.4470055, "lon": -3.6563065, "tags": {"highway": "traffic_signals"}}, {"type": "node", "id": 513232105, "lat": 40.447234, "lon": -3.6564376, "tags": {"highway": "traffic_signals"}}, {"type": "node", "id": 513232107, "lat": 40.4482013, "lon": -3.657015, "tags": {"highway": "traffic_signals"}}, {"type": "node", "id": 1275004783, "lat": 40.4455337, "lon": -3.6573917}, {"type": "node", "id": 1275004794, "lat": 40.4458957, "lon": -3.6563718}, {"type": "node", "id": 1275004795, "lat": 40.4452449, "lon": -3.6581028}, {"type": "node", "id": 1275004810, "lat": 40.4450437, "lon": -3.6582447}, {"type": "node", "id": 1275004811, "lat": 40.445367, "lon": -3.6578881}, {"type": "node", "id": 1890257861, "lat": 40.4470916, "lon": -3.6538429}, {"type": "node", "id": 1890257911, "lat": 40.448327, "lon": -3.6534208}, {"type": "node", "id": 3716001568, "lat": 40.4461091, "lon": -3.6555332, "tags": {"highway": "street_lamp"}}, {"type": "node", "id": 3716001570, "lat": 40.4463132, "lon": -3.6550014, "tags": {"highway": "street_lamp"}}, {"type": "node", "id": 3716001571, "lat": 40.4463159, "lon": -3.6561081, "tags": {"highway": "street_lamp"}}, {"type": "node", "id": 3716001573, "lat": 40.446504, "lon": -3.6555565, "tags": {"highway": "street_lamp"}}, {"type": "node", "id": 3716001576, "lat": 40.446599, "lon": -3.655974, "tags": {"highway": "street_lamp"}}, {"type": "node", "id": 3716001577, "lat": 40.4466008, "lon": -3.6552906, "tags": {"highway": "street_lamp"}}, {"type": "node", "id": 3716001578, "lat": 40.4467019, "lon": -3.6550247, "tags": {"highway": "street_lamp"}}, {"type": "node", "id": 3716001580, "lat": 40.4468067, "lon": -3.6547635, "tags": {"highway": "street_lamp"}}, {"type": "node", "id": 4824671821, "lat": 40.4449394, "lon": -3.6583225}, {"type": "node", "id": 4824671822, "lat": 40.4451299, "lon": -3.6581624}, {"type": "node", "id": 5157644832, "lat": 40.4482201, "lon": -3.6536719, "tags": {"highway": "crossing"}}, {"type": "node", "id": 5157644841, "lat": 40.4479437, "lon": -3.6543207, "tags": {"highway": "crossing"}}, {"type": "node", "id": 8427025388, "lat": 40.4474883, "lon": -3.65659, "tags": {"bus": "yes", "public_transport": "stop_position"}}, {"type": "node", "id": 8427025389, "lat": 40.4477806, "lon": -3.6567643, "tags": {"bus": "yes", "public_transport": "stop_position"}}, {"type": "node", "id": 8569135246, "lat": 40.4471549, "lon": -3.6561643, "tags": {"bus": "yes", "public_transport": "stop_position"}}, {"type": "way", "id": 23577417, "nodes": [4824671821, 1275004810, 4824671822, 25926434, 25926431, 335641795], "tags": {"highway": "motorway_link", "lanes": "1", "maxspeed": "40", "name": "Avenida de Am\u00e9rica", "name:etymology:wikidata": "Q5686040", "oneway": "yes", "source:name": "local knowledge"}}, {"type": "way", "id": 30415984, "nodes": [335672230, 1275004795, 1275004811, 1275004783, 1275004794, 335641795], "tags": {"highway": "motorway_link", "lanes": "2", "name": "Avenida de Am\u00e9rica", "name:etymology:wikidata": "Q5686040", "oneway": "yes", "source:name": "local knowledge"}}, {"type": "way", "id": 77833833, "nodes": [335641795, 355637507, 254354929, 355637524], "tags": {"highway": "residential", "lanes": "2", "name": "Avenida de Am\u00e9rica", "name:etymology:wikidata": "Q5686040", "oneway": "yes", "source:name": "local knowledge"}}, {"type": "way", "id": 112081139, "nodes": [255321941, 25926430, 21716457, 21716458, 21716459], "tags": {"highway": "motorway", "lanes": "4", "lit": "yes", "maxspeed": "70", "name": "Avenida de Am\u00e9rica", "name:etymology:wikidata": "Q5686040", "oneway": "yes", "ref": "A-2", "surface": "asphalt"}}, {"type": "way", "id": 178678129, "nodes": [249286100, 513232105, 8427025388, 8427025389, 513232107, 249286115], "tags": {"highway": "residential", "lanes": "4", "lanes:backward": "2", "lanes:forward": "2", "maxspeed": "50", "name": "Calle de Torrelaguna", "oneway": "no", "source": "survey", "surface": "asphalt"}}, {"type": "way", "id": 178678130, "nodes": [249286125, 249286124], "tags": {"bridge": "yes", "highway": "residential", "lanes": "4", "lanes:backward": "2", "lanes:forward": "2", "layer": "1", "name": "Calle de Torrelaguna", "oneway": "no", "sidewalk": "both", "surface": "asphalt"}}, {"type": "way", "id": 263688923, "nodes": [1890257861, 254354118, 25926130], "tags": {"highway": "motorway", "lanes": "4", "lit": "yes", "maxspeed": "70", "name": "Avenida de Am\u00e9rica", "name:etymology:wikidata": "Q5686040", "oneway": "yes", "ref": "A-2", "turn:lanes": "through|through|through|right"}}, {"type": "way", "id": 263688928, "nodes": [1890257911, 5157644832, 5157644841, 8569135246, 513232089, 249286100], "tags": {"highway": "residential", "maxspeed": "50", "name": "Calle de Emilio Vargas", "oneway": "yes", "surface": "asphalt"}}, {"type": "way", "id": 448206110, "nodes": [249286124, 513232104, 249286100], "tags": {"highway": "residential", "lanes": "4", "lanes:backward": "2", "lanes:forward": "2", "name": "Calle de Torrelaguna", "oneway": "no", "sidewalk": "both", "source": "survey", "surface": "asphalt"}}, {"type": "way", "id": 685943018, "nodes": [249286126, 249286125], "tags": {"highway": "residential", "lanes": "2", "name": "Calle de Torrelaguna", "oneway": "no", "sidewalk": "both", "source": "survey", "surface": "asphalt"}}]}