{"version": 0.6, "generator": "Overpass API 0.7.62.5 1bd436f1", "osm3s": {"timestamp_osm_base": "2025-03-23T14:57:44Z", "copyright": "The data included in this document is from www.openstreetmap.org. The data is made available under ODbL."}, "elements": [{"type": "node", "id": 21759580, "lat": 40.4032518, "lon": -3.6971726}, {"type": "node", "id": 31009092, "lat": 40.4030149, "lon": -3.6936876}, {"type": "node", "id": 31009655, "lat": 40.4020104, "lon": -3.6960311, "tags": {"highway": "traffic_signals"}}, {"type": "node", "id": 31009806, "lat": 40.4031661, "lon": -3.6958968}, {"type": "node", "id": 31009973, "lat": 40.4042514, "lon": -3.6957718}, {"type": "node", "id": 31010118, "lat": 40.4048358, "lon": -3.6956884}, {"type": "node", "id": 31010365, "lat": 40.4047404, "lon": -3.6957148}, {"type": "node", "id": 31010366, "lat": 40.4036983, "lon": -3.6958348}, {"type": "node", "id": 31010367, "lat": 40.4025157, "lon": -3.6959732}, {"type": "node", "id": 31010647, "lat": 40.4035452, "lon": -3.6936302}, {"type": "node", "id": 31010648, "lat": 40.4037596, "lon": -3.6967342}, {"type": "node", "id": 315278541, "lat": 40.4023995, "lon": -3.6943452}, {"type": "node", "id": 315278602, "lat": 40.4026996, "lon": -3.6946703}, {"type": "node", "id": 315278603, "lat": 40.4031083, "lon": -3.6950529}, {"type": "node", "id": 321521319, "lat": 40.4024963, "lon": -3.6942824}, {"type": "node", "id": 321521336, "lat": 40.40305, "lon": -3.6942091}, {"type": "node", "id": 321521349, "lat": 40.4029407, "lon": -3.6948287}, {"type": "node", "id": 325063432, "lat": 40.4027185, "lon": -3.6948542}, {"type": "node", "id": 614128619, "lat": 40.4031535, "lon": -3.6943249, "tags": {"name": "Palos de la Frontera, impares", "railway": "subway_entrance"}}, {"type": "node", "id": 1439708469, "lat": 40.4032412, "lon": -3.6950543, "tags": {"bus": "yes", "highway": "bus_stop", "name": "Palos de la Frontera - Batalla Salado", "network": "Empresa Municipal de Transportes de Madrid", "network:short": "EMT Madrid", "network:wikidata": "Q1094755", "operator": "Empresa Municipal de Transportes de Madrid", "operator:short": "EMT Madrid", "operator:wikidata": "Q1094755", "public_transport": "platform", "ref": "3722", "source": "https://navegapormadrid.emtmadrid.es/app/"}}, {"type": "node", "id": 2046072077, "lat": 40.4030287, "lon": -3.6938772, "tags": {"button_operated": "no", "crossing": "traffic_signals", "crossing:markings": "dots", "highway": "traffic_signals", "tactile_paving": "yes", "traffic_signals:sound": "yes", "traffic_signals:vibration": "no"}}, {"type": "node", "id": 2472118950, "lat": 40.4023997, "lon": -3.6959865}, {"type": "node", "id": 2472119016, "lat": 40.4026751, "lon": -3.6943896}, {"type": "node", "id": 2472119186, "lat": 40.4024137, "lon": -3.6945495}, {"type": "node", "id": 2472119229, "lat": 40.4029332, "lon": -3.6947483}, {"type": "node", "id": 3417784513, "lat": 40.4035557, "lon": -3.6937816, "tags": {"crossing": "uncontrolled", "highway": "crossing"}}, {"type": "node", "id": 3519204118, "lat": 40.4024373, "lon": -3.6948896}, {"type": "node", "id": 3519204119, "lat": 40.4024596, "lon": -3.6943383}, {"type": "node", "id": 3519204122, "lat": 40.4030114, "lon": -3.6942453}, {"type": "node", "id": 3519204123, "lat": 40.4031603, "lon": -3.6943966}, {"type": "node", "id": 4208169378, "lat": 40.4043574, "lon": -3.6957597, "tags": {"crossing": "traffic_signals", "crossing:markings": "dots", "highway": "crossing", "tactile_paving": "yes"}}, {"type": "node", "id": 6532895109, "lat": 40.4029605, "lon": -3.6943417}, {"type": "node", "id": 6532895110, "lat": 40.4029561, "lon": -3.6943424}, {"type": "node", "id": 6532895111, "lat": 40.403104, "lon": -3.6943127}, {"type": "node", "id": 6532895112, "lat": 40.4030906, "lon": -3.6943153}, {"type": "node", "id": 6532895113, "lat": 40.4029524, "lon": -3.6943023, "tags": {"highway": "elevator"}}, {"type": "node", "id": 6532895114, "lat": 40.4029572, "lon": -3.6943539}, {"type": "node", "id": 6532895115, "lat": 40.4030998, "lon": -3.6942745, "tags": {"highway": "elevator"}}, {"type": "node", "id": 6532895116, "lat": 40.4029496, "lon": -3.6944019}, {"type": "node", "id": 6532895117, "lat": 40.4029524, "lon": -3.6944295}, {"type": "node", "id": 6532895118, "lat": 40.4029544, "lon": -3.6944496}, {"type": "node", "id": 6532895119, "lat": 40.4029594, "lon": -3.6944988}, {"type": "node", "id": 6532895120, "lat": 40.4031107, "lon": -3.6943739}, {"type": "node", "id": 6532895121, "lat": 40.4031133, "lon": -3.6943978}, {"type": "node", "id": 6532895122, "lat": 40.4031153, "lon": -3.6944157}, {"type": "node", "id": 6532895123, "lat": 40.4031213, "lon": -3.6944708}, {"type": "node", "id": 6532895124, "lat": 40.4031106, "lon": -3.6944929}, {"type": "node", "id": 6532895125, "lat": 40.4031234, "lon": -3.6944905}, {"type": "node", "id": 6532895126, "lat": 40.4031054, "lon": -3.6943262}, {"type": "node", "id": 6532895127, "lat": 40.4029796, "lon": -3.6945241}, {"type": "node", "id": 6532895128, "lat": 40.4029621, "lon": -3.6945272}, {"type": "node", "id": 6532895129, "lat": 40.402945, "lon": -3.6943563}, {"type": "node", "id": 6532895130, "lat": 40.403022, "lon": -3.6943419}, {"type": "node", "id": 6532895131, "lat": 40.4031549, "lon": -3.6943399}, {"type": "node", "id": 6532895132, "lat": 40.4031559, "lon": -3.6943507}, {"type": "node", "id": 6532895133, "lat": 40.4031516, "lon": -3.694304}, {"type": "node", "id": 7986291963, "lat": 40.4030228, "lon": -3.6937967}, {"type": "node", "id": 8048763445, "lat": 40.4021232, "lon": -3.6960182, "tags": {"button_operated": "no", "crossing": "traffic_signals", "crossing:markings": "dots", "highway": "crossing", "tactile_paving": "yes", "traffic_signals:sound": "yes", "traffic_signals:vibration": "no"}}, {"type": "node", "id": 8280642740, "lat": 40.4032413, "lon": -3.6970168, "tags": {"button_operated": "no", "crossing": "traffic_signals", "crossing:markings": "dots", "highway": "traffic_signals", "tactile_paving": "yes", "traffic_signals:sound": "yes", "traffic_signals:vibration": "no"}}, {"type": "node", "id": 8287728853, "lat": 40.4030492, "lon": -3.6959105, "tags": {"button_operated": "no", "crossing": "traffic_signals", "crossing:markings": "dots", "highway": "traffic_signals", "tactile_paving": "yes", "traffic_signals:sound": "yes", "traffic_signals:vibration": "no"}}, {"type": "node", "id": 8287728854, "lat": 40.4032897, "lon": -3.6958824, "tags": {"button_operated": "no", "crossing": "traffic_signals", "crossing:markings": "dots", "highway": "traffic_signals", "tactile_paving": "yes", "traffic_signals:sound": "no", "traffic_signals:vibration": "no"}}, {"type": "node", "id": 8287728855, "lat": 40.4031543, "lon": -3.6957251, "tags": {"button_operated": "no", "crossing": "traffic_signals", "crossing:markings": "dots", "highway": "traffic_signals", "tactile_paving": "yes", "traffic_signals:sound": "yes", "traffic_signals:vibration": "no"}}, {"type": "node", "id": 8287728860, "lat": 40.4037525, "lon": -3.6966311, "tags": {"crossing": "uncontrolled", "crossing:markings": "zebra", "highway": "crossing", "kerb": "lowered", "tactile_paving": "yes"}}, {"type": "node", "id": 8373377595, "lat": 40.4028476, "lon": -3.6959328, "tags": {"bus": "yes", "public_transport": "stop_position"}}, {"type": "node", "id": 8441342337, "lat": 40.4044529, "lon": -3.6957483, "tags": {"bus": "yes", "public_transport": "stop_position"}}, {"type": "node", "id": 8494597625, "lat": 40.4032078, "lon": -3.6965178, "tags": {"bus": "yes", "public_transport": "stop_position"}}, {"type": "node", "id": 8496984796, "lat": 40.403704, "lon": -3.6959185, "tags": {"crossing": "uncontrolled", "crossing:markings": "zebra", "highway": "crossing"}}, {"type": "node", "id": 8496984797, "lat": 40.4037535, "lon": -3.6958285, "tags": {"crossing": "uncontrolled", "crossing:markings": "zebra", "highway": "crossing"}}, {"type": "node", "id": 8496984798, "lat": 40.403691, "lon": -3.69573, "tags": {"crossing": "uncontrolled", "crossing:markings": "zebra", "highway": "crossing"}}, {"type": "node", "id": 11717279524, "lat": 40.4030266, "lon": -3.695913, "tags": {"crossing": "uncontrolled", "crossing:markings": "zebra", "highway": "crossing"}}, {"type": "node", "id": 11717279526, "lat": 40.402141, "lon": -3.6960162, "tags": {"crossing": "uncontrolled", "crossing:markings": "zebra", "highway": "crossing"}}, {"type": "node", "id": 11812640299, "lat": 40.4035743, "lon": -3.6946034}, {"type": "node", "id": 11812640300, "lat": 40.4036297, "lon": -3.6957998}, {"type": "node", "id": 11812640301, "lat": 40.4032867, "lon": -3.6958316}, {"type": "node", "id": 11812640302, "lat": 40.4036407, "lon": -3.6959149}, {"type": "node", "id": 11812640303, "lat": 40.4032951, "lon": -3.695959}, {"type": "node", "id": 11812640304, "lat": 40.4037112, "lon": -3.6965065}, {"type": "node", "id": 11812640307, "lat": 40.4036356, "lon": -3.6946008}, {"type": "node", "id": 11812640308, "lat": 40.4037541, "lon": -3.6957742}, {"type": "node", "id": 11812640310, "lat": 40.4036556, "lon": -3.695738}, {"type": "node", "id": 11812640311, "lat": 40.4037255, "lon": -3.6957367}, {"type": "node", "id": 11812640312, "lat": 40.4036652, "lon": -3.6959311}, {"type": "node", "id": 11812640313, "lat": 40.4037326, "lon": -3.6959204}, {"type": "node", "id": 11812640314, "lat": 40.4037112, "lon": -3.6966647}, {"type": "node", "id": 11812640352, "lat": 40.4046936, "lon": -3.6957203, "tags": {"crossing:signals": "yes", "highway": "crossing"}}, {"type": "node", "id": 11812646240, "lat": 40.4035161, "lon": -3.693784}, {"type": "node", "id": 11812646241, "lat": 40.4035886, "lon": -3.6937787}, {"type": "node", "id": 11812646245, "lat": 40.4031965, "lon": -3.6946008}, {"type": "node", "id": 11812646250, "lat": 40.4031556, "lon": -3.6938645}, {"type": "node", "id": 11812646251, "lat": 40.4029085, "lon": -3.6941381}, {"type": "node", "id": 11812646252, "lat": 40.4029555, "lon": -3.6946021}, {"type": "node", "id": 11812646254, "lat": 40.4029377, "lon": -3.694224}, {"type": "node", "id": 11812646255, "lat": 40.402885, "lon": -3.6938806}, {"type": "node", "id": 11813369566, "lat": 40.4032649, "lon": -3.6960036}, {"type": "node", "id": 11813369568, "lat": 40.4033078, "lon": -3.6969759}, {"type": "way", "id": 4824643, "nodes": [31010118, 31010365, 11812640352, 8441342337, 4208169378, 31009973, 8496984797, 31010366, 8287728854, 31009806], "tags": {"access:lanes": "yes|no", "bus:lanes": "yes|designated", "cycleway:both": "no", "highway": "residential", "lanes": "2", "lanes:bus": "1", "lanes:psv": "1", "lit": "yes", "maxspeed": "50", "motorcycle:lanes": "yes|yes", "name": "Calle de la Batalla del Salado", "name:etymology:wikidata": "Q1792643", "oneway": "yes", "postal_code": "28045", "psv:lanes": "yes|designated", "surface": "asphalt"}}, {"type": "way", "id": 4824679, "nodes": [31010647, 3417784513, 8496984798, 31010366], "tags": {"bicycle": "yes", "foot": "no", "highway": "residential", "horse": "no", "lanes": "1", "lit": "yes", "motor_vehicle": "yes", "name": "Calle de Pedro Unanue", "oneway": "no", "postal_code": "28045", "surface": "asphalt"}}, {"type": "way", "id": 7972740, "nodes": [31009092, 7986291963, 2046072077, 321521336, 315278603, 8287728855, 31009806], "tags": {"cycleway": "shared_lane", "destination:forward": "Glorieta de Santa Mar\u00eda de la Cabeza;Calle de Palos de la Frontera", "highway": "secondary", "lanes": "3", "lanes:backward": "1", "lanes:forward": "2", "lit": "yes", "name": "Calle de Palos de la Frontera", "name:etymology:wikidata": "Q622030", "network": "rcn", "oneway": "no", "postal_code": "28045", "route": "bicycle", "surface": "asphalt", "type": "route"}}, {"type": "way", "id": 28683935, "nodes": [2472119186, 315278602, 2472119229, 321521349, 315278603], "tags": {"highway": "footway", "surface": "concrete"}}, {"type": "way", "id": 29231573, "nodes": [315278541, 3519204119, 321521319, 11812646254, 321521336], "tags": {"highway": "footway", "lit": "yes", "surface": "paving_stones"}}, {"type": "way", "id": 29231580, "nodes": [321521349, 325063432], "tags": {"created_by": "Potlatch 0.10f", "highway": "steps"}}, {"type": "way", "id": 29488318, "nodes": [325063432, 3519204118], "tags": {"highway": "footway"}}, {"type": "way", "id": 44097992, "nodes": [31009806, 8287728853, 11717279524, 8373377595, 31010367, 2472118950, 11717279526, 8048763445, 31009655], "tags": {"access:lanes": "yes|no", "bus:lanes": "yes|designated", "highway": "residential", "lanes": "2", "lanes:bus": "1", "lanes:psv": "1", "lit": "yes", "maxspeed": "50", "motorcycle:lanes": "yes|yes", "name": "Calle de la Batalla del Salado", "name:etymology:wikidata": "Q1792643", "oneway": "yes", "postal_code": "28045", "psv:lanes": "yes|designated", "sidewalk": "both", "source:maxspeed": "sign", "surface": "asphalt"}}, {"type": "way", "id": 131700116, "nodes": [31009806, 8494597625, 8280642740, 21759580], "tags": {"cycleway:right": "shared_lane", "cycleway:right:lane": "pictogram", "highway": "secondary", "lanes": "3", "lit": "yes", "name": "Calle de Palos de la Frontera", "name:etymology:wikidata": "Q622030", "oneway": "yes", "postal_code": "28045", "sidewalk": "both", "surface": "asphalt"}}, {"type": "way", "id": 345237003, "nodes": [6532895131, 6532895132], "tags": {"highway": "footway", "lit": "yes", "surface": "paving_stones"}}, {"type": "way", "id": 345237004, "nodes": [321521319, 2472119016, 315278602], "tags": {"highway": "footway"}}, {"type": "way", "id": 695729200, "nodes": [6532895114, 6532895113], "tags": {"highway": "footway", "layer": "-1", "lit": "24/7", "surface": "paving_stones", "tunnel": "yes"}}, {"type": "way", "id": 695729201, "nodes": [6532895126, 6532895115], "tags": {"highway": "footway", "layer": "-1", "lit": "24/7", "surface": "paving_stones", "tunnel": "yes"}}, {"type": "way", "id": 695729202, "nodes": [6532895113, 6532895110, 6532895109], "tags": {"highway": "footway", "layer": "-2", "lit": "24/7", "surface": "paving_stones", "tunnel": "yes"}}, {"type": "way", "id": 695729203, "nodes": [6532895115, 6532895111, 6532895112], "tags": {"highway": "footway", "layer": "-2", "lit": "24/7", "surface": "paving_stones", "tunnel": "yes"}}, {"type": "way", "id": 695729204, "nodes": [6532895116, 6532895117], "tags": {"handrail": "no", "highway": "steps", "incline": "down", "layer": "-1", "lit": "24/7", "surface": "paving_stones", "tunnel": "yes"}}, {"type": "way", "id": 695729205, "nodes": [6532895117, 6532895118], "tags": {"highway": "footway", "layer": "-1", "lit": "24/7", "surface": "paving_stones", "tunnel": "yes"}}, {"type": "way", "id": 695729206, "nodes": [6532895118, 6532895119], "tags": {"highway": "steps", "incline": "down", "layer": "-1", "lit": "24/7", "surface": "paving_stones", "tunnel": "yes"}}, {"type": "way", "id": 695729207, "nodes": [6532895119, 6532895128, 6532895127], "tags": {"highway": "footway", "layer": "-1", "lit": "24/7", "surface": "paving_stones", "tunnel": "yes"}}, {"type": "way", "id": 695729208, "nodes": [6532895120, 6532895121], "tags": {"handrail": "no", "highway": "steps", "incline": "down", "layer": "-1", "lit": "24/7", "surface": "paving_stones", "tunnel": "yes"}}, {"type": "way", "id": 695729209, "nodes": [6532895121, 6532895122], "tags": {"highway": "footway", "layer": "-1", "lit": "24/7", "surface": "paving_stones", "tunnel": "yes"}}, {"type": "way", "id": 695729210, "nodes": [6532895122, 6532895123], "tags": {"highway": "steps", "incline": "down", "layer": "-1", "lit": "24/7", "surface": "paving_stones", "tunnel": "yes"}}, {"type": "way", "id": 695729211, "nodes": [6532895123, 6532895125, 6532895124], "tags": {"highway": "footway", "layer": "-1", "lit": "24/7", "surface": "paving_stones", "tunnel": "yes"}}, {"type": "way", "id": 695729212, "nodes": [6532895130, 6532895126, 6532895120], "tags": {"highway": "footway", "layer": "-1", "lit": "24/7", "surface": "paving_stones", "tunnel": "yes"}}, {"type": "way", "id": 695729213, "nodes": [3519204122, 6532895130, 6532895114, 6532895129, 6532895116], "tags": {"highway": "footway", "layer": "-1", "lit": "24/7", "surface": "paving_stones", "tunnel": "yes"}}, {"type": "way", "id": 695729214, "nodes": [6532895132, 3519204123], "tags": {"highway": "steps", "incline": "up", "lit": "yes", "surface": "paving_stones"}}, {"type": "way", "id": 695729215, "nodes": [614128619, 6532895131], "tags": {"handrail": "yes", "highway": "steps", "incline": "up", "lit": "yes", "surface": "paving_stones"}}, {"type": "way", "id": 695729216, "nodes": [6532895133, 614128619], "tags": {"handrail": "yes", "highway": "steps", "incline": "up", "layer": "-1", "lit": "24/7", "ramp": "no", "surface": "paving_stones", "tunnel": "yes"}}, {"type": "way", "id": 1272096338, "nodes": [11812640299, 11812640310], "tags": {"footway": "sidewalk", "highway": "footway", "lit": "yes", "name": "Calle de Pedro Unanue", "surface": "paving_stones"}}, {"type": "way", "id": 1272096339, "nodes": [8287728854, 11812640301, 11812640300, 11812640310], "tags": {"footway": "sidewalk", "highway": "footway", "lit": "yes", "surface": "paving_stones"}}, {"type": "way", "id": 1272096340, "nodes": [11812640303, 11812640302, 11812640312], "tags": {"footway": "sidewalk", "highway": "footway", "lit": "yes", "surface": "paving_stones"}}, {"type": "way", "id": 1272096341, "nodes": [11812640314, 11812640304, 11812640312], "tags": {"footway": "sidewalk", "highway": "footway", "lit": "yes", "name": "Calle de Pedro Unanue", "surface": "paving_stones"}}, {"type": "way", "id": 1272096343, "nodes": [11812640307, 11812640311, 11812640308], "tags": {"footway": "sidewalk", "highway": "footway", "lit": "yes", "name": "Calle de Pedro Unanue", "surface": "paving_stones"}}, {"type": "way", "id": 1272096345, "nodes": [11812640311, 8496984798, 11812640310], "tags": {"footway": "crossing", "highway": "footway", "lit": "yes", "name": "Calle de Pedro Unanue", "surface": "asphalt"}}, {"type": "way", "id": 1272096346, "nodes": [11812640313, 8496984796, 11812640312], "tags": {"footway": "crossing", "highway": "footway", "lit": "yes", "name": "Calle de Pedro Unanue", "surface": "asphalt"}}, {"type": "way", "id": 1272096421, "nodes": [11812640307, 11812646241], "tags": {"footway": "sidewalk", "highway": "footway", "lit": "yes", "name": "Calle de Pedro Unanue", "surface": "paving_stones"}}, {"type": "way", "id": 1272096422, "nodes": [11812640299, 11812646240], "tags": {"footway": "sidewalk", "highway": "footway", "lit": "yes", "name": "Calle de Pedro Unanue", "surface": "paving_stones"}}, {"type": "way", "id": 1272096427, "nodes": [11812646245, 11812646250], "tags": {"footway": "sidewalk", "highway": "footway", "lit": "yes", "surface": "paving_stones"}}, {"type": "way", "id": 1272096431, "nodes": [11812646252, 11812646254, 11812646251, 11812646255], "tags": {"footway": "sidewalk", "highway": "footway", "lit": "yes", "surface": "paving_stones"}}, {"type": "way", "id": 1272165931, "nodes": [8287728854, 11812640303, 11813369566, 11813369568], "tags": {"footway": "sidewalk", "highway": "footway", "lit": "yes", "surface": "paving_stones"}}, {"type": "way", "id": 1331762489, "nodes": [31010366, 8496984796, 8287728860, 31010648], "tags": {"bicycle": "yes", "foot": "no", "highway": "residential", "horse": "no", "lanes": "1", "lit": "yes", "motor_vehicle": "yes", "name": "Calle de Pedro Unanue", "oneway": "yes", "postal_code": "28045", "surface": "asphalt"}}]}