{"version": 0.6, "generator": "Overpass API 0.7.62.5 1bd436f1", "osm3s": {"timestamp_osm_base": "2025-03-23T15:40:45Z", "copyright": "The data included in this document is from www.openstreetmap.org. The data is made available under ODbL."}, "elements": [{"type": "node", "id": 25906112, "lat": 40.4259454, "lon": -3.6971958, "tags": {"source": "yahoo_maps"}}, {"type": "node", "id": 25906209, "lat": 40.4243421, "lon": -3.6969926, "tags": {"source": "yahoo_maps"}}, {"type": "node", "id": 25906212, "lat": 40.424433, "lon": -3.6972609, "tags": {"source": "yahoo_maps"}}, {"type": "node", "id": 25906216, "lat": 40.4246876, "lon": -3.6970308, "tags": {"source": "yahoo_maps"}}, {"type": "node", "id": 25906221, "lat": 40.4250492, "lon": -3.6977867, "tags": {"source": "yahoo_maps"}}, {"type": "node", "id": 25906269, "lat": 40.4225342, "lon": -3.6956075, "tags": {"source": "yahoo_maps"}}, {"type": "node", "id": 25906270, "lat": 40.4219361, "lon": -3.6956524}, {"type": "node", "id": 25906272, "lat": 40.4237875, "lon": -3.6972172, "tags": {"source": "yahoo_maps"}}, {"type": "node", "id": 25906273, "lat": 40.4230007, "lon": -3.6975802, "tags": {"source": "yahoo_maps"}}, {"type": "node", "id": 25906274, "lat": 40.4239442, "lon": -3.6976776, "tags": {"source": "yahoo_maps"}}, {"type": "node", "id": 25906275, "lat": 40.4232162, "lon": -3.6981721, "tags": {"source": "yahoo_maps"}}, {"type": "node", "id": 25906276, "lat": 40.4234533, "lon": -3.6987951, "tags": {"source": "yahoo_maps"}}, {"type": "node", "id": 25906277, "lat": 40.4237089, "lon": -3.6986266, "tags": {"source": "yahoo_maps"}}, {"type": "node", "id": 25906281, "lat": 40.4229339, "lon": -3.6973759, "tags": {"source": "yahoo_maps"}}, {"type": "node", "id": 25906282, "lat": 40.4224328, "lon": -3.6976117, "tags": {"source": "yahoo_maps"}}, {"type": "node", "id": 25906283, "lat": 40.4225187, "lon": -3.6978784, "tags": {"source": "yahoo_maps"}}, {"type": "node", "id": 25906284, "lat": 40.4221689, "lon": -3.6977371, "tags": {"source": "yahoo_maps"}}, {"type": "node", "id": 25906285, "lat": 40.422066, "lon": -3.697324, "tags": {"source": "yahoo_maps"}}, {"type": "node", "id": 25906287, "lat": 40.4224938, "lon": -3.6986906, "tags": {"source": "yahoo_maps"}}, {"type": "node", "id": 25906288, "lat": 40.4227186, "lon": -3.6993179, "tags": {"source": "yahoo_maps"}}, {"type": "node", "id": 25906289, "lat": 40.4232299, "lon": -3.6989408, "tags": {"source": "yahoo_maps"}}, {"type": "node", "id": 25906290, "lat": 40.4236109, "lon": -3.7006635}, {"type": "node", "id": 25906294, "lat": 40.4239198, "lon": -3.6995051, "tags": {"source": "yahoo_maps"}}, {"type": "node", "id": 25906300, "lat": 40.4245788, "lon": -3.6980909, "tags": {"source": "yahoo_maps"}}, {"type": "node", "id": 25906301, "lat": 40.4247336, "lon": -3.6979921, "tags": {"source": "yahoo_maps"}}, {"type": "node", "id": 25906420, "lat": 40.4205457, "lon": -3.7008834, "tags": {"source": "yahoo_maps"}}, {"type": "node", "id": 25906421, "lat": 40.420994, "lon": -3.7006147, "tags": {"source": "yahoo_maps"}}, {"type": "node", "id": 25906429, "lat": 40.4218928, "lon": -3.6999293, "tags": {"source": "yahoo_maps"}}, {"type": "node", "id": 25906431, "lat": 40.4216722, "lon": -3.6992596, "tags": {"source": "yahoo_maps"}}, {"type": "node", "id": 25906500, "lat": 40.4223488, "lon": -3.6982455, "tags": {"source": "yahoo_maps"}}, {"type": "node", "id": 26341673, "lat": 40.4200012, "lon": -3.7011399, "tags": {"source": "yahoo_maps"}}, {"type": "node", "id": 59633359, "lat": 40.42222, "lon": -3.6996855}, {"type": "node", "id": 326196041, "lat": 40.4238382, "lon": -3.6977583}, {"type": "node", "id": 370503552, "lat": 40.4239844, "lon": -3.6971357}, {"type": "node", "id": 930662415, "lat": 40.4238682, "lon": -3.6992701}, {"type": "node", "id": 1439705523, "lat": 40.4235393, "lon": -3.6986972, "tags": {"bench": "yes", "bin": "yes", "bus": "yes", "highway": "bus_stop", "name": "Chueca", "operator": "EMT Madrid", "public_transport": "platform", "ref": "278", "shelter": "yes", "source": "https://navegapormadrid.emtmadrid.es/app/", "tactile_paving": "yes"}}, {"type": "node", "id": 1718376821, "lat": 40.4226957, "lon": -3.6966025}, {"type": "node", "id": 1718376823, "lat": 40.4220095, "lon": -3.6966717}, {"type": "node", "id": 1754199353, "lat": 40.423928, "lon": -3.7006497}, {"type": "node", "id": 1754199355, "lat": 40.4239446, "lon": -3.699994}, {"type": "node", "id": 1855027664, "lat": 40.4250234, "lon": -3.6967412}, {"type": "node", "id": 2239998764, "lat": 40.421982, "lon": -3.6964719}, {"type": "node", "id": 3076682112, "lat": 40.4228841, "lon": -3.6976735}, {"type": "node", "id": 3076682113, "lat": 40.4229543, "lon": -3.6976351}, {"type": "node", "id": 3160889590, "lat": 40.4224242, "lon": -3.6975815}, {"type": "node", "id": 3160889591, "lat": 40.4228647, "lon": -3.6973786}, {"type": "node", "id": 3160938144, "lat": 40.4224771, "lon": -3.697752, "tags": {"addr:city": "Madrid", "addr:housenumber": "1", "addr:postcode": "28004", "addr:street": "Plaza de Chueca", "addr:subdistrict": "Justicia", "entrance": "main"}}, {"type": "node", "id": 3160938145, "lat": 40.4225346, "lon": -3.6975315, "tags": {"addr:city": "Madrid", "addr:housenumber": "10", "addr:postcode": "28004", "addr:street": "Plaza de Chueca", "addr:subdistrict": "Justicia", "entrance": "main"}}, {"type": "node", "id": 3160938146, "lat": 40.4225394, "lon": -3.6978673, "tags": {"addr:city": "Madrid", "addr:housenumber": "2", "addr:postcode": "28004", "addr:street": "Plaza de Chueca", "addr:subdistrict": "Justicia", "entrance": "main"}}, {"type": "node", "id": 3160938147, "lat": 40.4225851, "lon": -3.6978402, "tags": {"addr:city": "Madrid", "addr:housenumber": "3", "addr:postcode": "28004", "addr:street": "Plaza de Chueca", "addr:subdistrict": "Justicia", "entrance": "main"}}, {"type": "node", "id": 3160938148, "lat": 40.4226815, "lon": -3.6977863, "tags": {"addr:city": "Madrid", "addr:housenumber": "4", "addr:postcode": "28004", "addr:street": "Plaza de Chueca", "addr:subdistrict": "Justicia", "entrance": "main"}}, {"type": "node", "id": 3160938149, "lat": 40.4227838, "lon": -3.6977305, "tags": {"addr:city": "Madrid", "addr:housenumber": "5", "addr:postcode": "28004", "addr:street": "Plaza de Chueca", "addr:subdistrict": "Justicia", "entrance": "main"}}, {"type": "node", "id": 3160938150, "lat": 40.4228642, "lon": -3.6976846, "tags": {"addr:city": "Madrid", "addr:housenumber": "6", "addr:postcode": "28004", "addr:street": "Plaza de Chueca", "addr:subdistrict": "Justicia", "entrance": "main"}}, {"type": "node", "id": 3160938151, "lat": 40.422776, "lon": -3.6974201, "tags": {"addr:city": "Madrid", "addr:housenumber": "8", "addr:postcode": "28004", "addr:street": "Plaza de Chueca", "addr:subdistrict": "Justicia", "entrance": "main"}}, {"type": "node", "id": 3160938152, "lat": 40.4226232, "lon": -3.6974908, "tags": {"addr:city": "Madrid", "addr:housenumber": "9", "addr:postcode": "28004", "addr:street": "Plaza de Chueca", "addr:subdistrict": "Justicia", "entrance": "main"}}, {"type": "node", "id": 3161163797, "lat": 40.4227273, "lon": -3.6967738, "tags": {"source": "yahoo_maps"}}, {"type": "node", "id": 3163832986, "lat": 40.4239401, "lon": -3.6997382}, {"type": "node", "id": 3429367546, "lat": 40.4200706, "lon": -3.7011589}, {"type": "node", "id": 3429367549, "lat": 40.4200933, "lon": -3.7011556, "tags": {"button_operated": "no", "crossing": "traffic_signals", "highway": "crossing", "tactile_paving": "yes", "traffic_signals:sound": "yes", "traffic_signals:vibration": "no", "wheelchair": "yes"}}, {"type": "node", "id": 3803605937, "lat": 40.4224733, "lon": -3.6975598}, {"type": "node", "id": 3803605941, "lat": 40.4225805, "lon": -3.6975103}, {"type": "node", "id": 3803605943, "lat": 40.4226872, "lon": -3.6974616}, {"type": "node", "id": 3803605949, "lat": 40.4228425, "lon": -3.697389}, {"type": "node", "id": 3803609632, "lat": 40.422445, "lon": -3.6976547}, {"type": "node", "id": 3823340051, "lat": 40.4228245, "lon": -3.6977068}, {"type": "node", "id": 3823340054, "lat": 40.4227389, "lon": -3.6977542}, {"type": "node", "id": 3823341257, "lat": 40.4226241, "lon": -3.6978184}, {"type": "node", "id": 3823341260, "lat": 40.4225656, "lon": -3.6978511}, {"type": "node", "id": 3927597018, "lat": 40.424983, "lon": -3.6978298, "tags": {"crossing": "zebra", "highway": "crossing", "kerb": "lowered", "tactile_paving": "yes"}}, {"type": "node", "id": 4309826953, "lat": 40.4219395, "lon": -3.6957201, "tags": {"crossing": "uncontrolled", "crossing:island": "no", "crossing:markings": "zebra", "highway": "crossing", "tactile_paving": "yes"}}, {"type": "node", "id": 4951747250, "lat": 40.4220687, "lon": -3.6972252, "tags": {"crossing": "uncontrolled", "crossing:markings": "zebra", "highway": "crossing", "kerb": "flush", "tactile_paving": "yes"}}, {"type": "node", "id": 4951747252, "lat": 40.4221899, "lon": -3.6977965, "tags": {"crossing": "uncontrolled", "crossing:markings": "zebra", "highway": "crossing", "kerb": "flush", "tactile_paving": "yes"}}, {"type": "node", "id": 4951747254, "lat": 40.4224759, "lon": -3.6986357, "tags": {"crossing": "uncontrolled", "crossing:markings": "zebra", "highway": "crossing", "kerb": "lowered", "tactile_paving": "yes"}}, {"type": "node", "id": 4951747255, "lat": 40.4225238, "lon": -3.6986691, "tags": {"crossing": "uncontrolled", "crossing:markings": "zebra", "highway": "crossing", "kerb": "flush", "tactile_paving": "yes"}}, {"type": "node", "id": 5970506953, "lat": 40.4235518, "lon": -3.6987302, "tags": {"bus": "yes", "name": "Hortaleza - Gravina", "operator": "EMT Madrid", "public_transport": "stop_position", "ref": "278", "source": "https://navegapormadrid.emtmadrid.es/app/"}}, {"type": "node", "id": 5970506954, "lat": 40.4213829, "lon": -3.7003181, "tags": {"bus": "yes", "name": "Hortaleza - Infantas", "operator": "EMT Madrid", "public_transport": "stop_position", "ref": "5376", "source": "https://navegapormadrid.emtmadrid.es/app/"}}, {"type": "node", "id": 6109456225, "lat": 40.4200295, "lon": -3.7011519}, {"type": "node", "id": 6109456233, "lat": 40.4201413, "lon": -3.7011387}, {"type": "node", "id": 6301052256, "lat": 40.42383, "lon": -3.6971996}, {"type": "node", "id": 6301052259, "lat": 40.4239642, "lon": -3.6971441}, {"type": "node", "id": 8086154957, "lat": 40.4237291, "lon": -3.6986509}, {"type": "node", "id": 8086154958, "lat": 40.4238711, "lon": -3.6991985}, {"type": "node", "id": 8086154962, "lat": 40.4239773, "lon": -3.6985036}, {"type": "node", "id": 8086154963, "lat": 40.4241693, "lon": -3.6990923}, {"type": "node", "id": 8086154964, "lat": 40.4238784, "lon": -3.699197, "tags": {"barrier": "gate", "foot": "yes"}}, {"type": "node", "id": 9047955455, "lat": 40.423597, "lon": -3.7006005, "tags": {"crossing": "zebra", "highway": "crossing", "kerb": "flush", "tactile_paving": "yes"}}, {"type": "node", "id": 11375748161, "lat": 40.4219683, "lon": -3.6963258}, {"type": "node", "id": 12400360898, "lat": 40.4200486, "lon": -3.7011562}, {"type": "way", "id": 4291307, "nodes": [25906273, 25906281, 3160889591, 3803605949, 3160938151, 3803605943, 3160938152, 3803605941, 3160938145, 3803605937, 3160889590, 25906282, 3803609632, 3160938144, 25906283, 3160938146, 3823341260, 3160938147, 3823341257, 3160938148, 3823340054, 3160938149, 3823340051, 3160938150, 3076682112, 3076682113, 25906273], "tags": {"area": "yes", "highway": "pedestrian", "lit": "yes", "name": "Plaza de Chueca", "name:etymology:wikidata": "Q24944157", "name:ko": "\ucd94\uc5d0\uce74 \uad11\uc7a5", "place": "square", "postal_code": "28004", "surface": "paving_stones", "tourism": "attraction", "wikidata": "Q24944157", "wikipedia": "es:Plaza de Chueca"}}, {"type": "way", "id": 4487679, "nodes": [26341673, 6109456225, 12400360898, 3429367546, 3429367549, 6109456233, 25906420, 25906421, 5970506954, 25906429, 59633359, 25906288, 25906289, 25906276, 5970506953, 25906277, 25906300, 25906301, 3927597018, 25906221, 25906112], "tags": {"cycleway": "shared_lane", "highway": "tertiary", "lanes": "2", "lit": "yes", "maxspeed": "30", "name": "Calle de Hortaleza", "oneway": "yes", "postal_code": "28004", "surface": "asphalt", "wikidata": "Q5740911"}}, {"type": "way", "id": 4487810, "nodes": [25906273, 25906272, 6301052256, 6301052259, 370503552, 25906209], "tags": {"highway": "living_street", "lanes": "1", "lit": "yes", "maxspeed": "20", "name": "Calle de San Gregorio", "oneway": "yes", "postal_code": "28004", "surface": "paving_stones"}}, {"type": "way", "id": 7642951, "nodes": [25906277, 930662415, 25906294, 3163832986, 1754199355, 1754199353], "tags": {"highway": "living_street", "lanes": "1", "lit": "yes", "name": "Calle de la Farmacia", "name:en": "Pharmacy Street", "name:es": "Calle de la Farmacia", "oneway": "yes", "oneway:bicycle": "no", "postal_code": "28004", "source:name": "survey", "surface": "asphalt"}}, {"type": "way", "id": 7972372, "nodes": [25906276, 25906275, 25906273, 25906281, 3161163797, 1718376821, 25906269], "tags": {"highway": "living_street", "lanes": "1", "lit": "yes", "maxspeed": "20", "name": "Calle de Gravina", "oneway": "yes", "postal_code": "28004", "surface": "paving_stones"}}, {"type": "way", "id": 23407031, "nodes": [25906270, 4309826953, 11375748161, 2239998764, 1718376823, 4951747250, 25906285, 25906284, 4951747252, 25906500, 4951747254, 25906287, 25906288], "tags": {"cycleway": "shared_lane", "highway": "residential", "lanes": "1", "lit": "yes", "maxspeed": "30", "name": "Calle de Augusto Figueroa", "name:etymology:wikidata": "Q16489206", "oneway": "yes", "postal_code": "28004", "surface": "sett"}}, {"type": "way", "id": 174851639, "nodes": [1855027664, 25906216, 25906212, 25906274, 326196041, 25906275, 4951747255, 25906287, 25906431], "tags": {"highway": "living_street", "lanes": "1", "lit": "yes", "maxspeed": "20", "name": "Calle de Pelayo", "name:etymology:wikidata": "Q14655", "oneway": "yes", "postal_code": "28004", "surface": "asphalt"}}, {"type": "way", "id": 178085413, "nodes": [25906290, 9047955455, 25906289], "tags": {"bicycle": "yes", "foot": "yes", "highway": "living_street", "lit": "yes", "maxheight": "6", "maxspeed": "20", "name": "Calle de Hern\u00e1n Cort\u00e9s", "oneway": "yes", "oneway:bicycle": "no", "postal_code": "28004", "smoothness": "good", "surface": "paving_stones"}}, {"type": "way", "id": 867526081, "nodes": [8086154962, 8086154957, 8086154958, 8086154964, 8086154963], "tags": {"highway": "footway", "lit": "yes"}}]}