{"version": 0.6, "generator": "Overpass API 0.7.62.5 1bd436f1", "osm3s": {"timestamp_osm_base": "2025-03-23T12:09:23Z", "copyright": "The data included in this document is from www.openstreetmap.org. The data is made available under ODbL."}, "elements": [{"type": "node", "id": 25902235, "lat": 40.4331273, "lon": -3.6888241, "tags": {"source": "yahoo_maps"}}, {"type": "node", "id": 25902430, "lat": 40.4340892, "lon": -3.6901349}, {"type": "node", "id": 25902431, "lat": 40.4341177, "lon": -3.6889925}, {"type": "node", "id": 25902655, "lat": 40.4351577, "lon": -3.6912629}, {"type": "node", "id": 60018311, "lat": 40.433917, "lon": -3.6949204}, {"type": "node", "id": 60018352, "lat": 40.4339847, "lon": -3.6932076, "tags": {"highway": "traffic_signals"}}, {"type": "node", "id": 63530461, "lat": 40.4340604, "lon": -3.6912773}, {"type": "node", "id": 63530471, "lat": 40.433105, "lon": -3.6913897}, {"type": "node", "id": 63530476, "lat": 40.4330684, "lon": -3.6911264}, {"type": "node", "id": 63530481, "lat": 40.4328297, "lon": -3.6911595}, {"type": "node", "id": 63530492, "lat": 40.4328011, "lon": -3.691241}, {"type": "node", "id": 63530535, "lat": 40.4330107, "lon": -3.691493}, {"type": "node", "id": 63530544, "lat": 40.4330655, "lon": -3.6914534}, {"type": "node", "id": 98959492, "lat": 40.4335031, "lon": -3.6980914}, {"type": "node", "id": 139971858, "lat": 40.4329663, "lon": -3.6910734, "tags": {"crossing": "no", "highway": "traffic_signals"}}, {"type": "node", "id": 139975676, "lat": 40.4330954, "lon": -3.6911661}, {"type": "node", "id": 255881691, "lat": 40.4331394, "lon": -3.6909407, "tags": {"layer": "-1", "name": "Rub\u00e9n Dar\u00edo", "railway": "subway_entrance"}}, {"type": "node", "id": 306092390, "lat": 40.4331241, "lon": -3.6912993, "tags": {"crossing": "no", "highway": "traffic_signals"}}, {"type": "node", "id": 341829485, "lat": 40.4330912, "lon": -3.6901047}, {"type": "node", "id": 341829519, "lat": 40.433068, "lon": -3.690714}, {"type": "node", "id": 341829531, "lat": 40.4330838, "lon": -3.690452}, {"type": "node", "id": 344795413, "lat": 40.4340253, "lon": -3.6921753}, {"type": "node", "id": 1011869674, "lat": 40.4328812, "lon": -3.6911004}, {"type": "node", "id": 1011869675, "lat": 40.4351346, "lon": -3.6921067}, {"type": "node", "id": 1011869678, "lat": 40.4340292, "lon": -3.6920758}, {"type": "node", "id": 1223809841, "lat": 40.4341163, "lon": -3.6890873, "tags": {"crossing": "zebra", "highway": "crossing", "tactile_paving": "yes"}}, {"type": "node", "id": 1439707514, "lat": 40.43336, "lon": -3.6914016, "tags": {"bench": "no", "bin": "no", "bus": "yes", "highway": "bus_stop", "lit": "yes", "name": "Rub\u00e9n Dar\u00edo", "network": "Empresa Municipal de Transportes de Madrid", "network:short": "EMT Madrid", "network:wikidata": "Q1094755", "operator": "Empresa Municipal de Transportes de Madrid", "operator:short": "EMT Madrid", "operator:wikidata": "Q1094755", "public_transport": "platform", "ref": "316", "shelter": "no", "source": "https://navegapormadrid.emtmadrid.es/app/", "tactile_paving": "yes"}}, {"type": "node", "id": 1591330252, "lat": 40.4335233, "lon": -3.6979228, "tags": {"crossing": "traffic_signals", "crossing:markings": "dots", "highway": "crossing", "tactile_paving": "yes"}}, {"type": "node", "id": 1760085715, "lat": 40.4330208, "lon": -3.6910883}, {"type": "node", "id": 1760085716, "lat": 40.4330197, "lon": -3.6909537, "tags": {"crossing": "traffic_signals", "crossing:markings": "dots", "highway": "crossing"}}, {"type": "node", "id": 1760085719, "lat": 40.433179, "lon": -3.6912189}, {"type": "node", "id": 1760085720, "lat": 40.4332049, "lon": -3.691335}, {"type": "node", "id": 1760085721, "lat": 40.4332254, "lon": -3.6912501}, {"type": "node", "id": 1760085722, "lat": 40.4332951, "lon": -3.691288, "tags": {"crossing": "traffic_signals", "crossing:markings": "dots", "highway": "crossing", "traffic_signals": "signal"}}, {"type": "node", "id": 3293613522, "lat": 40.4339531, "lon": -3.6947779}, {"type": "node", "id": 3627050624, "lat": 40.433084, "lon": -3.6905216, "tags": {"crossing": "uncontrolled", "highway": "crossing"}}, {"type": "node", "id": 4307191016, "lat": 40.4331205, "lon": -3.6890849, "tags": {"crossing": "zebra", "highway": "crossing", "tactile_paving": "yes"}}, {"type": "node", "id": 4416531498, "lat": 40.4350391, "lon": -3.6912651, "tags": {"button_operated": "no", "crossing": "traffic_signals", "crossing:island": "no", "crossing:markings": "dots", "highway": "traffic_signals", "tactile_paving": "yes", "traffic_signals:sound": "yes", "traffic_signals:vibration": "no"}}, {"type": "node", "id": 4626597051, "lat": 40.433204, "lon": -3.6909882}, {"type": "node", "id": 4626597052, "lat": 40.4331858, "lon": -3.6910101}, {"type": "node", "id": 4626597055, "lat": 40.4329223, "lon": -3.6910793}, {"type": "node", "id": 4626597058, "lat": 40.432972, "lon": -3.6909532}, {"type": "node", "id": 4626597061, "lat": 40.4330893, "lon": -3.6909545}, {"type": "node", "id": 4626597066, "lat": 40.4331052, "lon": -3.6909547}, {"type": "node", "id": 4626597067, "lat": 40.4331394, "lon": -3.6909192}, {"type": "node", "id": 4626597068, "lat": 40.4332979, "lon": -3.6913692}, {"type": "node", "id": 4626597069, "lat": 40.4332986, "lon": -3.6913913}, {"type": "node", "id": 4626597070, "lat": 40.4331181, "lon": -3.6912296}, {"type": "node", "id": 4626597071, "lat": 40.4332901, "lon": -3.6911388}, {"type": "node", "id": 4626597072, "lat": 40.4330649, "lon": -3.6905214, "tags": {"barrier": "kerb", "kerb": "lowered", "tactile_paving": "yes"}}, {"type": "node", "id": 4626597073, "lat": 40.4331038, "lon": -3.6905218, "tags": {"barrier": "kerb", "kerb": "lowered", "tactile_paving": "yes"}}, {"type": "node", "id": 4626597074, "lat": 40.4332527, "lon": -3.6901903}, {"type": "node", "id": 4626597075, "lat": 40.4331333, "lon": -3.690193}, {"type": "node", "id": 4626597076, "lat": 40.433119, "lon": -3.6901963}, {"type": "node", "id": 4626597077, "lat": 40.4331134, "lon": -3.6902131}, {"type": "node", "id": 4626597078, "lat": 40.4331088, "lon": -3.6906241}, {"type": "node", "id": 4626597079, "lat": 40.4330924, "lon": -3.6908655}, {"type": "node", "id": 4626597080, "lat": 40.4331006, "lon": -3.6908967}, {"type": "node", "id": 4626597081, "lat": 40.4331312, "lon": -3.6909128}, {"type": "node", "id": 4626597082, "lat": 40.4331761, "lon": -3.6909477}, {"type": "node", "id": 4626597083, "lat": 40.4332241, "lon": -3.6910174}, {"type": "node", "id": 4626597084, "lat": 40.433268, "lon": -3.6910952}, {"type": "node", "id": 4626597085, "lat": 40.4332926, "lon": -3.6912117, "tags": {"barrier": "kerb", "kerb": "lowered", "tactile_paving": "yes"}}, {"type": "node", "id": 4626599498, "lat": 40.4331108, "lon": -3.6905219}, {"type": "node", "id": 4626599499, "lat": 40.4330516, "lon": -3.6905212}, {"type": "node", "id": 4626599500, "lat": 40.4330506, "lon": -3.6904743}, {"type": "node", "id": 4633369992, "lat": 40.4339425, "lon": -3.6948445}, {"type": "node", "id": 4633369993, "lat": 40.433906, "lon": -3.6949542, "tags": {"highway": "give_way"}}, {"type": "node", "id": 4802617274, "lat": 40.4335845, "lon": -3.6911428}, {"type": "node", "id": 6370957358, "lat": 40.4344309, "lon": -3.6921251}, {"type": "node", "id": 6370957359, "lat": 40.4346203, "lon": -3.6921197}, {"type": "node", "id": 8057411475, "lat": 40.4350352, "lon": -3.6921073, "tags": {"highway": "crossing"}}, {"type": "node", "id": 8440634385, "lat": 40.4333603, "lon": -3.6912868, "tags": {"bus": "yes", "public_transport": "stop_position"}}, {"type": "node", "id": 11056722063, "lat": 40.4332004, "lon": -3.6915518}, {"type": "node", "id": 11056722064, "lat": 40.4330792, "lon": -3.6916799}, {"type": "node", "id": 11876253183, "lat": 40.4330026, "lon": -3.6917478}, {"type": "way", "id": 14369724, "nodes": [98959492, 1591330252, 4633369993, 60018311, 4633369992, 3293613522, 60018352, 344795413, 1011869678, 63530461, 25902430, 1223809841, 25902431], "tags": {"cycleway:both": "no", "destination": "Museo Sorolla;Glorieta de Emilio Castelar", "highway": "residential", "lane_markings": "no", "lit": "yes", "maxspeed": "50", "name": "Calle de Rafael Calvo", "oneway": "yes", "postal_code": "28010", "sidewalk": "both", "surface": "asphalt"}}, {"type": "way", "id": 30812599, "nodes": [25902235, 4307191016, 341829485, 341829531, 3627050624, 341829519, 1760085716], "tags": {"highway": "residential", "lanes": "1", "lit": "yes", "maxspeed": "50", "name": "Paseo de Eduardo Dato", "name:etymology:wikidata": "Q365162", "oneway": "yes", "surface": "asphalt", "turn:lanes": "through|through;right"}}, {"type": "way", "id": 43798348, "nodes": [25902655, 4416531498, 63530461], "tags": {"cycleway:both": "no", "highway": "tertiary", "lanes": "4", "lit": "yes", "maxspeed": "20", "maxspeed:type": "ES:zone20", "name": "Calle de Miguel \u00c1ngel", "name:etymology:wikidata": "Q5592", "sidewalk": "both", "sidewalk:both:surface": "paving_stones", "smoothness": "excellent", "surface": "asphalt"}}, {"type": "way", "id": 83668208, "nodes": [63530461, 8440634385, 1760085722], "tags": {"cycleway:both": "no", "highway": "tertiary", "lanes": "4", "lit": "yes", "maxspeed": "50", "name": "Calle de Miguel \u00c1ngel", "name:etymology:wikidata": "Q5592", "sidewalk": "both", "surface": "asphalt"}}, {"type": "way", "id": 86974744, "nodes": [1011869675, 8057411475, 6370957359, 6370957358, 1011869678], "tags": {"highway": "service", "smoothness": "excellent", "surface": "asphalt"}}, {"type": "way", "id": 131451860, "nodes": [63530476, 139975676], "tags": {"cycleway:right": "no", "foot": "no", "highway": "secondary", "junction": "circular", "lanes": "4", "lit": "yes", "maxspeed": "50", "name": "Plaza de Rub\u00e9n Dar\u00edo", "oneway": "yes", "shoulder": "no", "sidewalk": "no", "surface": "asphalt"}}, {"type": "way", "id": 164369262, "nodes": [1760085722, 1760085720, 63530471], "tags": {"highway": "tertiary", "lanes": "2", "lit": "yes", "maxspeed": "50", "name": "Calle de Miguel \u00c1ngel", "name:etymology:wikidata": "Q5592", "oneway": "yes", "surface": "asphalt"}}, {"type": "way", "id": 164369263, "nodes": [139975676, 1760085719, 1760085721, 1760085722], "tags": {"highway": "tertiary", "lanes": "2", "lit": "yes", "maxspeed": "50", "name": "Calle de Miguel \u00c1ngel", "name:etymology:wikidata": "Q5592", "oneway": "yes", "surface": "asphalt"}}, {"type": "way", "id": 245723750, "nodes": [63530471, 63530544, 63530535], "tags": {"cycleway:right": "no", "foot": "no", "highway": "secondary", "junction": "circular", "lanes": "4", "lit": "yes", "maxspeed": "50", "name": "Plaza de Rub\u00e9n Dar\u00edo", "oneway": "yes", "postal_code": "28010", "shoulder": "no", "sidewalk": "no", "surface": "asphalt"}}, {"type": "way", "id": 357467634, "nodes": [1760085716, 63530476], "tags": {"cycleway:right": "no", "highway": "secondary", "lanes": "4", "lit": "yes", "maxspeed": "50", "name": "Paseo de Eduardo Dato", "name:etymology:wikidata": "Q365162", "oneway": "yes", "sidewalk": "right", "surface": "asphalt"}}, {"type": "way", "id": 468105485, "nodes": [4626597051, 4626597052], "tags": {"footway": "sidewalk", "highway": "footway", "lit": "yes", "surface": "paved"}}, {"type": "way", "id": 468105487, "nodes": [255881691, 4626597052], "tags": {"highway": "steps", "lit": "yes"}}, {"type": "way", "id": 468105495, "nodes": [4626597061, 1760085716, 4626597058], "tags": {"footway": "crossing", "highway": "footway", "lit": "yes", "surface": "asphalt"}}, {"type": "way", "id": 468105497, "nodes": [4626597067, 4626597066, 4626597061], "tags": {"footway": "crossing", "highway": "footway", "lit": "yes", "surface": "asphalt"}}, {"type": "way", "id": 468105502, "nodes": [4626597085, 4626597071], "tags": {"footway": "sidewalk", "highway": "footway", "lit": "yes", "surface": "paved"}}, {"type": "way", "id": 468105503, "nodes": [4626597069, 4626597068], "tags": {"footway": "sidewalk", "highway": "footway", "lit": "yes", "surface": "paved"}}, {"type": "way", "id": 468105506, "nodes": [4626597068, 1760085722, 4626597085], "tags": {"crossing": "traffic_signals", "footway": "crossing", "highway": "footway", "lit": "yes", "surface": "asphalt"}}, {"type": "way", "id": 468105508, "nodes": [4626597073, 4626599498], "tags": {"footway": "sidewalk", "highway": "footway", "lit": "yes", "surface": "paving_stones"}}, {"type": "way", "id": 468105510, "nodes": [4626597072, 3627050624, 4626597073], "tags": {"footway": "crossing", "highway": "footway", "lit": "yes", "surface": "asphalt"}}, {"type": "way", "id": 468105517, "nodes": [4802617274, 4626597071, 4626597084, 4626597083, 4626597051, 4626597082, 4626597067, 4626597081, 4626597080, 4626597079, 4626597078, 4626599498, 4626597077, 4626597076, 4626597075, 4626597074], "tags": {"footway": "sidewalk", "highway": "footway", "lit": "yes", "surface": "paving_stones"}}, {"type": "way", "id": 468105526, "nodes": [4626599500, 4626599499, 4626597072], "tags": {"footway": "sidewalk", "highway": "footway", "lit": "yes", "surface": "paving_stones"}}, {"type": "way", "id": 512095737, "nodes": [139975676, 4626597070, 306092390, 63530471], "tags": {"cycleway:right": "no", "foot": "no", "highway": "secondary", "junction": "circular", "lanes": "4", "lit": "yes", "maxspeed": "50", "name": "Plaza de Rub\u00e9n Dar\u00edo", "oneway": "yes", "shoulder": "no", "sidewalk": "no", "surface": "asphalt"}}, {"type": "way", "id": 512095738, "nodes": [63530492, 63530481, 1011869674, 4626597055, 139971858, 1760085715, 63530476], "tags": {"cycleway:right": "no", "foot": "no", "highway": "secondary", "junction": "circular", "lanes": "4", "lit": "yes", "maxspeed": "50", "name": "Plaza de Rub\u00e9n Dar\u00edo", "oneway": "yes", "shoulder": "no", "sidewalk": "no", "surface": "asphalt"}}, {"type": "way", "id": 1190823350, "nodes": [4626597069, 11056722063, 11056722064, 11876253183], "tags": {"footway": "sidewalk", "highway": "footway", "lit": "yes"}}]}