{"version": 0.6, "generator": "Overpass API 0.7.62.5 1bd436f1", "osm3s": {"timestamp_osm_base": "2025-03-23T13:57:32Z", "copyright": "The data included in this document is from www.openstreetmap.org. The data is made available under ODbL."}, "elements": [{"type": "node", "id": 25531129, "lat": 40.4329389, "lon": -3.6494435}, {"type": "node", "id": 25531130, "lat": 40.4328167, "lon": -3.6503062}, {"type": "node", "id": 25531131, "lat": 40.4327595, "lon": -3.6507061}, {"type": "node", "id": 101023775, "lat": 40.432301, "lon": -3.6484422}, {"type": "node", "id": 101023776, "lat": 40.4317624, "lon": -3.6482708}, {"type": "node", "id": 101025019, "lat": 40.4320995, "lon": -3.649251, "tags": {"bus": "yes", "public_transport": "stop_position"}}, {"type": "node", "id": 101025020, "lat": 40.431655, "lon": -3.6491455}, {"type": "node", "id": 101025021, "lat": 40.4311183, "lon": -3.6490268}, {"type": "node", "id": 101025022, "lat": 40.4305872, "lon": -3.6489088}, {"type": "node", "id": 101025024, "lat": 40.4300586, "lon": -3.6487863}, {"type": "node", "id": 101025025, "lat": 40.4295124, "lon": -3.6486707}, {"type": "node", "id": 101025026, "lat": 40.4289853, "lon": -3.6485585}, {"type": "node", "id": 101025639, "lat": 40.4315439, "lon": -3.6500151}, {"type": "node", "id": 101025640, "lat": 40.4310501, "lon": -3.6499011}, {"type": "node", "id": 101025641, "lat": 40.4304758, "lon": -3.6497728}, {"type": "node", "id": 101025643, "lat": 40.4299448, "lon": -3.6496633}, {"type": "node", "id": 101025644, "lat": 40.4296769, "lon": -3.6496038}, {"type": "node", "id": 101025645, "lat": 40.4294005, "lon": -3.6495434}, {"type": "node", "id": 101025646, "lat": 40.4288681, "lon": -3.6494279}, {"type": "node", "id": 101025848, "lat": 40.4317238, "lon": -3.6504604}, {"type": "node", "id": 101025849, "lat": 40.431057, "lon": -3.6503135}, {"type": "node", "id": 101026150, "lat": 40.4316195, "lon": -3.6513062}, {"type": "node", "id": 101030698, "lat": 40.4317734, "lon": -3.650074}, {"type": "node", "id": 1377849342, "lat": 40.4321944, "lon": -3.6492726}, {"type": "node", "id": 1377849344, "lat": 40.4327689, "lon": -3.6485922}, {"type": "node", "id": 3177436373, "lat": 40.4317534, "lon": -3.6483703, "tags": {"highway": "give_way"}}, {"type": "node", "id": 3177623773, "lat": 40.4316387, "lon": -3.6492727, "tags": {"highway": "give_way"}}, {"type": "node", "id": 3177623775, "lat": 40.4316458, "lon": -3.6492177, "tags": {"crossing": "uncontrolled", "crossing:markings": "zebra", "highway": "crossing"}}, {"type": "node", "id": 3177624058, "lat": 40.4322059, "lon": -3.6492304}, {"type": "node", "id": 3177624059, "lat": 40.4322114, "lon": -3.649185}, {"type": "node", "id": 3177624099, "lat": 40.4323124, "lon": -3.6491328, "tags": {"highway": "give_way"}}, {"type": "node", "id": 3177624217, "lat": 40.4328416, "lon": -3.6494212, "tags": {"button_operated": "no", "crossing": "traffic_signals", "crossing:markings": "dots", "highway": "crossing", "tactile_paving": "yes", "traffic_signals:vibration": "no"}}, {"type": "node", "id": 3200176871, "lat": 40.4293128, "lon": -3.6495238, "tags": {"crossing": "uncontrolled", "crossing:markings": "zebra", "highway": "crossing"}}, {"type": "node", "id": 3200176877, "lat": 40.4294272, "lon": -3.6486526, "tags": {"crossing": "uncontrolled", "crossing:markings": "zebra", "highway": "crossing"}}, {"type": "node", "id": 3200176878, "lat": 40.4294701, "lon": -3.6495586, "tags": {"crossing": "uncontrolled", "crossing:markings": "zebra", "highway": "crossing"}}, {"type": "node", "id": 3200176885, "lat": 40.43001, "lon": -3.6496775, "tags": {"crossing": "uncontrolled", "crossing:markings": "zebra", "highway": "crossing"}}, {"type": "node", "id": 3200176892, "lat": 40.4309522, "lon": -3.6498792, "tags": {"crossing": "uncontrolled", "crossing:markings": "zebra", "highway": "crossing"}}, {"type": "node", "id": 3200176899, "lat": 40.4311332, "lon": -3.6499203, "tags": {"crossing": "uncontrolled", "crossing:markings": "zebra", "highway": "crossing"}}, {"type": "node", "id": 3200176902, "lat": 40.4317591, "lon": -3.6501778, "tags": {"highway": "give_way"}}, {"type": "node", "id": 3200176903, "lat": 40.4317631, "lon": -3.6501461, "tags": {"crossing": "uncontrolled", "crossing:markings": "zebra", "highway": "crossing"}}, {"type": "node", "id": 3200176905, "lat": 40.4327159, "lon": -3.650284, "tags": {"crossing": "uncontrolled", "crossing:markings": "zebra", "highway": "crossing"}}, {"type": "node", "id": 3202125305, "lat": 40.4311273, "lon": -3.650329, "tags": {"crossing": "uncontrolled", "crossing:markings": "zebra", "highway": "crossing"}}, {"type": "node", "id": 3202125318, "lat": 40.43116, "lon": -3.6503362, "tags": {"highway": "give_way"}}, {"type": "node", "id": 3202125428, "lat": 40.4316285, "lon": -3.6512331, "tags": {"crossing": "uncontrolled", "crossing:markings": "zebra", "highway": "crossing"}}, {"type": "node", "id": 3202125445, "lat": 40.4317127, "lon": -3.6505506, "tags": {"crossing": "uncontrolled", "crossing:markings": "zebra", "highway": "crossing"}}, {"type": "node", "id": 3202125450, "lat": 40.431732, "lon": -3.6503944, "tags": {"crossing": "uncontrolled", "crossing:markings": "zebra", "highway": "crossing"}}, {"type": "node", "id": 3202125463, "lat": 40.4317894, "lon": -3.650476, "tags": {"crossing": "uncontrolled", "crossing:markings": "zebra", "highway": "crossing"}}, {"type": "node", "id": 3202125474, "lat": 40.4318165, "lon": -3.6504824, "tags": {"highway": "give_way"}}, {"type": "node", "id": 3202125716, "lat": 40.4326636, "lon": -3.6506834, "tags": {"crossing": "uncontrolled", "crossing:markings": "zebra", "highway": "crossing"}}, {"type": "node", "id": 4788244066, "lat": 40.4317207, "lon": -3.6500603}, {"type": "node", "id": 4788244067, "lat": 40.4317209, "lon": -3.6498871}, {"type": "node", "id": 4788244068, "lat": 40.4316933, "lon": -3.6498387}, {"type": "node", "id": 4788244069, "lat": 40.4315703, "lon": -3.6498082}, {"type": "node", "id": 8505039678, "lat": 40.4304038, "lon": -3.6488644, "tags": {"bus": "yes", "public_transport": "stop_position"}}, {"type": "way", "id": 11356143, "nodes": [101025026, 3200176877, 101025025, 101025024, 8505039678, 101025022, 101025021, 101025020, 101025019, 1377849342, 3177624217, 25531129], "tags": {"highway": "residential", "lanes": "1", "maxspeed": "50", "name": "Calle de los Hermanos Machado", "oneway": "yes", "postal_code": "28017", "sidewalk": "both", "surface": "asphalt"}}, {"type": "way", "id": 11356249, "nodes": [25531131, 3202125716, 3202125474, 3202125463, 101025848, 3202125318, 3202125305, 101025849], "tags": {"highway": "residential", "lanes": "1", "maxspeed": "40", "name": "Calle de San M\u00e1ximo Juan", "oneway": "yes", "postal_code": "28017", "sidewalk": "both", "surface": "asphalt"}}, {"type": "way", "id": 11357022, "nodes": [101026150, 3202125428, 3202125445, 101025848, 3202125450, 3200176902, 3200176903, 101030698], "tags": {"highway": "residential", "lanes": "1", "maxspeed": "40", "name": "Calle de Benidorm", "oneway": "yes", "sidewalk": "both", "surface": "asphalt"}}, {"type": "way", "id": 11357057, "nodes": [1377849342, 3177624058, 3177624059, 101023775], "tags": {"highway": "residential", "lanes": "1", "maxspeed": "40", "name": "Calle de San Juan de la Cuesta", "oneway": "yes", "sidewalk": "both", "surface": "asphalt"}}, {"type": "way", "id": 11357679, "nodes": [101025639, 4788244069, 3177623773, 3177623775, 101025020, 3177436373, 101023776], "tags": {"highway": "residential", "lanes": "1", "maxspeed": "40", "name": "Calle de Lorenzo Gonz\u00e1lez", "oneway": "yes", "sidewalk": "both", "surface": "asphalt"}}, {"type": "way", "id": 41377956, "nodes": [25531130, 3200176905, 101030698, 4788244066, 101025639, 3200176899, 101025640, 3200176892, 101025641, 3200176885, 101025643, 101025644, 3200176878, 101025645, 3200176871, 101025646], "tags": {"highway": "residential", "lanes": "1", "maxspeed": "40", "name": "Calle de los Hermanos G\u00f3mez", "oneway": "yes", "postal_code": "28017", "sidewalk": "both", "surface": "asphalt"}}, {"type": "way", "id": 123622051, "nodes": [1377849344, 3177624099, 1377849342], "tags": {"highway": "residential", "lanes": "1", "maxspeed": "50", "name": "Calle de Ferm\u00edn Dom\u00ednguez", "oneway": "yes", "sidewalk": "both", "source:maxspeed": "sign", "surface": "asphalt"}}, {"type": "way", "id": 486105045, "nodes": [4788244066, 4788244067, 4788244068, 4788244069], "tags": {"highway": "service", "service": "parking_aisle"}}]}