{"version": 0.6, "generator": "Overpass API 0.7.62.5 1bd436f1", "osm3s": {"timestamp_osm_base": "2025-03-23T14:59:45Z", "copyright": "The data included in this document is from www.openstreetmap.org. The data is made available under ODbL."}, "elements": [{"type": "node", "id": 253111573, "lat": 40.4708712, "lon": -3.6429775}, {"type": "node", "id": 253111574, "lat": 40.4701894, "lon": -3.6429603}, {"type": "node", "id": 253111936, "lat": 40.471862, "lon": -3.644127}, {"type": "node", "id": 253111937, "lat": 40.472225, "lon": -3.6442039}, {"type": "node", "id": 253111939, "lat": 40.4733783, "lon": -3.6439814}, {"type": "node", "id": 253112008, "lat": 40.4707739, "lon": -3.6442837}, {"type": "node", "id": 253112036, "lat": 40.4711121, "lon": -3.6453669}, {"type": "node", "id": 253112037, "lat": 40.4700686, "lon": -3.6429955}, {"type": "node", "id": 253112038, "lat": 40.469901, "lon": -3.6428996, "tags": {"button_operated": "no", "crossing": "traffic_signals", "highway": "crossing", "tactile_paving": "yes"}}, {"type": "node", "id": 253112039, "lat": 40.4697406, "lon": -3.6429364}, {"type": "node", "id": 253112041, "lat": 40.4710001, "lon": -3.6441818}, {"type": "node", "id": 253112049, "lat": 40.471202, "lon": -3.6453149, "tags": {"bus": "yes", "public_transport": "stop_position"}}, {"type": "node", "id": 253112281, "lat": 40.4708715, "lon": -3.6461439}, {"type": "node", "id": 254998560, "lat": 40.4706441, "lon": -3.644335}, {"type": "node", "id": 254998561, "lat": 40.4702785, "lon": -3.6449186}, {"type": "node", "id": 254998562, "lat": 40.4703697, "lon": -3.6446467}, {"type": "node", "id": 254998563, "lat": 40.4705794, "lon": -3.6443693, "tags": {"highway": "crossing"}}, {"type": "node", "id": 254999443, "lat": 40.4695437, "lon": -3.646187}, {"type": "node", "id": 254999444, "lat": 40.4702224, "lon": -3.6440891}, {"type": "node", "id": 254999445, "lat": 40.4704665, "lon": -3.6439305}, {"type": "node", "id": 254999929, "lat": 40.4701652, "lon": -3.6432333, "tags": {"button_operated": "no", "crossing": "traffic_signals", "highway": "crossing", "tactile_paving": "yes"}}, {"type": "node", "id": 255000256, "lat": 40.4704128, "lon": -3.6440672}, {"type": "node", "id": 255009063, "lat": 40.4708987, "lon": -3.6435895}, {"type": "node", "id": 262942841, "lat": 40.4699302, "lon": -3.6439503}, {"type": "node", "id": 1439711782, "lat": 40.4709092, "lon": -3.6450841, "tags": {"bus": "yes", "highway": "bus_stop", "name": "Valdetorres de Jarama-\u00c1ngel Luis Herr\u00e1n", "operator": "EMT Madrid", "public_transport": "platform", "ref": "484", "source": "https://navegapormadrid.emtmadrid.es/app/"}}, {"type": "node", "id": 1439711783, "lat": 40.4712534, "lon": -3.645244, "tags": {"bench": "yes", "bus": "yes", "highway": "bus_stop", "name": "Valdetorres de Jarama-\u00c1ngel Luis Herr\u00e1n", "operator": "EMT Madrid", "public_transport": "platform", "ref": "483", "shelter": "yes", "source": "https://navegapormadrid.emtmadrid.es/app/"}}, {"type": "node", "id": 3044053054, "lat": 40.4707862, "lon": -3.6460914, "tags": {"crossing": "uncontrolled", "highway": "crossing"}}, {"type": "node", "id": 3044053056, "lat": 40.4708313, "lon": -3.6442425, "tags": {"crossing": "uncontrolled", "crossing:markings": "yes", "highway": "crossing"}}, {"type": "node", "id": 3044053057, "lat": 40.4710036, "lon": -3.6451714, "tags": {"crossing": "uncontrolled", "highway": "crossing"}}, {"type": "node", "id": 3044053059, "lat": 40.4711447, "lon": -3.6451325, "tags": {"crossing": "uncontrolled", "highway": "traffic_signals", "traffic_signals": "signal"}}, {"type": "node", "id": 3044053061, "lat": 40.4712582, "lon": -3.6454382}, {"type": "node", "id": 3162630241, "lat": 40.4702027, "lon": -3.6433228}, {"type": "node", "id": 3162630242, "lat": 40.4702733, "lon": -3.6431457, "tags": {"button_operated": "no", "crossing": "traffic_signals", "highway": "crossing", "tactile_paving": "yes"}}, {"type": "node", "id": 3162630253, "lat": 40.4704667, "lon": -3.6444677}, {"type": "node", "id": 3162630254, "lat": 40.470649, "lon": -3.6445343, "tags": {"highway": "crossing"}}, {"type": "node", "id": 3162630255, "lat": 40.4708522, "lon": -3.6443832, "tags": {"highway": "crossing"}}, {"type": "node", "id": 3162630258, "lat": 40.4710747, "lon": -3.6449753}, {"type": "node", "id": 3162630259, "lat": 40.4711237, "lon": -3.6449401, "tags": {"crossing": "uncontrolled", "crossing:markings": "yes", "highway": "crossing"}}, {"type": "node", "id": 3162630260, "lat": 40.4711699, "lon": -3.6453074}, {"type": "node", "id": 3162633577, "lat": 40.4712237, "lon": -3.6448616}, {"type": "node", "id": 3284347515, "lat": 40.4717865, "lon": -3.644814}, {"type": "node", "id": 3697606003, "lat": 40.4703066, "lon": -3.6435621, "tags": {"bus": "yes", "public_transport": "stop_position"}}, {"type": "node", "id": 3697606004, "lat": 40.4709541, "lon": -3.6450569, "tags": {"bus": "yes", "public_transport": "stop_position"}}, {"type": "node", "id": 3697943507, "lat": 40.4703099, "lon": -3.6432289, "tags": {"bus": "yes", "public_transport": "stop_position"}}, {"type": "node", "id": 4226711608, "lat": 40.4700039, "lon": -3.6439853, "tags": {"highway": "crossing"}}, {"type": "node", "id": 4467099023, "lat": 40.470348, "lon": -3.6457933}, {"type": "node", "id": 4754311997, "lat": 40.4711937, "lon": -3.6450933}, {"type": "node", "id": 4754311998, "lat": 40.4710848, "lon": -3.6451811}, {"type": "node", "id": 4754311999, "lat": 40.4710625, "lon": -3.6451303}, {"type": "node", "id": 4754312000, "lat": 40.4709418, "lon": -3.6452181}, {"type": "node", "id": 4754312001, "lat": 40.4714083, "lon": -3.6455688}, {"type": "node", "id": 4754312005, "lat": 40.4711064, "lon": -3.6449528, "tags": {"direction": "backward", "highway": "give_way", "traffic_sign": "ES:R1"}}, {"type": "node", "id": 4754312007, "lat": 40.4711563, "lon": -3.6450087}, {"type": "node", "id": 4754312008, "lat": 40.4710942, "lon": -3.6448767}, {"type": "node", "id": 4754312009, "lat": 40.4716569, "lon": -3.6460945}, {"type": "node", "id": 5570447816, "lat": 40.4723054, "lon": -3.6442008, "tags": {"crossing": "zebra", "highway": "crossing"}}, {"type": "node", "id": 5570447820, "lat": 40.4709406, "lon": -3.6439444}, {"type": "node", "id": 5570449392, "lat": 40.470907, "lon": -3.6436595, "tags": {"highway": "crossing"}}, {"type": "node", "id": 10246496780, "lat": 40.4712508, "lon": -3.6453921}, {"type": "node", "id": 10246496781, "lat": 40.4712279, "lon": -3.6453465}, {"type": "node", "id": 10246496785, "lat": 40.4711272, "lon": -3.645337}, {"type": "node", "id": 10246496787, "lat": 40.4711455, "lon": -3.6453182}, {"type": "node", "id": 11284299575, "lat": 40.4708817, "lon": -3.644362}, {"type": "node", "id": 11284299576, "lat": 40.4703496, "lon": -3.6430853}, {"type": "node", "id": 11284299577, "lat": 40.4708324, "lon": -3.6444188, "tags": {"highway": "crossing"}}, {"type": "node", "id": 11284299578, "lat": 40.4708258, "lon": -3.6444037, "tags": {"crossing": "uncontrolled", "highway": "crossing"}}, {"type": "node", "id": 11284299579, "lat": 40.4707011, "lon": -3.6444699, "tags": {"highway": "crossing"}}, {"type": "node", "id": 11284299580, "lat": 40.4707096, "lon": -3.6444895, "tags": {"crossing": "uncontrolled", "highway": "crossing"}}, {"type": "node", "id": 11358595888, "lat": 40.4710694, "lon": -3.6448166}, {"type": "node", "id": 11358595889, "lat": 40.4721169, "lon": -3.6447236}, {"type": "node", "id": 11717497054, "lat": 40.470876, "lon": -3.6430852, "tags": {"crossing:island": "no", "highway": "crossing", "source": "aerial imagery"}}, {"type": "way", "id": 23377318, "nodes": [253112041, 253111936, 253111937, 5570447816, 253111939], "tags": {"highway": "residential", "lanes": "1", "maxspeed": "50", "name": "Calle del Mar de Kara", "oneway": "yes", "surface": "asphalt"}}, {"type": "way", "id": 23377322, "nodes": [253111573, 11717497054, 255009063, 5570449392, 5570447820, 253112041], "tags": {"highway": "residential", "name": "Calle del Estrecho de Ormuz"}}, {"type": "way", "id": 23377331, "nodes": [253112008, 3044053056, 253112041], "tags": {"highway": "residential", "maxspeed": "40", "name": "Calle del Mar de Kara", "source:maxspeed": "sign", "surface": "asphalt"}}, {"type": "way", "id": 23377353, "nodes": [254998560, 254998563, 3162630253, 254998562, 254998561, 4467099023, 3044053054, 253112281], "tags": {"highway": "residential", "maxspeed": "50", "name": "Calle de Belianes", "oneway": "yes", "surface": "asphalt"}}, {"type": "way", "id": 24283606, "nodes": [254999444, 4226711608, 262942841], "tags": {"highway": "residential", "name": "Calle de Hern\u00e1ndez Col\u00f3n"}}, {"type": "way", "id": 310777705, "nodes": [3162630258, 4754312005, 3162630259, 3162633577, 3284347515], "tags": {"highway": "service", "name": "Pasaje de Rogelio Mu\u00f1oz", "old_name": "Calle Mar Tirreno", "service": "alley"}}, {"type": "way", "id": 310777714, "nodes": [3162630255, 11284299578, 11284299580, 3162630254], "tags": {"crossing": "uncontrolled", "crossing:markings": "yes", "footway": "crossing", "highway": "footway"}}, {"type": "way", "id": 321674938, "nodes": [254999443, 254999444, 255000256], "tags": {"highway": "residential", "maxspeed": "30", "name": "Calle de Hern\u00e1ndez Col\u00f3n"}}, {"type": "way", "id": 482622894, "nodes": [4754311997, 3044053059, 4754311998, 4754311999, 3044053057, 4754312000], "tags": {"crossing": "traffic_signals", "footway": "crossing", "highway": "footway"}}, {"type": "way", "id": 482622896, "nodes": [4754312007, 4754311997, 4754312001, 4754312009], "tags": {"footway": "sidewalk", "highway": "footway"}}, {"type": "way", "id": 482622898, "nodes": [4754312007, 3162630259, 4754312008], "tags": {"crossing": "zebra", "footway": "crossing", "highway": "footway"}}, {"type": "way", "id": 1120307719, "nodes": [253111574, 3162630242, 3697943507, 253112008, 11284299578, 11284299577, 3162630258, 3044053059, 253112049], "tags": {"highway": "tertiary", "lanes": "2", "maxspeed": "40", "name": "Calle de Valdetorres del Jarama", "oneway": "yes", "surface": "asphalt"}}, {"type": "way", "id": 1120307720, "nodes": [253112049, 10246496781, 10246496780, 3044053061], "tags": {"highway": "tertiary", "junction": "roundabout", "lanes": "2", "maxspeed": "40", "surface": "asphalt"}}, {"type": "way", "id": 1120307721, "nodes": [253112036, 3044053057, 3697606004, 11284299580, 11284299579, 254998560, 254999445, 3697606003, 3162630241, 254999929, 253112037, 253112038, 253112039], "tags": {"highway": "tertiary", "lanes": "2", "maxspeed": "40", "name": "Calle de Valdetorres del Jarama", "oneway": "yes", "source:maxspeed": "sign", "surface": "asphalt"}}, {"type": "way", "id": 1120307722, "nodes": [253112036, 10246496785, 10246496787, 3162630260, 253112049], "tags": {"highway": "tertiary", "junction": "roundabout", "maxspeed": "40", "source:maxspeed": "sign", "surface": "asphalt"}}, {"type": "way", "id": 1217843182, "nodes": [3162630255, 11284299575, 3044053056, 11284299576], "tags": {"footway": "sidewalk", "highway": "footway", "surface": "paving_stones"}}, {"type": "way", "id": 1217843183, "nodes": [11284299575, 11358595888, 4754312008], "tags": {"footway": "sidewalk", "highway": "footway"}}, {"type": "way", "id": 1224819272, "nodes": [11358595888, 11358595889], "tags": {"footway": "sidewalk", "highway": "footway"}}]}