{"version": 0.6, "generator": "Overpass API 0.7.62.5 1bd436f1", "osm3s": {"timestamp_osm_base": "2025-03-23T13:48:30Z", "copyright": "The data included in this document is from www.openstreetmap.org. The data is made available under ODbL."}, "elements": [{"type": "node", "id": 26412844, "lat": 40.456856, "lon": -3.7018974}, {"type": "node", "id": 26412845, "lat": 40.4562926, "lon": -3.7022055, "tags": {"highway": "traffic_signals"}}, {"type": "node", "id": 26412871, "lat": 40.4557283, "lon": -3.7024376}, {"type": "node", "id": 26412872, "lat": 40.4550546, "lon": -3.7027024, "tags": {"highway": "traffic_signals"}}, {"type": "node", "id": 81572820, "lat": 40.4560423, "lon": -3.7001053}, {"type": "node", "id": 81577330, "lat": 40.456132, "lon": -3.7008789}, {"type": "node", "id": 81577331, "lat": 40.4554578, "lon": -3.701145}, {"type": "node", "id": 93888259, "lat": 40.4560935, "lon": -3.7022885}, {"type": "node", "id": 93888316, "lat": 40.4560923, "lon": -3.7037268}, {"type": "node", "id": 93888461, "lat": 40.4552976, "lon": -3.7033527}, {"type": "node", "id": 2283386634, "lat": 40.4551081, "lon": -3.7028327, "tags": {"button_operated": "no", "crossing": "traffic_signals", "highway": "crossing", "tactile_paving": "yes", "traffic_signals:sound": "no", "traffic_signals:vibration": "no"}}, {"type": "node", "id": 2567969170, "lat": 40.4551667, "lon": -3.702661, "tags": {"button_operated": "no", "crossing": "traffic_signals", "crossing:island": "no", "highway": "crossing", "tactile_paving": "yes", "traffic_signals:sound": "yes", "traffic_signals:vibration": "no"}}, {"type": "node", "id": 2567969173, "lat": 40.4564282, "lon": -3.7021385, "tags": {"button_operated": "no", "crossing": "traffic_signals", "crossing:island": "no", "highway": "crossing", "tactile_paving": "yes", "traffic_signals:sound": "yes", "traffic_signals:vibration": "no"}}, {"type": "node", "id": 2567969176, "lat": 40.4562713, "lon": -3.7020502, "tags": {"button_operated": "no", "crossing": "traffic_signals", "crossing:markings": "dots", "highway": "crossing", "tactile_paving": "yes", "traffic_signals:sound": "yes", "traffic_signals:vibration": "no"}}, {"type": "node", "id": 3277147092, "lat": 40.4554716, "lon": -3.7012075, "tags": {"crossing": "uncontrolled", "highway": "crossing", "tactile_paving": "yes"}}, {"type": "node", "id": 3393550112, "lat": 40.455137, "lon": -3.7028221}, {"type": "node", "id": 3393550118, "lat": 40.4551578, "lon": -3.7028141}, {"type": "node", "id": 3393550121, "lat": 40.4552959, "lon": -3.7033034}, {"type": "node", "id": 3393550124, "lat": 40.455336, "lon": -3.7033455}, {"type": "node", "id": 3393550128, "lat": 40.4560323, "lon": -3.7036715}, {"type": "node", "id": 3393550129, "lat": 40.4560367, "lon": -3.7024547}, {"type": "node", "id": 3393550132, "lat": 40.4560617, "lon": -3.702447}, {"type": "node", "id": 3393550133, "lat": 40.4560475, "lon": -3.7036593}, {"type": "node", "id": 3393550134, "lat": 40.4560728, "lon": -3.7024674}, {"type": "node", "id": 3393550135, "lat": 40.4560686, "lon": -3.7036353}, {"type": "node", "id": 3393550136, "lat": 40.4560954, "lon": -3.7036747, "tags": {"crossing": "uncontrolled", "crossing:markings": "zebra", "highway": "crossing", "tactile_paving": "yes"}}, {"type": "node", "id": 3393550137, "lat": 40.4561007, "lon": -3.7024557, "tags": {"crossing": "uncontrolled", "highway": "crossing", "tactile_paving": "yes"}}, {"type": "node", "id": 3393550139, "lat": 40.456129, "lon": -3.7037128}, {"type": "node", "id": 3393550140, "lat": 40.4561282, "lon": -3.7036805}, {"type": "node", "id": 3393550141, "lat": 40.4561199, "lon": -3.7024453}, {"type": "node", "id": 3393550142, "lat": 40.4561405, "lon": -3.7024197}, {"type": "node", "id": 3393550151, "lat": 40.456466, "lon": -3.7022813}, {"type": "node", "id": 3393550174, "lat": 40.4573063, "lon": -3.7017693}, {"type": "node", "id": 3394492342, "lat": 40.4550458, "lon": -3.7028539}, {"type": "node", "id": 3394492347, "lat": 40.4550894, "lon": -3.7028812}, {"type": "node", "id": 3394492351, "lat": 40.4550984, "lon": -3.7037202}, {"type": "node", "id": 3394492355, "lat": 40.4551375, "lon": -3.7028544}, {"type": "node", "id": 3394492360, "lat": 40.4552609, "lon": -3.7033874}, {"type": "node", "id": 3394492361, "lat": 40.4552636, "lon": -3.7033658}, {"type": "node", "id": 3394492363, "lat": 40.4553149, "lon": -3.7033289}, {"type": "node", "id": 3402545898, "lat": 40.4572268, "lon": -3.7018039, "tags": {"crossing": "unmarked", "crossing:markings": "no", "highway": "crossing", "tactile_paving": "no"}}, {"type": "node", "id": 4870491939, "lat": 40.4550652, "lon": -3.7037106}, {"type": "node", "id": 5001652213, "lat": 40.4549538, "lon": -3.7026647}, {"type": "node", "id": 5001652214, "lat": 40.4549569, "lon": -3.7026921}, {"type": "node", "id": 5001652215, "lat": 40.4551548, "lon": -3.7026564}, {"type": "node", "id": 5001652217, "lat": 40.4552652, "lon": -3.7027606, "tags": {"name": "Fulgencio de Miguel", "railway": "subway_entrance", "wheelchair": "no"}}, {"type": "node", "id": 5001652218, "lat": 40.455247, "lon": -3.7027631}, {"type": "node", "id": 5001652219, "lat": 40.455225, "lon": -3.7027713}, {"type": "node", "id": 5001652220, "lat": 40.455183, "lon": -3.7027867}, {"type": "node", "id": 5001652421, "lat": 40.4551738, "lon": -3.7027435}, {"type": "node", "id": 5001652422, "lat": 40.4551661, "lon": -3.7027069}, {"type": "node", "id": 5001652423, "lat": 40.4551411, "lon": -3.7025888}, {"type": "node", "id": 5001652424, "lat": 40.4551338, "lon": -3.702554}, {"type": "node", "id": 5001652425, "lat": 40.4551279, "lon": -3.7025263}, {"type": "node", "id": 5001652426, "lat": 40.455151, "lon": -3.7025179}, {"type": "node", "id": 5001652427, "lat": 40.455183, "lon": -3.7025062}, {"type": "node", "id": 5001652428, "lat": 40.4552017, "lon": -3.7024994}, {"type": "node", "id": 5001652472, "lat": 40.4552329, "lon": -3.702488, "tags": {"name": "Manuel Luna", "railway": "subway_entrance", "wheelchair": "no"}}, {"type": "node", "id": 5963987033, "lat": 40.4565448, "lon": -3.702078, "tags": {"bus": "yes", "name": "Bravo Murillo - Lope de Haro", "operator": "EMT Madrid", "public_transport": "stop_position", "ref": "1858", "source": "https://navegapormadrid.emtmadrid.es/app/"}}, {"type": "node", "id": 8517681047, "lat": 40.4567154, "lon": -3.7019793, "tags": {"bus": "yes", "public_transport": "stop_position"}}, {"type": "node", "id": 8599968182, "lat": 40.4553213, "lon": -3.7027364}, {"type": "node", "id": 8599968183, "lat": 40.4553433, "lon": -3.7027417}, {"type": "node", "id": 8599968184, "lat": 40.4553366, "lon": -3.7027669}, {"type": "node", "id": 8599968185, "lat": 40.4552651, "lon": -3.7027946}, {"type": "node", "id": 8599968186, "lat": 40.4551972, "lon": -3.7027974}, {"type": "node", "id": 8630185212, "lat": 40.4552622, "lon": -3.7033773}, {"type": "node", "id": 8673030719, "lat": 40.4551379, "lon": -3.7025336}, {"type": "node", "id": 11830295116, "lat": 40.4557011, "lon": -3.7023073}, {"type": "node", "id": 11830295117, "lat": 40.455028, "lon": -3.7025783}, {"type": "node", "id": 11830295119, "lat": 40.4552349, "lon": -3.7024946}, {"type": "node", "id": 12127398178, "lat": 40.4563298, "lon": -3.7020275}, {"type": "node", "id": 12127398179, "lat": 40.4562978, "lon": -3.7019854}, {"type": "node", "id": 12127398180, "lat": 40.4560864, "lon": -3.7001699}, {"type": "node", "id": 12127398190, "lat": 40.4560506, "lon": -3.7001807, "tags": {"crossing": "uncontrolled", "highway": "crossing", "tactile_paving": "yes"}}, {"type": "node", "id": 12127398191, "lat": 40.4562645, "lon": -3.7020006, "tags": {"highway": "traffic_signals", "traffic_signals": "signal", "traffic_signals:direction": "forward"}}, {"type": "node", "id": 12127398193, "lat": 40.4564614, "lon": -3.7021213, "tags": {"highway": "traffic_signals", "traffic_signals": "signal", "traffic_signals:direction": "forward"}}, {"type": "node", "id": 12127398194, "lat": 40.4561004, "lon": -3.7025255, "tags": {"highway": "traffic_signals", "traffic_signals": "signal", "traffic_signals:direction": "forward"}}, {"type": "node", "id": 12127494808, "lat": 40.4562411, "lon": -3.702227, "tags": {"highway": "traffic_signals", "traffic_signals": "signal", "traffic_signals:direction": "backward"}}, {"type": "node", "id": 12127494809, "lat": 40.4551988, "lon": -3.7026482, "tags": {"highway": "traffic_signals", "traffic_signals": "signal", "traffic_signals:direction": "forward"}}, {"type": "node", "id": 12127494810, "lat": 40.45513, "lon": -3.7026745, "tags": {"highway": "traffic_signals", "traffic_signals": "signal", "traffic_signals:direction": "backward"}}, {"type": "node", "id": 12206585858, "lat": 40.4562472, "lon": -3.7020631}, {"type": "node", "id": 12206585859, "lat": 40.4561148, "lon": -3.7009283}, {"type": "node", "id": 12206585860, "lat": 40.4555039, "lon": -3.7011531}, {"type": "node", "id": 12206585862, "lat": 40.455748, "lon": -3.7022814}, {"type": "node", "id": 12206585863, "lat": 40.4561086, "lon": -3.702125}, {"type": "way", "id": 10643324, "nodes": [93888316, 3393550136, 12127398194, 3393550137, 93888259], "tags": {"highway": "residential", "lanes": "1", "lit": "yes", "maxspeed": "30", "name": "Calle de Mariano Fern\u00e1ndez", "oneway": "yes", "parking:left": "street_side", "parking:left:orientation": "parallel", "parking:right": "no", "postal_code": "28039", "sidewalk": "separate", "source:width": "ARCore", "surface": "asphalt", "width": "4.9"}}, {"type": "way", "id": 32029515, "nodes": [26412872, 2283386634, 93888461], "tags": {"bicycle": "yes", "bicycle:source": "enbicipormadrid", "highway": "residential", "lanes": "1", "lit": "yes", "maxspeed": "30", "name": "Calle de Fulgencio de Miguel", "oneway": "yes", "parking:left": "street_side", "parking:left:orientation": "parallel", "parking:right": "no", "sidewalk": "separate", "surface": "asphalt", "width": "4.2"}}, {"type": "way", "id": 82567730, "nodes": [93888259, 26412871], "tags": {"cycleway:both": "shared_lane", "cycleway:both:lane": "pictogram", "highway": "secondary", "lanes": "6", "lanes:backward": "3", "lanes:forward": "3", "lanes:psv:backward": "1", "lanes:psv:forward": "1", "lit": "yes", "maxspeed": "50", "name": "Calle de Bravo Murillo", "name:etymology:wikidata": "Q200476", "parking:both": "no", "postal_code": "28020", "sidewalk:left": "yes", "sidewalk:right": "separate", "surface": "asphalt"}}, {"type": "way", "id": 82567738, "nodes": [26412871, 12127494809, 2567969170, 12127494810, 26412872], "tags": {"cycleway:both": "shared_lane", "cycleway:both:lane": "pictogram", "highway": "secondary", "lanes": "6", "lanes:backward": "3", "lanes:forward": "3", "lanes:psv:backward": "1", "lanes:psv:forward": "1", "lit": "yes", "maxspeed": "50", "name": "Calle de Bravo Murillo", "name:etymology:wikidata": "Q200476", "parking:both": "no", "postal_code": "28020", "sidewalk": "separate", "surface": "asphalt"}}, {"type": "way", "id": 82567740, "nodes": [26412844, 8517681047, 5963987033, 12127398193, 2567969173, 26412845, 12127494808, 93888259], "tags": {"cycleway:both": "shared_lane", "cycleway:both:lane": "pictogram", "highway": "secondary", "lanes": "6", "lanes:backward": "3", "lanes:forward": "3", "lanes:psv:backward": "1", "lanes:psv:forward": "1", "lit": "yes", "maxspeed": "50", "name": "Calle de Bravo Murillo", "name:etymology:wikidata": "Q200476", "parking:both": "no", "postal_code": "28020", "sidewalk:left": "yes", "sidewalk:right": "separate", "surface": "asphalt"}}, {"type": "way", "id": 332243853, "nodes": [3393550134, 3393550137, 3393550141], "tags": {"bicycle": "dismount", "crossing": "uncontrolled", "crossing:markings": "zebra", "footway": "crossing", "highway": "footway", "lit": "yes", "surface": "asphalt"}}, {"type": "way", "id": 332333269, "nodes": [3393550134, 3393550135, 3393550133, 3393550128, 3393550124], "tags": {"bicycle": "dismount", "footway": "sidewalk", "highway": "footway", "lit": "yes", "surface": "paving_stones"}}, {"type": "way", "id": 332333279, "nodes": [3394492342, 2283386634, 3393550112], "tags": {"bicycle": "dismount", "highway": "footway", "lit": "yes", "surface": "sett"}}, {"type": "way", "id": 511288233, "nodes": [5001652215, 5001652214, 5001652213], "tags": {"highway": "footway", "layer": "-2", "lit": "yes", "surface": "paving_stones", "tunnel": "yes"}}, {"type": "way", "id": 511288235, "nodes": [5001652217, 8599968182], "tags": {"handrail": "yes", "highway": "steps", "incline": "up", "ramp": "no", "step_count": "19", "surface": "concrete:plates", "tactile_paving": "no"}}, {"type": "way", "id": 511288236, "nodes": [5001652218, 5001652217], "tags": {"highway": "footway", "layer": "-2", "surface": "concrete:plates", "tunnel": "yes"}}, {"type": "way", "id": 511288237, "nodes": [5001652219, 5001652218], "tags": {"handrail": "yes", "highway": "steps", "incline": "up", "layer": "-2", "ramp": "no", "surface": "concrete:plates", "tactile_paving": "no", "tunnel": "yes"}}, {"type": "way", "id": 511288238, "nodes": [5001652421, 5001652220, 5001652219], "tags": {"highway": "footway", "layer": "-2", "lit": "yes", "surface": "concrete:plates", "tunnel": "yes"}}, {"type": "way", "id": 511288239, "nodes": [5001652422, 5001652421], "tags": {"handrail": "yes", "highway": "steps", "incline": "up", "layer": "-2", "ramp": "no", "surface": "paving_stones", "tactile_paving": "no", "tunnel": "yes"}}, {"type": "way", "id": 511288240, "nodes": [5001652423, 5001652215, 5001652422], "tags": {"highway": "footway", "layer": "-2", "lit": "yes", "surface": "asphalt", "tunnel": "yes"}}, {"type": "way", "id": 511288241, "nodes": [5001652424, 5001652423], "tags": {"handrail": "yes", "highway": "steps", "incline": "down", "layer": "-2", "ramp": "no", "surface": "concrete:plates", "tunnel": "yes"}}, {"type": "way", "id": 511288242, "nodes": [5001652427, 5001652426], "tags": {"handrail": "yes", "highway": "steps", "incline": "down", "layer": "-2", "ramp": "no", "step_count": "25", "surface": "concrete:plates", "tactile_paving": "no", "tunnel": "yes"}}, {"type": "way", "id": 511288243, "nodes": [5001652428, 5001652427], "tags": {"highway": "footway", "layer": "-2", "surface": "concrete:plates", "tunnel": "yes"}}, {"type": "way", "id": 511288244, "nodes": [5001652472, 5001652428], "tags": {"handrail": "yes", "highway": "steps", "incline": "down", "layer": "-2", "lit": "yes", "ramp": "no", "step_count": "20", "surface": "concrete:plates", "tactile_paving": "no", "tunnel": "yes"}}, {"type": "way", "id": 511288245, "nodes": [5001652426, 5001652425, 5001652424], "tags": {"highway": "footway", "layer": "-2", "lit": "yes", "surface": "concrete:plates", "tunnel": "yes"}}, {"type": "way", "id": 926823656, "nodes": [8599968183, 8599968182], "tags": {"footway": "sidewalk", "highway": "footway", "surface": "paving_stones"}}, {"type": "way", "id": 935969294, "nodes": [8599968186, 2567969170, 8673030719], "tags": {"footway": "crossing", "highway": "footway", "lit": "yes", "surface": "asphalt"}}, {"type": "way", "id": 1104362226, "nodes": [81572820, 12127398190, 81577330, 12127398191, 2567969176, 26412845], "tags": {"highway": "residential", "lanes": "1", "lit": "yes", "name": "Calle de San Enrique", "oneway": "yes", "parking:left": "no", "parking:right": "street_side", "parking:right:orientation": "parallel", "postal_code": "28020", "sidewalk": "both", "source:width": "ARCore", "surface": "asphalt", "width": "4"}}, {"type": "way", "id": 1240524403, "nodes": [3393550141, 3393550142, 3393550151, 3402545898, 3393550174], "tags": {"bicycle": "dismount", "footway": "sidewalk", "highway": "footway", "lit": "yes", "surface": "paving_stones"}}, {"type": "way", "id": 1240524404, "nodes": [3393550139, 3393550140, 3393550141], "tags": {"bicycle": "dismount", "footway": "sidewalk", "highway": "footway", "lit": "yes", "surface": "paving_stones"}}, {"type": "way", "id": 1240524405, "nodes": [3393550112, 3393550118, 8599968186, 8599968185, 8599968184, 8599968183, 3393550129, 3393550132, 3393550134], "tags": {"bicycle": "dismount", "footway": "sidewalk", "highway": "footway", "lit": "yes", "surface": "paving_stones"}}, {"type": "way", "id": 1240524406, "nodes": [3393550124, 3394492363, 3393550121, 3394492355, 3393550112], "tags": {"bicycle": "dismount", "footway": "sidewalk", "highway": "footway", "lit": "yes", "surface": "paving_stones"}}, {"type": "way", "id": 1240524407, "nodes": [3394492342, 3394492347, 3394492361, 8630185212, 3394492360, 3394492351, 4870491939], "tags": {"bicycle": "dismount", "footway": "sidewalk", "highway": "footway", "lit": "yes", "surface": "paving_stones"}}, {"type": "way", "id": 1274062634, "nodes": [8673030719, 11830295119, 11830295116], "tags": {"footway": "sidewalk", "highway": "footway", "surface": "paving_stones"}}, {"type": "way", "id": 1274062635, "nodes": [8673030719, 11830295117], "tags": {"footway": "sidewalk", "highway": "footway", "surface": "paving_stones"}}, {"type": "way", "id": 1274062636, "nodes": [5001652472, 11830295119], "tags": {"footway": "sidewalk", "highway": "footway", "surface": "paving_stones"}}, {"type": "way", "id": 1309812991, "nodes": [12127398178, 12127398179, 12127398180], "tags": {"footway": "sidewalk", "highway": "footway", "name": "Calle de San Enrique", "surface": "paving_stones"}}, {"type": "way", "id": 1318959253, "nodes": [12206585858, 12206585859], "tags": {"footway": "sidewalk", "highway": "footway", "name": "Calle de San Enrique", "surface": "paving_stones"}}, {"type": "way", "id": 1318959254, "nodes": [12206585860, 12206585862], "tags": {"footway": "sidewalk", "highway": "footway", "name": "Calle de La Coru\u00f1a"}}, {"type": "way", "id": 1318959255, "nodes": [12206585862, 12206585863, 12206585858], "tags": {"footway": "sidewalk", "highway": "footway", "name": "Calle de Bravo Murillo", "surface": "paving_stones"}}, {"type": "way", "id": 1318959256, "nodes": [12206585858, 2567969176, 12127398178], "tags": {"crossing": "traffic_signals", "crossing:markings": "dots", "footway": "crossing", "highway": "footway", "surface": "paving_stones"}}, {"type": "way", "id": 1318959259, "nodes": [26412871, 11830295116, 3277147092, 81577331], "tags": {"highway": "residential", "lanes": "1", "lit": "yes", "name": "Calle de La Coru\u00f1a", "name:etymology:wikidata": "Q8757", "oneway": "yes", "parking:left": "no", "parking:right": "street_side", "parking:right:orientation": "parallel", "postal_code": "28020", "sidewalk": "both", "surface": "asphalt"}}]}