{"version": 0.6, "generator": "Overpass API 0.7.62.5 1bd436f1", "osm3s": {"timestamp_osm_base": "2025-03-23T13:56:30Z", "copyright": "The data included in this document is from www.openstreetmap.org. The data is made available under ODbL."}, "elements": [{"type": "node", "id": 21990719, "lat": 40.4262576, "lon": -3.7012578, "tags": {"highway": "traffic_signals", "source": "yahoo_maps", "traffic_signals:sound": "yes"}}, {"type": "node", "id": 21990722, "lat": 40.4272493, "lon": -3.7016691}, {"type": "node", "id": 21990723, "lat": 40.4272902, "lon": -3.7008402}, {"type": "node", "id": 21990724, "lat": 40.4265039, "lon": -3.7005335, "tags": {"source": "yahoo_maps"}}, {"type": "node", "id": 21990725, "lat": 40.4267552, "lon": -3.6998407, "tags": {"source": "yahoo_maps"}}, {"type": "node", "id": 21990726, "lat": 40.4273481, "lon": -3.7000637, "tags": {"source": "yahoo_maps"}}, {"type": "node", "id": 21990727, "lat": 40.4277645, "lon": -3.6992917, "tags": {"source": "yahoo_maps"}}, {"type": "node", "id": 21990729, "lat": 40.4267099, "lon": -3.6981834, "tags": {"source": "yahoo_maps"}}, {"type": "node", "id": 22022319, "lat": 40.4287858, "lon": -3.7014061, "tags": {"source": "yahoo_maps"}}, {"type": "node", "id": 22022337, "lat": 40.4286179, "lon": -3.7005028, "tags": {"source": "yahoo_maps"}}, {"type": "node", "id": 25906306, "lat": 40.4257906, "lon": -3.6999628}, {"type": "node", "id": 25906307, "lat": 40.425984, "lon": -3.6995306, "tags": {"source": "yahoo_maps"}}, {"type": "node", "id": 1439703119, "lat": 40.4263652, "lon": -3.7006794, "tags": {"bench": "yes", "bin": "no", "bus": "yes", "highway": "bus_stop", "lit": "yes", "name": "Tribunal", "network": "Empresa Municipal de Transportes de Madrid", "network:short": "EMT Madrid", "network:wikidata": "Q1094755", "note": "Punto de Reuni\u00f3n para la Primera Reuni\u00f3n Cervecera de OpenStreetMap-Espa\u00f1a", "operator": "Empresa Municipal de Transportes de Madrid", "operator:short": "EMT Madrid", "operator:wikidata": "Q1094755", "public_transport": "platform", "ref": "5542", "shelter": "yes", "source": "yahoo_maps", "tactile_paving": "yes"}}, {"type": "node", "id": 1591329839, "lat": 40.4266118, "lon": -3.7005721, "tags": {"crossing": "uncontrolled", "crossing:markings": "zebra", "highway": "crossing"}}, {"type": "node", "id": 1591329853, "lat": 40.4268501, "lon": -3.699875, "tags": {"crossing": "uncontrolled", "crossing:markings": "zebra", "highway": "crossing"}}, {"type": "node", "id": 1591329870, "lat": 40.4270611, "lon": -3.6989566, "tags": {"crossing": "traffic_signals;uncontrolled", "highway": "crossing", "tactile_paving": "yes", "traffic_signals:sound": "yes"}}, {"type": "node", "id": 1591329871, "lat": 40.4272432, "lon": -3.7008206, "tags": {"crossing": "uncontrolled", "crossing:markings": "zebra", "highway": "crossing", "tactile_paving": "yes"}}, {"type": "node", "id": 1591329872, "lat": 40.427255, "lon": -3.7015531, "tags": {"crossing": "uncontrolled", "crossing:markings": "zebra", "highway": "crossing", "kerb": "flush", "tactile_paving": "yes"}}, {"type": "node", "id": 1591329873, "lat": 40.4272966, "lon": -3.7007403, "tags": {"crossing": "uncontrolled", "crossing:markings": "zebra", "highway": "crossing", "tactile_paving": "yes"}}, {"type": "node", "id": 1591329885, "lat": 40.427378, "lon": -3.7008764, "tags": {"crossing": "uncontrolled", "crossing:markings": "zebra", "highway": "crossing", "tactile_paving": "yes"}}, {"type": "node", "id": 1591329888, "lat": 40.427396, "lon": -3.6993689, "tags": {"crossing": "uncontrolled", "crossing:markings": "zebra", "highway": "crossing", "kerb": "lowered", "tactile_paving": "yes"}}, {"type": "node", "id": 1591329890, "lat": 40.4274131, "lon": -3.7000906, "tags": {"crossing": "uncontrolled", "crossing:markings": "zebra", "highway": "crossing", "kerb": "lowered", "tactile_paving": "yes"}}, {"type": "node", "id": 1591329977, "lat": 40.4285156, "lon": -3.7005034, "tags": {"crossing:markings": "yes", "crossing:signals": "no", "highway": "crossing", "kerb": "lowered", "tactile_paving": "yes"}}, {"type": "node", "id": 1591330000, "lat": 40.4286949, "lon": -3.7013806, "tags": {"crossing:markings": "yes", "crossing:signals": "no", "highway": "crossing", "kerb": "flush", "tactile_paving": "yes"}}, {"type": "node", "id": 1754199356, "lat": 40.4259883, "lon": -3.7001086}, {"type": "node", "id": 1754199361, "lat": 40.4264058, "lon": -3.7005246}, {"type": "node", "id": 3144095493, "lat": 40.4270344, "lon": -3.6992717, "tags": {"amenity": "parking_entrance", "name": "Parking Barcel\u00f3"}}, {"type": "node", "id": 3144095496, "lat": 40.4262783, "lon": -3.699073}, {"type": "node", "id": 3144095498, "lat": 40.4262726, "lon": -3.6989076}, {"type": "node", "id": 3144095499, "lat": 40.4263867, "lon": -3.6988651}, {"type": "node", "id": 3144095504, "lat": 40.4267852, "lon": -3.6993938}, {"type": "node", "id": 3144095505, "lat": 40.4268658, "lon": -3.6991688}, {"type": "node", "id": 3144095506, "lat": 40.4269121, "lon": -3.6993806}, {"type": "node", "id": 3418222082, "lat": 40.4267871, "lon": -3.6997441, "tags": {"crossing": "uncontrolled", "crossing:island": "no", "crossing:markings": "zebra", "highway": "crossing", "tactile_paving": "yes"}}, {"type": "node", "id": 3428307530, "lat": 40.42644, "lon": -3.7007166, "tags": {"bus": "yes", "public_transport": "stop_position"}}, {"type": "node", "id": 3523904351, "lat": 40.42634, "lon": -3.6989576}, {"type": "node", "id": 3523904352, "lat": 40.4268071, "lon": -3.6993078}, {"type": "node", "id": 4134046208, "lat": 40.427162, "lon": -3.6989761}, {"type": "node", "id": 4134046210, "lat": 40.4273357, "lon": -3.6992165}, {"type": "node", "id": 4134046213, "lat": 40.4274109, "lon": -3.6992856, "tags": {"source": "yahoo_maps"}}, {"type": "node", "id": 4134046216, "lat": 40.4276238, "lon": -3.6993168}, {"type": "node", "id": 4863086183, "lat": 40.427113, "lon": -3.6990383}, {"type": "node", "id": 7159715764, "lat": 40.4262058, "lon": -3.6996133}, {"type": "node", "id": 7159758665, "lat": 40.4265305, "lon": -3.7004603}, {"type": "node", "id": 7159758667, "lat": 40.4262973, "lon": -3.6999244}, {"type": "node", "id": 7159758669, "lat": 40.4261346, "lon": -3.7002999}, {"type": "node", "id": 7159758670, "lat": 40.4264718, "lon": -3.6997652, "tags": {"amenity": "parking_entrance"}}, {"type": "node", "id": 7159758671, "lat": 40.4266518, "lon": -3.6998405}, {"type": "node", "id": 7159758672, "lat": 40.4267405, "lon": -3.6998812}, {"type": "node", "id": 7159758679, "lat": 40.4266681, "lon": -3.6997896}, {"type": "node", "id": 7159758683, "lat": 40.4261197, "lon": -3.6997922}, {"type": "node", "id": 7159758684, "lat": 40.4259607, "lon": -3.6995856}, {"type": "node", "id": 9083393657, "lat": 40.4261944, "lon": -3.7005415}, {"type": "node", "id": 9083393659, "lat": 40.4260775, "lon": -3.7004471}, {"type": "node", "id": 9083393662, "lat": 40.4260009, "lon": -3.7006108}, {"type": "node", "id": 9083393668, "lat": 40.4261178, "lon": -3.7007052}, {"type": "node", "id": 12252228529, "lat": 40.4266119, "lon": -3.700026, "tags": {"bus": "yes", "highway": "bus_stop", "name": "Tribunal", "network": "Empresa Municipal de Transportes de Madrid", "network:short": "EMT Madrid", "network:wikidata": "Q1094755", "operator": "Empresa Municipal de Transportes de Madrid", "operator:short": "EMT Madrid", "operator:wikidata": "Q1094755", "public_transport": "platform", "ref": "4229", "source": "https://mobilitylabs.emtmadrid.es/", "source:date": "2024-10-14"}}, {"type": "node", "id": 12287415316, "lat": 40.4266271, "lon": -3.6999158}, {"type": "node", "id": 12287415317, "lat": 40.4266195, "lon": -3.6999418}, {"type": "node", "id": 12287415318, "lat": 40.4264513, "lon": -3.7004096}, {"type": "node", "id": 12287415321, "lat": 40.4264311, "lon": -3.7004571}, {"type": "node", "id": 12287415322, "lat": 40.4264224, "lon": -3.7004809, "tags": {"crossing": "uncontrolled", "highway": "crossing"}}, {"type": "node", "id": 12331486800, "lat": 40.4262761, "lon": -3.7003719, "tags": {"amenity": "parking_entrance"}}, {"type": "node", "id": 12331487602, "lat": 40.4261869, "lon": -3.7011644, "tags": {"source": "yahoo_maps"}}, {"type": "node", "id": 12331487603, "lat": 40.4261947, "lon": -3.7011415}, {"type": "node", "id": 12331487605, "lat": 40.4262863, "lon": -3.7011726, "tags": {"crossing": "uncontrolled", "highway": "crossing"}}, {"type": "node", "id": 12331487608, "lat": 40.4264868, "lon": -3.7004331}, {"type": "node", "id": 12335168898, "lat": 40.4273733, "lon": -3.6992647}, {"type": "node", "id": 12335169987, "lat": 40.426319, "lon": -3.6999177}, {"type": "node", "id": 12335169988, "lat": 40.4262043, "lon": -3.7003848}, {"type": "node", "id": 12335183605, "lat": 40.4266435, "lon": -3.6998651}, {"type": "node", "id": 12335183606, "lat": 40.4266993, "lon": -3.6997826}, {"type": "node", "id": 12335183607, "lat": 40.4267256, "lon": -3.6997126}, {"type": "node", "id": 12335183608, "lat": 40.4268539, "lon": -3.6993402}, {"type": "node", "id": 12335183609, "lat": 40.4270111, "lon": -3.6989101}, {"type": "node", "id": 12335183610, "lat": 40.4270421, "lon": -3.698816}, {"type": "node", "id": 12335183611, "lat": 40.4270238, "lon": -3.6987586}, {"type": "node", "id": 12335183612, "lat": 40.4266656, "lon": -3.6982568}, {"type": "node", "id": 12335183615, "lat": 40.4268568, "lon": -3.6997815}, {"type": "node", "id": 12335183616, "lat": 40.4267054, "lon": -3.6998651, "tags": {"highway": "stop"}}, {"type": "node", "id": 12335183617, "lat": 40.4271281, "lon": -3.6990191, "tags": {"crossing": "uncontrolled", "highway": "crossing"}}, {"type": "way", "id": 4110790, "nodes": [21990724, 1591329839, 1591329871, 21990723, 1591329885, 1591330000, 22022319], "tags": {"highway": "residential", "lit": "yes", "name": "Calle de Churruca", "oneway": "yes", "postal_code": "28004", "source:name": "survey", "surface": "asphalt"}}, {"type": "way", "id": 4307812, "nodes": [1591329870, 3144095506, 3418222082, 21990725, 7159758672, 7159758665, 21990724, 3428307530], "tags": {"bicycle": "yes", "highway": "residential", "lit": "yes", "name": "Calle de Barcel\u00f3", "postal_code": "28004", "source:name": "survey", "surface": "asphalt"}}, {"type": "way", "id": 4307813, "nodes": [4134046213, 1591329888, 21990726, 1591329873, 21990723, 1591329872, 21990722], "tags": {"highway": "residential", "lanes": "1", "lit": "yes", "name": "Calle de Apodaca", "oneway": "yes", "postal_code": "28004", "sidewalk": "both", "source:name": "survey", "surface": "asphalt"}}, {"type": "way", "id": 4307814, "nodes": [22022337, 1591329977, 1591329890, 21990726, 1591329853, 21990725], "tags": {"highway": "residential", "lit": "yes", "name": "Calle de Larra", "oneway": "yes", "postal_code": "28004", "source:name": "survey", "surface": "asphalt"}}, {"type": "way", "id": 29591230, "nodes": [25906307, 7159715764, 7159758679], "tags": {"highway": "footway", "surface": "paving_stones"}}, {"type": "way", "id": 29591236, "nodes": [25906306, 1754199356, 7159758669, 12335169988, 1754199361], "tags": {"highway": "footway", "surface": "paving_stones"}}, {"type": "way", "id": 79740856, "nodes": [21990724, 12287415322, 12331486800], "tags": {"highway": "service", "oneway": "yes", "smoothness": "good", "surface": "paving_stones"}}, {"type": "way", "id": 309097671, "nodes": [25906307, 3144095498, 12335183612, 21990729], "tags": {"highway": "living_street", "lit": "yes", "maxspeed": "20", "name": "Calle de la Beneficencia", "oneway": "yes", "postal_code": "28004", "surface": "paving_stones"}}, {"type": "way", "id": 309097675, "nodes": [12335183608, 3523904352, 3523904351, 3144095498], "tags": {"highway": "footway", "surface": "paving_stones"}}, {"type": "way", "id": 309100120, "nodes": [3144095504, 3523904352, 3144095505, 3144095499, 3523904351, 3144095496, 3144095504], "tags": {"area": "yes", "highway": "pedestrian", "lit": "yes", "surface": "paving_stones"}}, {"type": "way", "id": 335720384, "nodes": [3428307530, 12331487605, 21990719], "tags": {"bicycle": "yes", "highway": "residential", "lit": "yes", "name": "Calle de Barcel\u00f3", "postal_code": "28004", "sidewalk": "both", "source:name": "survey", "surface": "asphalt"}}, {"type": "way", "id": 411799513, "nodes": [21990727, 4134046216, 4134046213, 12335168898, 4134046210, 4134046208, 1591329870], "tags": {"highway": "residential", "lit": "yes", "name": "Calle de Mej\u00eda Lequerica", "oneway": "yes", "sidewalk": "right", "surface": "asphalt"}}, {"type": "way", "id": 494555761, "nodes": [4134046208, 12335183617, 4863086183, 3144095493], "tags": {"highway": "service", "oneway": "yes", "surface": "paving_stones"}}, {"type": "way", "id": 766591783, "nodes": [7159715764, 7159758683, 1754199356], "tags": {"highway": "footway", "surface": "paving_stones"}}, {"type": "way", "id": 766591808, "nodes": [7159758665, 12331487608], "tags": {"highway": "footway", "lit": "yes", "surface": "asphalt"}}, {"type": "way", "id": 766591810, "nodes": [7159758669, 7159758667], "tags": {"highway": "footway", "surface": "paving_stones"}}, {"type": "way", "id": 766591811, "nodes": [7159758670, 7159758671, 12335183616, 7159758672], "tags": {"highway": "service", "oneway": "yes", "surface": "asphalt"}}, {"type": "way", "id": 766591813, "nodes": [7159758684, 7159758683, 7159758667, 12335169987, 12287415316], "tags": {"highway": "footway", "surface": "paving_stones"}}, {"type": "way", "id": 982158213, "nodes": [9083393668, 9083393657, 9083393659, 9083393662, 9083393668], "tags": {"highway": "footway", "surface": "paving_stones"}}, {"type": "way", "id": 1328064187, "nodes": [12335183605, 12287415316, 12287415317], "tags": {"footway": "sidewalk", "highway": "footway", "surface": "paving_stones"}}, {"type": "way", "id": 1328064189, "nodes": [12331487608, 12287415318], "tags": {"footway": "sidewalk", "highway": "footway", "lit": "yes"}}, {"type": "way", "id": 1328064190, "nodes": [12287415321, 12287415318, 12287415317], "tags": {"footway": "sidewalk", "highway": "footway"}}, {"type": "way", "id": 1332930907, "nodes": [12287415321, 12287415322, 1754199361], "tags": {"crossing": "uncontrolled", "crossing:markings": "yes", "footway": "crossing", "highway": "footway", "lit": "yes"}}, {"type": "way", "id": 1332930909, "nodes": [1754199361, 12331487603, 12331487602], "tags": {"footway": "sidewalk", "highway": "footway", "lit": "yes", "surface": "paving_stones"}}, {"type": "way", "id": 1333270027, "nodes": [12335183605, 7159758671, 7159758679], "tags": {"crossing": "uncontrolled", "crossing:markings": "yes", "footway": "crossing", "highway": "footway", "lit": "yes", "surface": "paving_stones"}}, {"type": "way", "id": 1333270028, "nodes": [12335183608, 12335183609, 12335183610, 12335183611, 12335183612], "tags": {"footway": "sidewalk", "highway": "footway", "lit": "yes"}}, {"type": "way", "id": 1333270031, "nodes": [7159758679, 12335183606, 12335183607, 12335183608], "tags": {"footway": "sidewalk", "highway": "footway", "lit": "yes", "surface": "paving_stones"}}, {"type": "way", "id": 1333270032, "nodes": [12335183607, 3418222082, 12335183615], "tags": {"crossing": "uncontrolled", "crossing:markings": "yes", "footway": "crossing", "highway": "footway", "lit": "yes"}}]}