{"version": 0.6, "generator": "Overpass API 0.7.62.5 1bd436f1", "osm3s": {"timestamp_osm_base": "2025-03-23T15:30:30Z", "copyright": "The data included in this document is from www.openstreetmap.org. The data is made available under ODbL."}, "elements": [{"type": "node", "id": 101022366, "lat": 40.4293094, "lon": -3.6524551}, {"type": "node", "id": 101022524, "lat": 40.4292218, "lon": -3.6518001}, {"type": "node", "id": 101022525, "lat": 40.4291979, "lon": -3.6517378}, {"type": "node", "id": 101022526, "lat": 40.4289695, "lon": -3.6511642}, {"type": "node", "id": 101022527, "lat": 40.4285806, "lon": -3.6502904}, {"type": "node", "id": 101022528, "lat": 40.4283826, "lon": -3.6498218}, {"type": "node", "id": 101025644, "lat": 40.4296769, "lon": -3.6496038}, {"type": "node", "id": 101033465, "lat": 40.4297682, "lon": -3.6511328}, {"type": "node", "id": 101034262, "lat": 40.4286543, "lon": -3.6522439}, {"type": "node", "id": 101034263, "lat": 40.4281625, "lon": -3.6527048}, {"type": "node", "id": 101040419, "lat": 40.4293275, "lon": -3.6500144}, {"type": "node", "id": 101040421, "lat": 40.4292435, "lon": -3.6507605}, {"type": "node", "id": 101058519, "lat": 40.4273849, "lon": -3.6498108}, {"type": "node", "id": 306528112, "lat": 40.4275592, "lon": -3.6500528}, {"type": "node", "id": 306528209, "lat": 40.4285947, "lon": -3.6514606}, {"type": "node", "id": 307998715, "lat": 40.4273966, "lon": -3.6517224}, {"type": "node", "id": 307998716, "lat": 40.4280892, "lon": -3.6507785}, {"type": "node", "id": 307998717, "lat": 40.4290321, "lon": -3.6499679}, {"type": "node", "id": 307998732, "lat": 40.4278464, "lon": -3.6520493}, {"type": "node", "id": 319775708, "lat": 40.4274953, "lon": -3.6499676}, {"type": "node", "id": 1439701646, "lat": 40.428641, "lon": -3.6505732, "tags": {"bus": "yes", "highway": "bus_stop", "name": "Avenida de Daroca-Miguel de Unamuno", "operator": "EMT Madrid", "public_transport": "platform", "ref": "953"}}, {"type": "node", "id": 1439701647, "lat": 40.4287451, "lon": -3.6505145, "tags": {"bus": "yes", "highway": "bus_stop", "name": "Avenida de Daroca-Miguel de Unamuno", "operator": "EMT Madrid", "public_transport": "platform", "ref": "952"}}, {"type": "node", "id": 2005635007, "lat": 40.4290345, "lon": -3.6510082, "tags": {"highway": "crossing"}}, {"type": "node", "id": 2005635010, "lat": 40.4286256, "lon": -3.6503942, "tags": {"crossing": "traffic_signals", "crossing:markings": "dots", "highway": "traffic_signals"}}, {"type": "node", "id": 2005635024, "lat": 40.4285059, "lon": -3.6503494, "tags": {"highway": "crossing"}}, {"type": "node", "id": 2005635026, "lat": 40.4279558, "lon": -3.6519719, "tags": {"highway": "crossing"}}, {"type": "node", "id": 2005635034, "lat": 40.4290635, "lon": -3.6509847, "tags": {"highway": "give_way"}}, {"type": "node", "id": 2005635044, "lat": 40.4291462, "lon": -3.651809, "tags": {"crossing": "traffic_signals", "crossing:markings": "dots", "highway": "traffic_signals"}}, {"type": "node", "id": 2005635048, "lat": 40.4283349, "lon": -3.6504792}, {"type": "node", "id": 2005635059, "lat": 40.428361, "lon": -3.6516687}, {"type": "node", "id": 2005635070, "lat": 40.4292614, "lon": -3.6516897, "tags": {"crossing": "traffic_signals", "crossing:markings": "dots", "highway": "traffic_signals"}}, {"type": "node", "id": 2005635088, "lat": 40.4289337, "lon": -3.6510758}, {"type": "node", "id": 2005635093, "lat": 40.4286479, "lon": -3.6502349, "tags": {"highway": "crossing"}}, {"type": "node", "id": 3115801462, "lat": 40.4292887, "lon": -3.6503761}, {"type": "node", "id": 3115801463, "lat": 40.4295344, "lon": -3.6504355}, {"type": "node", "id": 3115801464, "lat": 40.4295264, "lon": -3.6507514}, {"type": "node", "id": 3200176882, "lat": 40.4296605, "lon": -3.6497166, "tags": {"highway": "give_way"}}, {"type": "node", "id": 3200176883, "lat": 40.4296657, "lon": -3.6496807, "tags": {"crossing": "uncontrolled", "crossing:markings": "zebra", "highway": "crossing"}}, {"type": "node", "id": 3201484156, "lat": 40.4282974, "lon": -3.6505095}, {"type": "node", "id": 3201484346, "lat": 40.4289859, "lon": -3.649985}, {"type": "node", "id": 3201484355, "lat": 40.4290115, "lon": -3.6499726}, {"type": "node", "id": 3201484373, "lat": 40.4290601, "lon": -3.6499693}, {"type": "node", "id": 3201484407, "lat": 40.4292222, "lon": -3.6508289}, {"type": "node", "id": 3201484411, "lat": 40.429235, "lon": -3.6508076}, {"type": "node", "id": 3201484493, "lat": 40.4294696, "lon": -3.6514935}, {"type": "node", "id": 3201484497, "lat": 40.4294824, "lon": -3.6514778}, {"type": "node", "id": 3201484503, "lat": 40.4294935, "lon": -3.6514554}, {"type": "node", "id": 3201484507, "lat": 40.4295054, "lon": -3.6514386}, {"type": "node", "id": 3201484518, "lat": 40.4295506, "lon": -3.6504299}, {"type": "node", "id": 3201484522, "lat": 40.4295634, "lon": -3.650421}, {"type": "node", "id": 3201484523, "lat": 40.4295703, "lon": -3.6504008}, {"type": "node", "id": 3201484567, "lat": 40.4297102, "lon": -3.6512391}, {"type": "node", "id": 3201484573, "lat": 40.4297255, "lon": -3.6512178}, {"type": "node", "id": 3201484576, "lat": 40.4297417, "lon": -3.6511887}, {"type": "node", "id": 3201484579, "lat": 40.4297545, "lon": -3.6511595}, {"type": "node", "id": 3201593353, "lat": 40.4295004, "lon": -3.6504273, "tags": {"highway": "give_way"}}, {"type": "node", "id": 3201593358, "lat": 40.4296038, "lon": -3.6508249}, {"type": "node", "id": 3201593368, "lat": 40.4297463, "lon": -3.6508635}, {"type": "node", "id": 3201886737, "lat": 40.4274531, "lon": -3.6499062, "tags": {"crossing": "traffic_signals", "crossing:signals": "yes", "highway": "crossing"}}, {"type": "node", "id": 3201886744, "lat": 40.428023, "lon": -3.6508619, "tags": {"crossing": "uncontrolled", "crossing:markings": "zebra", "highway": "crossing"}}, {"type": "node", "id": 3201886745, "lat": 40.4281491, "lon": -3.6507012, "tags": {"crossing": "uncontrolled", "crossing:markings": "zebra", "highway": "crossing"}}, {"type": "node", "id": 3201886746, "lat": 40.4281714, "lon": -3.6506723, "tags": {"highway": "give_way"}}, {"type": "node", "id": 3201886753, "lat": 40.4288768, "lon": -3.6512446, "tags": {"highway": "give_way"}}, {"type": "node", "id": 3201886754, "lat": 40.4289025, "lon": -3.6512249, "tags": {"crossing": "uncontrolled", "crossing:markings": "zebra", "highway": "crossing"}}, {"type": "node", "id": 3201886755, "lat": 40.4290767, "lon": -3.6514174}, {"type": "node", "id": 3201886756, "lat": 40.4292602, "lon": -3.6500031, "tags": {"highway": "give_way"}}, {"type": "node", "id": 3203021734, "lat": 40.4292477, "lon": -3.6519153}, {"type": "node", "id": 3256777519, "lat": 40.4274389, "lon": -3.6516623, "tags": {"highway": "crossing"}}, {"type": "node", "id": 3256777869, "lat": 40.4284982, "lon": -3.6515553}, {"type": "node", "id": 3257113669, "lat": 40.4276908, "lon": -3.6502321}, {"type": "node", "id": 3257145267, "lat": 40.4274627, "lon": -3.6516298, "tags": {"highway": "stop"}}, {"type": "node", "id": 3262170549, "lat": 40.4277186, "lon": -3.6502711}, {"type": "node", "id": 3262170666, "lat": 40.4297893, "lon": -3.6508761}, {"type": "node", "id": 8462496090, "lat": 40.4286949, "lon": -3.6505448, "tags": {"bus": "yes", "public_transport": "stop_position"}}, {"type": "way", "id": 27924705, "nodes": [101058519, 3201886737, 319775708, 306528112, 3257113669, 3262170549, 307998716, 306528209], "tags": {"highway": "residential", "lanes": "2", "maxspeed": "40", "name": "Calle de San Clodoaldo", "postal_code": "28017", "sidewalk": "both", "surface": "asphalt"}}, {"type": "way", "id": 28049002, "nodes": [101022527, 2005635024, 2005635048, 3201484156, 3201886746, 3201886745, 307998716, 3201886744, 3257145267, 3256777519, 307998715], "tags": {"highway": "residential", "lanes": "1", "maxspeed": "40", "name": "Calle de Miguel de Unamuno", "oneway": "yes", "postal_code": "28017", "sidewalk": "both", "surface": "asphalt"}}, {"type": "way", "id": 41377288, "nodes": [101022366, 3203021734, 101022524, 101022525, 3201886755, 101022526, 2005635088, 8462496090, 2005635010, 101022527, 101022528], "tags": {"highway": "secondary", "lanes": "2", "maxspeed": "30", "name": "Avenida de Daroca", "name:etymology:wikidata": "Q978587", "postal_code": "28017", "sidewalk": "both", "surface": "asphalt"}}, {"type": "way", "id": 41377789, "nodes": [101022525, 2005635044, 101034262, 101034263], "tags": {"highway": "residential", "lanes": "1", "maxspeed": "40", "name": "Calle de Altamira", "oneway": "yes", "postal_code": "28017", "sidewalk": "both", "surface": "asphalt"}}, {"type": "way", "id": 189956456, "nodes": [307998732, 2005635026, 2005635059, 3256777869, 306528209, 3201886753, 3201886754, 101022526], "tags": {"highway": "residential", "lanes": "1", "maxspeed": "40", "name": "Calle de Jos\u00e9 Barbastre", "oneway": "yes", "postal_code": "28017", "sidewalk": "both", "surface": "asphalt"}}, {"type": "way", "id": 189956458, "nodes": [101034262, 2005635059], "tags": {"highway": "residential", "lanes": "1", "maxspeed": "40", "name": "Calle de Andr\u00e9s Ant\u00f3n", "oneway": "yes", "postal_code": "28017", "sidewalk": "both", "surface": "asphalt"}}, {"type": "way", "id": 306611764, "nodes": [3115801462, 3201593353, 3115801463, 3201484518, 3201484522, 3201484523, 3200176882, 3200176883, 101025644], "tags": {"highway": "residential", "lanes": "1", "maxspeed": "40", "name": "Calle de Ricardo Sep\u00falveda", "oneway": "yes", "postal_code": "28017", "sidewalk": "both", "surface": "asphalt"}}, {"type": "way", "id": 306611765, "nodes": [3201484522, 3115801464], "tags": {"highway": "residential", "lanes": "2", "maxspeed": "40", "name": "Calle de Ricardo Sep\u00falveda", "postal_code": "28017", "sidewalk": "both", "surface": "asphalt"}}, {"type": "way", "id": 314115431, "nodes": [101033465, 3201484579, 3201484576, 3201484573, 3201484567, 3201484507, 3201484503, 3201484497, 3201484493, 2005635070, 101022525], "tags": {"highway": "residential", "lanes": "1", "maxspeed": "40", "name": "Calle de la Vereda del Carmen", "oneway": "yes", "postal_code": "28017", "sidewalk": "both", "surface": "asphalt"}}, {"type": "way", "id": 314115432, "nodes": [101022527, 2005635093, 3201484346, 3201484355, 307998717, 3201484373, 3201886756, 101040419], "tags": {"highway": "residential", "lanes": "1", "maxspeed": "40", "name": "Calle de Miguel de Unamuno", "oneway": "yes", "postal_code": "28017", "sidewalk": "both", "surface": "asphalt"}}, {"type": "way", "id": 314115433, "nodes": [101040419, 3115801462, 101040421, 3201484411, 3201484407, 2005635034, 2005635007, 2005635088], "tags": {"highway": "residential", "lanes": "1", "maxspeed": "40", "name": "Calle de Servando Batanero", "oneway": "yes", "postal_code": "28017", "sidewalk": "both", "surface": "asphalt"}}, {"type": "way", "id": 314115444, "nodes": [3115801464, 3201593358, 3201593368, 3262170666], "tags": {"highway": "footway", "surface": "fine_gravel"}}]}