{"version": 0.6, "generator": "Overpass API 0.7.62.5 1bd436f1", "osm3s": {"timestamp_osm_base": "2025-03-23T15:58:02Z", "copyright": "The data included in this document is from www.openstreetmap.org. The data is made available under ODbL."}, "elements": [{"type": "node", "id": 26067256, "lat": 40.4247042, "lon": -3.7110935}, {"type": "node", "id": 26067258, "lat": 40.425149, "lon": -3.7103029}, {"type": "node", "id": 26067259, "lat": 40.4249713, "lon": -3.7099568}, {"type": "node", "id": 26067260, "lat": 40.4248849, "lon": -3.709831}, {"type": "node", "id": 26067261, "lat": 40.4257323, "lon": -3.7093355}, {"type": "node", "id": 26067262, "lat": 40.4257244, "lon": -3.70928}, {"type": "node", "id": 26067285, "lat": 40.4258277, "lon": -3.7098245}, {"type": "node", "id": 26067286, "lat": 40.4254803, "lon": -3.7111318}, {"type": "node", "id": 26067287, "lat": 40.4261601, "lon": -3.7106595}, {"type": "node", "id": 26067288, "lat": 40.4256874, "lon": -3.711658}, {"type": "node", "id": 26067289, "lat": 40.4263719, "lon": -3.7111713}, {"type": "node", "id": 26067290, "lat": 40.4258176, "lon": -3.7119699}, {"type": "node", "id": 26067293, "lat": 40.424905, "lon": -3.7119074}, {"type": "node", "id": 26067294, "lat": 40.4253562, "lon": -3.7119801}, {"type": "node", "id": 26067298, "lat": 40.4258988, "lon": -3.710018}, {"type": "node", "id": 26067308, "lat": 40.4278737, "lon": -3.7099147}, {"type": "node", "id": 26067309, "lat": 40.4269603, "lon": -3.7103173, "tags": {"crossing": "zebra", "highway": "crossing", "tactile_paving": "yes"}}, {"type": "node", "id": 26808564, "lat": 40.4248448, "lon": -3.7097636}, {"type": "node", "id": 26808565, "lat": 40.425858, "lon": -3.7120325}, {"type": "node", "id": 26808566, "lat": 40.4265297, "lon": -3.7115519}, {"type": "node", "id": 27505287, "lat": 40.4269355, "lon": -3.7103279}, {"type": "node", "id": 27505288, "lat": 40.4272005, "lon": -3.7102087}, {"type": "node", "id": 55311600, "lat": 40.4244342, "lon": -3.7091715}, {"type": "node", "id": 674492237, "lat": 40.4248503, "lon": -3.7108888}, {"type": "node", "id": 2946208309, "lat": 40.4248968, "lon": -3.7119881}, {"type": "node", "id": 2946208311, "lat": 40.4253551, "lon": -3.7123113}, {"type": "node", "id": 2946208320, "lat": 40.4254873, "lon": -3.7123993}, {"type": "node", "id": 2946208330, "lat": 40.4255919, "lon": -3.7124842}, {"type": "node", "id": 3267220581, "lat": 40.4258406, "lon": -3.712008, "tags": {"crossing": "uncontrolled", "crossing:markings": "zebra", "highway": "crossing"}}, {"type": "node", "id": 3606795767, "lat": 40.4260083, "lon": -3.7127744}, {"type": "node", "id": 4110107772, "lat": 40.4245097, "lon": -3.711616}, {"type": "node", "id": 4110107773, "lat": 40.4245189, "lon": -3.7115555}, {"type": "node", "id": 4110107774, "lat": 40.4245199, "lon": -3.711667}, {"type": "node", "id": 4110107775, "lat": 40.4245342, "lon": -3.7117059}, {"type": "node", "id": 4110107776, "lat": 40.4245822, "lon": -3.7117421}, {"type": "node", "id": 4110107777, "lat": 40.4247704, "lon": -3.7118881}, {"type": "node", "id": 4827673941, "lat": 40.4243871, "lon": -3.709112, "tags": {"crossing": "traffic_signals;marked", "highway": "crossing", "junction": "yes", "tactile_paving": "yes"}}, {"type": "node", "id": 4827701833, "lat": 40.4263481, "lon": -3.7111178, "tags": {"crossing": "uncontrolled", "crossing:island": "no", "crossing:markings": "zebra", "highway": "crossing", "tactile_paving": "yes"}}, {"type": "node", "id": 7537540989, "lat": 40.424952, "lon": -3.7118674}, {"type": "node", "id": 7537540990, "lat": 40.4249477, "lon": -3.7118991}, {"type": "node", "id": 7537540991, "lat": 40.4247846, "lon": -3.7118574}, {"type": "node", "id": 7537540992, "lat": 40.4249436, "lon": -3.7119187}, {"type": "node", "id": 7934347522, "lat": 40.4252911, "lon": -3.7122673}, {"type": "node", "id": 8428817435, "lat": 40.4262155, "lon": -3.7129297}, {"type": "node", "id": 8428817445, "lat": 40.4264354, "lon": -3.7130859, "tags": {"barrier": "kerb", "kerb": "lowered", "tactile_paving": "yes"}}, {"type": "node", "id": 8429132473, "lat": 40.4257609, "lon": -3.7094843, "tags": {"bus": "yes", "public_transport": "stop_position"}}, {"type": "node", "id": 8436311127, "lat": 40.4246166, "lon": -3.709417, "tags": {"crossing": "uncontrolled", "crossing:markings": "zebra", "highway": "crossing"}}, {"type": "node", "id": 11220559871, "lat": 40.4255585, "lon": -3.7118052, "tags": {"highway": "street_lamp"}}, {"type": "node", "id": 11220559872, "lat": 40.425382, "lon": -3.7119569, "tags": {"highway": "street_lamp"}}, {"type": "node", "id": 11220559873, "lat": 40.4257538, "lon": -3.7119526, "tags": {"highway": "street_lamp"}}, {"type": "node", "id": 11220559874, "lat": 40.4256687, "lon": -3.7117489, "tags": {"highway": "street_lamp"}}, {"type": "node", "id": 11220559875, "lat": 40.425773, "lon": -3.7117383, "tags": {"highway": "street_lamp", "support": "wall_mounted"}}, {"type": "node", "id": 11220559876, "lat": 40.4258413, "lon": -3.7119045, "tags": {"highway": "street_lamp", "support": "wall_mounted"}}, {"type": "node", "id": 11220559877, "lat": 40.4256331, "lon": -3.7116319, "tags": {"highway": "street_lamp", "support": "wall_mounted"}}, {"type": "node", "id": 11220559878, "lat": 40.4257216, "lon": -3.7115777, "tags": {"highway": "street_lamp", "support": "wall_mounted"}}, {"type": "node", "id": 11220658527, "lat": 40.4257081, "lon": -3.7117129, "tags": {"crossing": "uncontrolled", "crossing:markings": "zebra", "highway": "crossing"}}, {"type": "node", "id": 11228709907, "lat": 40.4257199, "lon": -3.7116351, "tags": {"crossing": "uncontrolled", "crossing:markings": "zebra", "highway": "crossing", "tactile_paving": "yes"}}, {"type": "node", "id": 11228709909, "lat": 40.4260517, "lon": -3.711345, "tags": {"highway": "street_lamp", "support": "wall_mounted"}}, {"type": "node", "id": 11228737727, "lat": 40.4256732, "lon": -3.7116165, "tags": {"crossing": "uncontrolled", "crossing:markings": "zebra", "highway": "crossing", "tactile_paving": "yes"}}, {"type": "node", "id": 11233446207, "lat": 40.4255558, "lon": -3.7114437, "tags": {"highway": "street_lamp", "support": "wall_mounted"}}, {"type": "node", "id": 11233446208, "lat": 40.4254829, "lon": -3.7112524, "tags": {"highway": "street_lamp", "support": "wall_mounted"}}, {"type": "node", "id": 11233446209, "lat": 40.4256598, "lon": -3.7114553, "tags": {"highway": "street_lamp", "support": "wall_mounted"}}, {"type": "node", "id": 11233446210, "lat": 40.42559, "lon": -3.7112839, "tags": {"highway": "street_lamp", "support": "wall_mounted"}}, {"type": "node", "id": 11233446211, "lat": 40.4254875, "lon": -3.7110396, "tags": {"highway": "street_lamp", "support": "wall_mounted"}}, {"type": "node", "id": 11233446213, "lat": 40.4254109, "lon": -3.7108447, "tags": {"highway": "street_lamp", "support": "wall_mounted"}}, {"type": "node", "id": 11233446214, "lat": 40.425262, "lon": -3.710708, "tags": {"highway": "street_lamp", "support": "wall_mounted"}}, {"type": "node", "id": 11233446215, "lat": 40.4252952, "lon": -3.7105692, "tags": {"highway": "street_lamp", "support": "wall_mounted"}}, {"type": "node", "id": 11233446216, "lat": 40.4252158, "lon": -3.7105929, "tags": {"highway": "street_lamp", "support": "wall_mounted"}}, {"type": "node", "id": 11233446217, "lat": 40.4252551, "lon": -3.7104639, "tags": {"highway": "street_lamp", "support": "wall_mounted"}}, {"type": "node", "id": 11233446218, "lat": 40.4252056, "lon": -3.710314, "tags": {"highway": "street_lamp", "support": "wall_mounted"}}, {"type": "node", "id": 11233446223, "lat": 40.4253567, "lon": -3.7109414, "tags": {"highway": "street_lamp", "support": "wall_mounted"}}, {"type": "node", "id": 11248474989, "lat": 40.4260799, "lon": -3.7104026, "tags": {"highway": "street_lamp", "support": "wall_mounted"}}, {"type": "node", "id": 11248486981, "lat": 40.4262288, "lon": -3.7106351, "tags": {"crossing": "uncontrolled", "crossing:markings": "zebra", "highway": "crossing", "tactile_paving": "yes"}}, {"type": "node", "id": 11248486982, "lat": 40.426184, "lon": -3.7107153, "tags": {"crossing": "uncontrolled", "crossing:markings": "zebra", "highway": "crossing", "tactile_paving": "yes"}}, {"type": "node", "id": 11248486983, "lat": 40.4261256, "lon": -3.7106835, "tags": {"crossing": "uncontrolled", "crossing:markings": "zebra", "highway": "crossing", "tactile_paving": "yes"}}, {"type": "node", "id": 11281513840, "lat": 40.4247509, "lon": -3.7111012}, {"type": "node", "id": 11281513843, "lat": 40.4247411, "lon": -3.7110421, "tags": {"highway": "give_way", "source": "survey"}}, {"type": "node", "id": 11533572632, "lat": 40.4263285, "lon": -3.7112001, "tags": {"crossing": "uncontrolled", "crossing:island": "no", "crossing:markings": "zebra", "highway": "crossing", "tactile_paving": "yes"}}, {"type": "node", "id": 11533572647, "lat": 40.4261788, "lon": -3.7106528, "tags": {"direction": "forward", "highway": "give_way", "traffic_sign": "ES:R1"}}, {"type": "node", "id": 12413100226, "lat": 40.4258869, "lon": -3.7120118, "tags": {"highway": "give_way"}}, {"type": "node", "id": 12413100242, "lat": 40.424802, "lon": -3.7118246}, {"type": "node", "id": 12413100243, "lat": 40.4254967, "lon": -3.7111201, "tags": {"highway": "give_way"}}, {"type": "way", "id": 4389647, "nodes": [4827673941, 55311600, 8436311127, 26808564, 26067260, 26067259, 26067258, 26067286, 11228737727, 26067288], "tags": {"highway": "residential", "lit": "yes", "name": "Calle de San Bernardino", "oneway": "yes", "postal_code": "28015", "sidewalk": "both", "surface": "asphalt"}}, {"type": "way", "id": 4389652, "nodes": [26067258, 674492237, 11281513843, 26067256], "tags": {"cycleway:both": "no", "highway": "residential", "lanes": "1", "lit": "yes", "name": "Calle de San Leonardo", "oneway": "yes", "surface": "asphalt"}}, {"type": "way", "id": 4389653, "nodes": [26067308, 27505288, 26067309, 27505287, 11248486981, 11533572647, 26067287, 11248486983, 12413100243, 26067286], "tags": {"highway": "residential", "lit": "yes", "maxspeed": "30", "name": "Calle del Lim\u00f3n", "oneway": "yes", "postal_code": "28015", "sidewalk": "both", "surface": "asphalt", "wikidata": "Q29608725", "wikipedia": "es:Calle del Lim\u00f3n"}}, {"type": "way", "id": 4389654, "nodes": [26808566, 12413100226, 26808565], "tags": {"highway": "residential", "lit": "yes", "maxspeed": "30", "maxspeed:type": "sign", "name": "Calle de Manuel", "oneway": "yes", "postal_code": "28015", "sidewalk": "both", "sidewalk:both:surface": "paving_stones", "smoothness": "excellent", "surface": "asphalt"}}, {"type": "way", "id": 4389656, "nodes": [26067293, 7537540992, 7537540990, 7537540989], "tags": {"highway": "footway", "lit": "yes", "name": "Calle del Duque de Osuna", "smoothness": "excellent", "surface": "paving_stones"}}, {"type": "way", "id": 7643031, "nodes": [26067288, 11220658527, 26067290, 3267220581, 26808565], "tags": {"highway": "residential", "lit": "yes", "maxspeed": "30", "maxspeed:type": "sign", "name": "Plaza de Cristino Martos", "name:etymology:wikidata": "Q45900966", "oneway": "yes", "postal_code": "28015", "sidewalk": "both", "sidewalk:both:surface": "paving_stones", "smoothness": "excellent", "surface": "asphalt"}}, {"type": "way", "id": 291204074, "nodes": [8428817445, 8428817435, 3606795767, 2946208330, 2946208320, 2946208311, 7934347522, 2946208309, 4110107777, 4110107776, 4110107775, 4110107774, 4110107772, 4110107773, 11281513840], "tags": {"footway": "sidewalk", "highway": "footway", "lit": "yes", "smoothness": "excellent", "surface": "paving_stones", "wheelchair": "yes"}}, {"type": "way", "id": 304929240, "nodes": [26067294, 26067288], "tags": {"highway": "residential", "lit": "yes", "name": "Plaza de Cristino Martos", "name:etymology:wikidata": "Q45900966", "postal_code": "28015", "sidewalk": "both", "surface": "paving_stones"}}, {"type": "way", "id": 422999622, "nodes": [26067289, 4827701833, 11248486982, 26067287, 26067298, 26067285, 8429132473, 26067261, 26067262], "tags": {"highway": "residential", "lit": "yes", "name": "Traves\u00eda del Conde Duque", "oneway": "yes", "sidewalk": "both", "surface": "asphalt"}}, {"type": "way", "id": 422999623, "nodes": [26067289, 11533572632, 11228709907, 26067288], "tags": {"highway": "residential", "lit": "yes", "name": "Calle del Conde Duque", "name:etymology:wikidata": "Q27031730", "oneway": "yes", "postal_code": "28015", "sidewalk": "both", "surface": "asphalt"}}, {"type": "way", "id": 806020099, "nodes": [12413100242, 7537540989, 26067294], "tags": {"highway": "pedestrian", "lit": "yes", "name": "Calle del Duque de Osuna", "parking:both": "no", "postal_code": "28015", "smoothness": "excellent", "surface": "paving_stones"}}, {"type": "way", "id": 806020100, "nodes": [7537540991, 26067293], "tags": {"handrail": "yes", "highway": "steps", "incline": "up", "lit": "yes", "ramp": "no", "surface": "paving_stones", "tactile_paving": "no"}}]}