{"version": 0.6, "generator": "Overpass API 0.7.62.5 1bd436f1", "osm3s": {"timestamp_osm_base": "2025-03-23T12:52:00Z", "copyright": "The data included in this document is from www.openstreetmap.org. The data is made available under ODbL."}, "elements": [{"type": "node", "id": 25531130, "lat": 40.4328167, "lon": -3.6503062}, {"type": "node", "id": 25531131, "lat": 40.4327595, "lon": -3.6507061}, {"type": "node", "id": 25531132, "lat": 40.4326356, "lon": -3.6515607}, {"type": "node", "id": 101023776, "lat": 40.4317624, "lon": -3.6482708}, {"type": "node", "id": 101023777, "lat": 40.4312326, "lon": -3.6481485}, {"type": "node", "id": 101025020, "lat": 40.431655, "lon": -3.6491455}, {"type": "node", "id": 101025021, "lat": 40.4311183, "lon": -3.6490268}, {"type": "node", "id": 101025639, "lat": 40.4315439, "lon": -3.6500151}, {"type": "node", "id": 101025640, "lat": 40.4310501, "lon": -3.6499011}, {"type": "node", "id": 101025641, "lat": 40.4304758, "lon": -3.6497728}, {"type": "node", "id": 101025643, "lat": 40.4299448, "lon": -3.6496633}, {"type": "node", "id": 101025644, "lat": 40.4296769, "lon": -3.6496038}, {"type": "node", "id": 101025645, "lat": 40.4294005, "lon": -3.6495434}, {"type": "node", "id": 101025646, "lat": 40.4288681, "lon": -3.6494279}, {"type": "node", "id": 101025848, "lat": 40.4317238, "lon": -3.6504604}, {"type": "node", "id": 101025849, "lat": 40.431057, "lon": -3.6503135}, {"type": "node", "id": 101026150, "lat": 40.4316195, "lon": -3.6513062}, {"type": "node", "id": 101026152, "lat": 40.4310588, "lon": -3.6511784}, {"type": "node", "id": 101026154, "lat": 40.4305951, "lon": -3.6510502}, {"type": "node", "id": 101026616, "lat": 40.4299031, "lon": -3.6518031}, {"type": "node", "id": 101029012, "lat": 40.4308386, "lon": -3.6528884}, {"type": "node", "id": 101030698, "lat": 40.4317734, "lon": -3.650074}, {"type": "node", "id": 101031756, "lat": 40.4309562, "lon": -3.6520088}, {"type": "node", "id": 101031758, "lat": 40.4310526, "lon": -3.650635}, {"type": "node", "id": 101033465, "lat": 40.4297682, "lon": -3.6511328}, {"type": "node", "id": 101033692, "lat": 40.4310493, "lon": -3.6499557}, {"type": "node", "id": 101034261, "lat": 40.4303691, "lon": -3.6505902}, {"type": "node", "id": 506084015, "lat": 40.4300326, "lon": -3.6516564}, {"type": "node", "id": 1602171871, "lat": 40.4302994, "lon": -3.6513636}, {"type": "node", "id": 3115801461, "lat": 40.4301922, "lon": -3.6507506}, {"type": "node", "id": 3176784734, "lat": 40.4311431, "lon": -3.6491459, "tags": {"crossing": "uncontrolled", "crossing:markings": "zebra", "highway": "crossing"}}, {"type": "node", "id": 3177436373, "lat": 40.4317534, "lon": -3.6483703, "tags": {"highway": "give_way"}}, {"type": "node", "id": 3177621734, "lat": 40.4311306, "lon": -3.6489326, "tags": {"crossing": "uncontrolled", "crossing:markings": "zebra", "highway": "crossing"}}, {"type": "node", "id": 3177621736, "lat": 40.4311414, "lon": -3.6490827}, {"type": "node", "id": 3177623773, "lat": 40.4316387, "lon": -3.6492727, "tags": {"highway": "give_way"}}, {"type": "node", "id": 3177623775, "lat": 40.4316458, "lon": -3.6492177, "tags": {"crossing": "uncontrolled", "crossing:markings": "zebra", "highway": "crossing"}}, {"type": "node", "id": 3200176871, "lat": 40.4293128, "lon": -3.6495238, "tags": {"crossing": "uncontrolled", "crossing:markings": "zebra", "highway": "crossing"}}, {"type": "node", "id": 3200176878, "lat": 40.4294701, "lon": -3.6495586, "tags": {"crossing": "uncontrolled", "crossing:markings": "zebra", "highway": "crossing"}}, {"type": "node", "id": 3200176885, "lat": 40.43001, "lon": -3.6496775, "tags": {"crossing": "uncontrolled", "crossing:markings": "zebra", "highway": "crossing"}}, {"type": "node", "id": 3200176892, "lat": 40.4309522, "lon": -3.6498792, "tags": {"crossing": "uncontrolled", "crossing:markings": "zebra", "highway": "crossing"}}, {"type": "node", "id": 3200176893, "lat": 40.4309674, "lon": -3.6500438, "tags": {"crossing": "uncontrolled", "crossing:markings": "zebra", "highway": "crossing"}}, {"type": "node", "id": 3200176895, "lat": 40.4310059, "lon": -3.6500252}, {"type": "node", "id": 3200176896, "lat": 40.4310313, "lon": -3.6499956}, {"type": "node", "id": 3200176897, "lat": 40.4310616, "lon": -3.6498076, "tags": {"crossing": "uncontrolled", "crossing:markings": "zebra", "highway": "crossing"}}, {"type": "node", "id": 3200176898, "lat": 40.4310654, "lon": -3.6497771, "tags": {"highway": "give_way"}}, {"type": "node", "id": 3200176899, "lat": 40.4311332, "lon": -3.6499203, "tags": {"crossing": "uncontrolled", "crossing:markings": "zebra", "highway": "crossing"}}, {"type": "node", "id": 3200176902, "lat": 40.4317591, "lon": -3.6501778, "tags": {"highway": "give_way"}}, {"type": "node", "id": 3200176903, "lat": 40.4317631, "lon": -3.6501461, "tags": {"crossing": "uncontrolled", "crossing:markings": "zebra", "highway": "crossing"}}, {"type": "node", "id": 3200176905, "lat": 40.4327159, "lon": -3.650284, "tags": {"crossing": "uncontrolled", "crossing:markings": "zebra", "highway": "crossing"}}, {"type": "node", "id": 3201484749, "lat": 40.4309285, "lon": -3.6500666}, {"type": "node", "id": 3201961512, "lat": 40.4309424, "lon": -3.6521204}, {"type": "node", "id": 3201961527, "lat": 40.4309756, "lon": -3.6506435}, {"type": "node", "id": 3201961535, "lat": 40.4310185, "lon": -3.6506286}, {"type": "node", "id": 3201961540, "lat": 40.4310537, "lon": -3.6512524, "tags": {"crossing": "uncontrolled", "crossing:markings": "zebra", "highway": "crossing"}}, {"type": "node", "id": 3201961541, "lat": 40.4310525, "lon": -3.6510984}, {"type": "node", "id": 3202125273, "lat": 40.4308464, "lon": -3.6528238, "tags": {"crossing": "uncontrolled", "crossing:markings": "zebra", "highway": "crossing"}}, {"type": "node", "id": 3202125274, "lat": 40.4308528, "lon": -3.6527766, "tags": {"highway": "give_way"}}, {"type": "node", "id": 3202125281, "lat": 40.430967, "lon": -3.6519345, "tags": {"crossing": "uncontrolled", "crossing:markings": "zebra", "highway": "crossing"}}, {"type": "node", "id": 3202125285, "lat": 40.4309945, "lon": -3.6506337, "tags": {"crossing": "uncontrolled", "crossing:markings": "zebra", "highway": "crossing"}}, {"type": "node", "id": 3202125302, "lat": 40.431124, "lon": -3.6511933, "tags": {"crossing": "uncontrolled", "crossing:markings": "zebra", "highway": "crossing"}}, {"type": "node", "id": 3202125305, "lat": 40.4311273, "lon": -3.650329, "tags": {"crossing": "uncontrolled", "crossing:markings": "zebra", "highway": "crossing"}}, {"type": "node", "id": 3202125318, "lat": 40.43116, "lon": -3.6503362, "tags": {"highway": "give_way"}}, {"type": "node", "id": 3202125415, "lat": 40.4315771, "lon": -3.6512965, "tags": {"crossing": "uncontrolled", "crossing:markings": "zebra", "highway": "crossing"}}, {"type": "node", "id": 3202125428, "lat": 40.4316285, "lon": -3.6512331, "tags": {"crossing": "uncontrolled", "crossing:markings": "zebra", "highway": "crossing"}}, {"type": "node", "id": 3202125445, "lat": 40.4317127, "lon": -3.6505506, "tags": {"crossing": "uncontrolled", "crossing:markings": "zebra", "highway": "crossing"}}, {"type": "node", "id": 3202125450, "lat": 40.431732, "lon": -3.6503944, "tags": {"crossing": "uncontrolled", "crossing:markings": "zebra", "highway": "crossing"}}, {"type": "node", "id": 3202125463, "lat": 40.4317894, "lon": -3.650476, "tags": {"crossing": "uncontrolled", "crossing:markings": "zebra", "highway": "crossing"}}, {"type": "node", "id": 3202125474, "lat": 40.4318165, "lon": -3.6504824, "tags": {"highway": "give_way"}}, {"type": "node", "id": 3202125710, "lat": 40.4325362, "lon": -3.6515358, "tags": {"crossing": "traffic_signals", "crossing:markings": "dots", "highway": "traffic_signals"}}, {"type": "node", "id": 3202125716, "lat": 40.4326636, "lon": -3.6506834, "tags": {"crossing": "uncontrolled", "crossing:markings": "zebra", "highway": "crossing"}}, {"type": "node", "id": 3203293408, "lat": 40.4306139, "lon": -3.651094}, {"type": "node", "id": 3203293415, "lat": 40.4309839, "lon": -3.6511966}, {"type": "node", "id": 4788244066, "lat": 40.4317207, "lon": -3.6500603}, {"type": "node", "id": 4788244067, "lat": 40.4317209, "lon": -3.6498871}, {"type": "node", "id": 4788244068, "lat": 40.4316933, "lon": -3.6498387}, {"type": "node", "id": 4788244069, "lat": 40.4315703, "lon": -3.6498082}, {"type": "way", "id": 11356249, "nodes": [25531131, 3202125716, 3202125474, 3202125463, 101025848, 3202125318, 3202125305, 101025849], "tags": {"highway": "residential", "lanes": "1", "maxspeed": "40", "name": "Calle de San M\u00e1ximo Juan", "oneway": "yes", "postal_code": "28017", "sidewalk": "both", "surface": "asphalt"}}, {"type": "way", "id": 11357022, "nodes": [101026150, 3202125428, 3202125445, 101025848, 3202125450, 3200176902, 3200176903, 101030698], "tags": {"highway": "residential", "lanes": "1", "maxspeed": "40", "name": "Calle de Benidorm", "oneway": "yes", "sidewalk": "both", "surface": "asphalt"}}, {"type": "way", "id": 11357194, "nodes": [101025640, 101033692, 101025849, 101031758, 3201961541, 101026152, 3201961540, 3202125281, 101031756, 3201961512, 3202125274, 3202125273, 101029012], "tags": {"highway": "residential", "lanes": "1", "maxspeed": "40", "name": "Calle de \u00c1lava", "name:etymology:wikidata": "Q81801", "oneway": "yes", "postal_code": "28017", "sidewalk": "both", "surface": "asphalt"}}, {"type": "way", "id": 11357248, "nodes": [101023777, 3177621734, 101025021, 3177621736, 3176784734, 3200176898, 3200176897, 101025640], "tags": {"highway": "residential", "lanes": "1", "maxspeed": "40", "name": "Calle de los Collados", "oneway": "yes", "postal_code": "28017", "sidewalk": "both", "surface": "asphalt"}}, {"type": "way", "id": 11357531, "nodes": [101026616, 506084015, 1602171871, 101026154, 3201961527, 3202125285, 3201961535, 101031758], "tags": {"highway": "residential", "lanes": "1", "maxspeed": "40", "name": "Calle de Amador Vald\u00e9s", "oneway": "yes", "postal_code": "28017", "sidewalk": "both", "surface": "asphalt"}}, {"type": "way", "id": 11357644, "nodes": [101033692, 3200176896, 3200176895, 3200176893, 3201484749, 101034261, 3115801461, 101033465], "tags": {"highway": "residential", "lanes": "1", "maxspeed": "40", "name": "Calle de la Vereda del Carmen", "oneway": "yes", "postal_code": "28017", "sidewalk": "both", "surface": "asphalt"}}, {"type": "way", "id": 11357679, "nodes": [101025639, 4788244069, 3177623773, 3177623775, 101025020, 3177436373, 101023776], "tags": {"highway": "residential", "lanes": "1", "maxspeed": "40", "name": "Calle de Lorenzo Gonz\u00e1lez", "oneway": "yes", "sidewalk": "both", "surface": "asphalt"}}, {"type": "way", "id": 41377689, "nodes": [101026152, 3202125302, 3202125415, 101026150, 3202125710, 25531132], "tags": {"highway": "residential", "lanes": "1", "maxspeed": "40", "name": "Calle de Santa Elena", "name:etymology:wikidata": "Q170164", "oneway": "yes", "postal_code": "28017", "sidewalk": "both", "surface": "asphalt"}}, {"type": "way", "id": 41377956, "nodes": [25531130, 3200176905, 101030698, 4788244066, 101025639, 3200176899, 101025640, 3200176892, 101025641, 3200176885, 101025643, 101025644, 3200176878, 101025645, 3200176871, 101025646], "tags": {"highway": "residential", "lanes": "1", "maxspeed": "40", "name": "Calle de los Hermanos G\u00f3mez", "oneway": "yes", "postal_code": "28017", "sidewalk": "both", "surface": "asphalt"}}, {"type": "way", "id": 314280759, "nodes": [101026154, 3203293408, 3203293415, 101026152], "tags": {"highway": "footway", "surface": "paving_stones"}}, {"type": "way", "id": 486105045, "nodes": [4788244066, 4788244067, 4788244068, 4788244069], "tags": {"highway": "service", "service": "parking_aisle"}}]}