{"version": 0.6, "generator": "Overpass API 0.7.62.5 1bd436f1", "osm3s": {"timestamp_osm_base": "2025-03-23T10:21:14Z", "copyright": "The data included in this document is from www.openstreetmap.org. The data is made available under ODbL."}, "elements": [{"type": "node", "id": 31002119, "lat": 40.4608151, "lon": -3.7907103}, {"type": "node", "id": 31002124, "lat": 40.4608963, "lon": -3.7906068, "tags": {"created_by": "JOSM"}}, {"type": "node", "id": 264346778, "lat": 40.4617006, "lon": -3.79269}, {"type": "node", "id": 264346779, "lat": 40.4617729, "lon": -3.7924209}, {"type": "node", "id": 264346780, "lat": 40.4618669, "lon": -3.79236}, {"type": "node", "id": 264346786, "lat": 40.4620947, "lon": -3.7927884}, {"type": "node", "id": 264346995, "lat": 40.4620255, "lon": -3.7928783}, {"type": "node", "id": 264503074, "lat": 40.462342, "lon": -3.7925067}, {"type": "node", "id": 264503503, "lat": 40.4636182, "lon": -3.7933884}, {"type": "node", "id": 264503504, "lat": 40.4630697, "lon": -3.7932975}, {"type": "node", "id": 264503505, "lat": 40.4616776, "lon": -3.7918228}, {"type": "node", "id": 264503506, "lat": 40.4616349, "lon": -3.7917935}, {"type": "node", "id": 264503507, "lat": 40.4615527, "lon": -3.7918214}, {"type": "node", "id": 264503550, "lat": 40.4637136, "lon": -3.7942148, "tags": {"highway": "turning_circle"}}, {"type": "node", "id": 276695931, "lat": 40.4599226, "lon": -3.7918545}, {"type": "node", "id": 317162635, "lat": 40.4615374, "lon": -3.7930322}, {"type": "node", "id": 317405510, "lat": 40.4606867, "lon": -3.7918874}, {"type": "node", "id": 317405512, "lat": 40.4608576, "lon": -3.7919528, "tags": {"crossing": "uncontrolled", "crossing:island": "no", "highway": "crossing", "tactile_paving": "yes"}}, {"type": "node", "id": 317405516, "lat": 40.4609539, "lon": -3.7920485}, {"type": "node", "id": 355141661, "lat": 40.4621279, "lon": -3.7926274}, {"type": "node", "id": 355141662, "lat": 40.4621039, "lon": -3.7925066}, {"type": "node", "id": 355141664, "lat": 40.4620607, "lon": -3.7924311}, {"type": "node", "id": 355141665, "lat": 40.4619759, "lon": -3.7923661}, {"type": "node", "id": 1507152477, "lat": 40.4601183, "lon": -3.7918574, "tags": {"crossing": "uncontrolled", "crossing:island": "no", "highway": "crossing", "tactile_paving": "yes"}}, {"type": "node", "id": 1507152583, "lat": 40.4614582, "lon": -3.7929223, "tags": {"crossing": "uncontrolled", "crossing:island": "no", "highway": "crossing", "tactile_paving": "yes"}}, {"type": "node", "id": 1507152607, "lat": 40.461646, "lon": -3.7921925, "tags": {"crossing": "uncontrolled", "highway": "crossing"}}, {"type": "node", "id": 1507152636, "lat": 40.4617029, "lon": -3.7925701}, {"type": "node", "id": 1507152643, "lat": 40.461724, "lon": -3.7921151, "tags": {"crossing": "uncontrolled", "highway": "crossing"}}, {"type": "node", "id": 7597216537, "lat": 40.4615032, "lon": -3.7920105, "tags": {"bus": "yes", "highway": "bus_stop", "name": "Camino Barrial-L\u00e1zaro Carreter", "operator": "EMT Madrid", "public_transport": "platform", "ref": "18928"}}, {"type": "node", "id": 8778998494, "lat": 40.4610643, "lon": -3.7909088, "tags": {"bus": "yes", "public_transport": "stop_position"}}, {"type": "node", "id": 8778998496, "lat": 40.4609323, "lon": -3.790894}, {"type": "node", "id": 8779011734, "lat": 40.4615291, "lon": -3.7919854, "tags": {"bus": "yes", "name": "Camino del Barrial con Fernando L\u00e1zaro Carreter, S/N", "operator": "EMT Madrid", "public_transport": "stop_position", "ref": "18928"}}, {"type": "node", "id": 12569433593, "lat": 40.4619871, "lon": -3.7923301, "tags": {"highway": "street_lamp"}}, {"type": "node", "id": 12569433597, "lat": 40.4616524, "lon": -3.7925372, "tags": {"highway": "street_lamp"}}, {"type": "node", "id": 12569433598, "lat": 40.4616464, "lon": -3.7922894, "tags": {"highway": "street_lamp"}}, {"type": "node", "id": 12569433600, "lat": 40.4612229, "lon": -3.7925923, "tags": {"highway": "street_lamp"}}, {"type": "node", "id": 12569483501, "lat": 40.4611167, "lon": -3.7922245, "tags": {"highway": "street_lamp"}}, {"type": "node", "id": 12569483502, "lat": 40.4608803, "lon": -3.7920265, "tags": {"highway": "street_lamp"}}, {"type": "node", "id": 12569483519, "lat": 40.4611815, "lon": -3.7910578, "tags": {"highway": "street_lamp"}}, {"type": "node", "id": 12569483520, "lat": 40.4610295, "lon": -3.7912061, "tags": {"highway": "street_lamp"}}, {"type": "node", "id": 12569483521, "lat": 40.4612377, "lon": -3.7915781, "tags": {"highway": "street_lamp"}}, {"type": "node", "id": 12569483522, "lat": 40.4613803, "lon": -3.7914241, "tags": {"highway": "street_lamp"}}, {"type": "node", "id": 12569483523, "lat": 40.461448, "lon": -3.7919528, "tags": {"highway": "street_lamp"}}, {"type": "node", "id": 12569483524, "lat": 40.4616408, "lon": -3.7918841, "tags": {"highway": "street_lamp"}}, {"type": "node", "id": 12569483525, "lat": 40.461794, "lon": -3.7921651, "tags": {"highway": "street_lamp"}}, {"type": "way", "id": 24377737, "nodes": [264503550, 264503503, 264503504, 264503074, 264503505, 264503506, 264503507], "tags": {"created_by": "Potlatch 0.9a", "highway": "residential", "name": "Calle del Barrial"}}, {"type": "way", "id": 24744353, "nodes": [31002124, 8778998494, 264503507, 1507152643, 264346780], "tags": {"cycleway:right": "no", "highway": "secondary", "name": "Camino del Barrial", "oneway": "yes", "surface": "asphalt"}}, {"type": "way", "id": 28847868, "nodes": [317162635, 1507152583, 317405516, 317405512, 317405510, 1507152477, 276695931], "tags": {"highway": "residential", "lit": "yes", "name": "Calle Luz Casanova", "sidewalk": "both", "surface": "asphalt"}}, {"type": "way", "id": 31736274, "nodes": [264346780, 355141665, 355141664, 355141662, 355141661, 264346786], "tags": {"cycleway:right": "no", "highway": "tertiary", "name": "Camino del Barrial", "oneway": "yes", "source": "survey", "surface": "asphalt"}}, {"type": "way", "id": 31736276, "nodes": [264346780, 264346786], "tags": {"cycleway:right": "no", "highway": "secondary", "name": "Camino del Barrial", "oneway": "yes", "surface": "asphalt"}}, {"type": "way", "id": 31736278, "nodes": [264346995, 264346779], "tags": {"cycleway:right": "no", "highway": "secondary", "name": "Camino del Barrial", "oneway": "yes", "surface": "asphalt"}}, {"type": "way", "id": 31736279, "nodes": [264346779, 1507152607, 8779011734, 8778998496, 31002119], "tags": {"cycleway:right": "no", "highway": "secondary", "name": "Camino del Barrial", "oneway": "yes", "surface": "asphalt"}}, {"type": "way", "id": 802879356, "nodes": [264346779, 264346780], "tags": {"cycleway:right": "no", "highway": "tertiary", "name": "Camino del Barrial", "oneway": "yes", "source": "survey", "surface": "asphalt"}}, {"type": "way", "id": 813319172, "nodes": [264346778, 1507152636, 264346779], "tags": {"cycleway:right": "no", "highway": "tertiary", "lane_markings": "no", "name": "Camino del Barrial", "oneway": "yes", "source": "survey", "surface": "asphalt"}}]}