{"version": 0.6, "generator": "Overpass API 0.7.62.5 1bd436f1", "osm3s": {"timestamp_osm_base": "2025-03-23T15:42:45Z", "copyright": "The data included in this document is from www.openstreetmap.org. The data is made available under ODbL."}, "elements": [{"type": "node", "id": 100955662, "lat": 40.4541662, "lon": -3.6550956}, {"type": "node", "id": 100955663, "lat": 40.4534528, "lon": -3.6544496, "tags": {"highway": "traffic_signals"}}, {"type": "node", "id": 100955664, "lat": 40.4526854, "lon": -3.6537564}, {"type": "node", "id": 100963135, "lat": 40.4510584, "lon": -3.6523753, "tags": {"highway": "traffic_signals"}}, {"type": "node", "id": 100963136, "lat": 40.4517961, "lon": -3.6529235, "tags": {"highway": "traffic_signals"}}, {"type": "node", "id": 100963137, "lat": 40.4527245, "lon": -3.6536387}, {"type": "node", "id": 100963138, "lat": 40.4535046, "lon": -3.6543465, "tags": {"highway": "traffic_signals"}}, {"type": "node", "id": 224164927, "lat": 40.4551496, "lon": -3.65127}, {"type": "node", "id": 224164928, "lat": 40.454683, "lon": -3.6521557}, {"type": "node", "id": 253116154, "lat": 40.4523288, "lon": -3.6564963}, {"type": "node", "id": 282266420, "lat": 40.4537191, "lon": -3.6512986}, {"type": "node", "id": 1439700428, "lat": 40.4530176, "lon": -3.6538469, "tags": {"bench": "yes", "bin": "no", "bus": "yes", "highway": "bus_stop", "lit": "yes", "name": "Jefatura Provincial Tr\u00e1fico", "operator": "EMT Madrid", "public_transport": "platform", "ref": "4331", "shelter": "yes", "source": "https://navegapormadrid.emtmadrid.es/app/", "tactile_paving": "yes"}}, {"type": "node", "id": 3327088533, "lat": 40.4551239, "lon": -3.6513372}, {"type": "node", "id": 3378124318, "lat": 40.4511617, "lon": -3.652454, "tags": {"button_operated": "no", "crossing": "traffic_signals", "highway": "crossing", "tactile_paving": "yes", "traffic_signals:sound": "no"}}, {"type": "node", "id": 3378124321, "lat": 40.454061, "lon": -3.6550886}, {"type": "node", "id": 3613122378, "lat": 40.452618, "lon": -3.653892, "tags": {"crossing": "traffic_signals", "crossing:island": "no", "crossing:markings": "dots", "highway": "crossing", "tactile_paving": "yes"}}, {"type": "node", "id": 3613122381, "lat": 40.4527754, "lon": -3.6538378, "tags": {"crossing": "traffic_signals", "crossing:markings": "dots", "highway": "crossing", "tactile_paving": "yes", "traffic_signals:sound": "yes"}}, {"type": "node", "id": 3613122382, "lat": 40.4528286, "lon": -3.6537405, "tags": {"crossing": "traffic_signals", "crossing:markings": "dots", "highway": "crossing", "tactile_paving": "yes", "traffic_signals:sound": "yes"}}, {"type": "node", "id": 3613122385, "lat": 40.4533686, "lon": -3.654376, "tags": {"button_operated": "yes", "crossing": "traffic_signals", "highway": "crossing", "tactile_paving": "yes", "traffic_signals:sound": "yes", "traffic_signals:vibration": "no"}}, {"type": "node", "id": 3613122386, "lat": 40.45339, "lon": -3.6545643, "tags": {"crossing": "uncontrolled", "highway": "crossing", "tactile_paving": "yes"}}, {"type": "node", "id": 3613122387, "lat": 40.453419, "lon": -3.6542747, "tags": {"button_operated": "yes", "crossing": "traffic_signals", "highway": "crossing", "tactile_paving": "yes", "traffic_signals:sound": "yes", "traffic_signals:vibration": "no"}}, {"type": "node", "id": 3613122389, "lat": 40.4540896, "lon": -3.6550194, "tags": {"crossing": "traffic_signals", "highway": "crossing", "tactile_paving": "yes"}}, {"type": "node", "id": 3613122391, "lat": 40.4541504, "lon": -3.6549073, "tags": {"crossing": "traffic_signals", "highway": "crossing", "tactile_paving": "yes"}}, {"type": "node", "id": 3613122392, "lat": 40.4542333, "lon": -3.6547366}, {"type": "node", "id": 3676441201, "lat": 40.4518523, "lon": -3.6529662, "tags": {"crossing": "traffic_signals", "highway": "crossing", "tactile_paving": "yes"}}, {"type": "node", "id": 4755985021, "lat": 40.4536751, "lon": -3.6513937, "tags": {"highway": "crossing", "tactile_paving": "yes"}}, {"type": "node", "id": 4862245692, "lat": 40.4547437, "lon": -3.6520431}, {"type": "node", "id": 4966768719, "lat": 40.4528023, "lon": -3.6534288, "tags": {"crossing": "traffic_signals", "crossing:markings": "dots", "highway": "crossing"}}, {"type": "node", "id": 8555198051, "lat": 40.4529979, "lon": -3.6538958, "tags": {"bus": "yes", "public_transport": "stop_position"}}, {"type": "node", "id": 11704898911, "lat": 40.4534919, "lon": -3.654583}, {"type": "node", "id": 11704898912, "lat": 40.4534363, "lon": -3.6546058}, {"type": "node", "id": 11704898913, "lat": 40.4533245, "lon": -3.6545019}, {"type": "node", "id": 11704898914, "lat": 40.4533388, "lon": -3.6544724}, {"type": "node", "id": 11704898915, "lat": 40.4533378, "lon": -3.6544409}, {"type": "node", "id": 11704898916, "lat": 40.4527398, "lon": -3.6539031}, {"type": "node", "id": 11704898917, "lat": 40.4527136, "lon": -3.6538875}, {"type": "node", "id": 11704898918, "lat": 40.4526731, "lon": -3.6539319}, {"type": "node", "id": 11725699939, "lat": 40.4536065, "lon": -3.6541571, "tags": {"crossing": "uncontrolled", "highway": "crossing"}}, {"type": "node", "id": 11725699940, "lat": 40.4534158, "lon": -3.653986}, {"type": "node", "id": 11725699941, "lat": 40.4530453, "lon": -3.6536471}, {"type": "node", "id": 11725699942, "lat": 40.4528503, "lon": -3.6534727}, {"type": "node", "id": 11795268599, "lat": 40.4537901, "lon": -3.6548343, "tags": {"highway": "street_lamp"}}, {"type": "node", "id": 11795268600, "lat": 40.4535072, "lon": -3.6545821, "tags": {"highway": "street_lamp"}}, {"type": "node", "id": 11795268605, "lat": 40.4528576, "lon": -3.6536937}, {"type": "node", "id": 11795268606, "lat": 40.4528192, "lon": -3.6536629}, {"type": "node", "id": 11795268607, "lat": 40.4527983, "lon": -3.653643}, {"type": "node", "id": 11795268608, "lat": 40.4527963, "lon": -3.6536328}, {"type": "node", "id": 11795268609, "lat": 40.4528003, "lon": -3.6536093}, {"type": "node", "id": 11795268610, "lat": 40.4528611, "lon": -3.6534824}, {"type": "node", "id": 11795268612, "lat": 40.4527701, "lon": -3.6539161, "tags": {"highway": "street_lamp"}}, {"type": "node", "id": 11795268613, "lat": 40.4529408, "lon": -3.6540715, "tags": {"highway": "street_lamp"}}, {"type": "node", "id": 11795268614, "lat": 40.4532194, "lon": -3.6543218, "tags": {"highway": "street_lamp"}}, {"type": "node", "id": 11795314362, "lat": 40.4511399, "lon": -3.6524374, "tags": {"highway": "traffic_signals", "traffic_signals": "signal", "traffic_signals:direction": "forward"}}, {"type": "node", "id": 11808303284, "lat": 40.4541286, "lon": -3.6548894, "tags": {"highway": "traffic_signals", "traffic_signals": "traffic_lights", "traffic_signals:direction": "forward"}}, {"type": "node", "id": 11808303289, "lat": 40.454116, "lon": -3.6550457, "tags": {"highway": "traffic_signals", "traffic_signals": "signal"}}, {"type": "node", "id": 11989849248, "lat": 40.4527069, "lon": -3.6536917}, {"type": "node", "id": 11989849249, "lat": 40.452695, "lon": -3.6537276}, {"type": "node", "id": 11989849252, "lat": 40.4528126, "lon": -3.6537725}, {"type": "node", "id": 11989849253, "lat": 40.4527957, "lon": -3.6538036}, {"type": "node", "id": 11989849254, "lat": 40.4533999, "lon": -3.6543117}, {"type": "node", "id": 11989849255, "lat": 40.4533863, "lon": -3.654337}, {"type": "node", "id": 11989857240, "lat": 40.453436, "lon": -3.6544802, "tags": {"direction": "backward", "highway": "give_way"}}, {"type": "node", "id": 11989857241, "lat": 40.4535365, "lon": -3.6542872, "tags": {"direction": "forward", "highway": "give_way"}}, {"type": "node", "id": 11991762098, "lat": 40.4532307, "lon": -3.6541051}, {"type": "node", "id": 11991762099, "lat": 40.4527764, "lon": -3.6536904}, {"type": "node", "id": 11991762100, "lat": 40.4534596, "lon": -3.654309}, {"type": "node", "id": 11991762101, "lat": 40.4535501, "lon": -3.6543831}, {"type": "node", "id": 11991762102, "lat": 40.4542066, "lon": -3.6549628}, {"type": "node", "id": 11999095581, "lat": 40.4539161, "lon": -3.6546147, "tags": {"highway": "street_lamp"}}, {"type": "node", "id": 12017222967, "lat": 40.4526425, "lon": -3.6535755, "tags": {"highway": "traffic_signals"}}, {"type": "node", "id": 12020165296, "lat": 40.4532561, "lon": -3.6549537}, {"type": "node", "id": 12020165297, "lat": 40.4524534, "lon": -3.6564343}, {"type": "node", "id": 12020165298, "lat": 40.4523941, "lon": -3.6563799, "tags": {"crossing": "uncontrolled", "crossing:island": "no", "highway": "crossing"}}, {"type": "node", "id": 12020165299, "lat": 40.4523356, "lon": -3.6563203}, {"type": "node", "id": 12020165300, "lat": 40.4532305, "lon": -3.6546694}, {"type": "node", "id": 12026440169, "lat": 40.4528928, "lon": -3.6537122}, {"type": "node", "id": 12026440170, "lat": 40.4530798, "lon": -3.6538818}, {"type": "node", "id": 12026440171, "lat": 40.4533928, "lon": -3.6541611}, {"type": "node", "id": 12026440172, "lat": 40.4534387, "lon": -3.654206}, {"type": "node", "id": 12026440173, "lat": 40.4534954, "lon": -3.6542141}, {"type": "node", "id": 12026440174, "lat": 40.4535593, "lon": -3.6541148}, {"type": "node", "id": 12026440175, "lat": 40.4527579, "lon": -3.6538696}, {"type": "way", "id": 23488030, "nodes": [100955663, 11989857240, 3613122386, 12020165298, 253116154], "tags": {"highway": "residential", "lanes": "2", "name": "Calle de Sorzano", "surface": "asphalt"}}, {"type": "way", "id": 25877298, "nodes": [100963137, 4966768719, 4755985021, 282266420], "tags": {"highway": "residential", "lanes": "2", "lanes:backward": "1", "lanes:forward": "1", "maxspeed": "50", "name": "Calle de Lorenzo Solano Tendero", "surface": "asphalt", "turn:lanes:backward": "through", "turn:lanes:forward": "through"}}, {"type": "way", "id": 25877306, "nodes": [224164927, 3327088533, 4862245692, 224164928, 11725699939, 11989857241, 100963138], "tags": {"highway": "residential", "maxspeed": "50", "name": "Calle de Juli\u00e1n Hern\u00e1ndez", "source:maxspeed": "sign", "surface": "asphalt"}}, {"type": "way", "id": 43737875, "nodes": [100955664, 11989849249, 11989849248, 100963137], "tags": {"highway": "residential", "lane_markings": "no", "maxspeed": "50", "name": "Calle de Manuel del Valle", "oneway": "yes", "source:maxspeed": "sign", "surface": "asphalt"}}, {"type": "way", "id": 208732905, "nodes": [100963135, 11795314362, 3378124318, 100963136, 3676441201, 12017222967, 100963137], "tags": {"highway": "primary", "lanes": "2", "maxspeed": "50", "name": "Calle de Arturo Soria", "name:etymology:wikidata": "Q8255504", "oneway": "yes", "source:maxspeed": "sign", "surface": "asphalt"}}, {"type": "way", "id": 1259137328, "nodes": [3378124321, 11704898911, 11704898912, 3613122386], "tags": {"footway": "sidewalk", "highway": "footway"}}, {"type": "way", "id": 1259137329, "nodes": [3613122386, 11704898913, 11704898914, 11704898915, 3613122385], "tags": {"footway": "sidewalk", "highway": "footway"}}, {"type": "way", "id": 1259137330, "nodes": [11704898915, 11704898916, 12026440175, 3613122381], "tags": {"footway": "sidewalk", "highway": "footway"}}, {"type": "way", "id": 1259137331, "nodes": [3613122385, 11989849255, 11989849254, 3613122387], "tags": {"crossing": "traffic_signals", "crossing:island": "yes", "footway": "crossing", "highway": "footway"}}, {"type": "way", "id": 1259137332, "nodes": [11704898916, 11704898917, 11704898918, 3613122378], "tags": {"footway": "sidewalk", "highway": "footway"}}, {"type": "way", "id": 1261980220, "nodes": [3613122392, 11725699939], "tags": {"highway": "footway"}}, {"type": "way", "id": 1261980221, "nodes": [11725699939, 12026440174, 11725699940, 11725699941, 11795268610, 11725699942, 4966768719], "tags": {"highway": "footway"}}, {"type": "way", "id": 1270355815, "nodes": [3613122381, 11989849253, 11989849252, 3613122382, 11795268605, 11795268606, 11795268607, 11795268608, 11795268609, 11795268610], "tags": {"footway": "sidewalk", "highway": "footway"}}, {"type": "way", "id": 1293618393, "nodes": [11991762098, 3613122387, 11991762100], "tags": {"highway": "primary", "lanes": "2", "maxspeed": "50", "name": "Calle de Arturo Soria", "name:etymology:wikidata": "Q8255504", "oneway": "yes", "source:maxspeed": "sign", "surface": "asphalt", "turn:lanes": "through|through;right"}}, {"type": "way", "id": 1293618394, "nodes": [11991762100, 100963138, 11991762101], "tags": {"highway": "primary", "lanes": "3", "maxspeed": "50", "name": "Calle de Arturo Soria", "name:etymology:wikidata": "Q8255504", "oneway": "yes", "source:maxspeed": "sign", "surface": "asphalt"}}, {"type": "way", "id": 1293618395, "nodes": [11991762101, 11808303284, 3613122391, 11991762102], "tags": {"highway": "primary", "lanes": "3", "maxspeed": "50", "name": "Calle de Arturo Soria", "name:etymology:wikidata": "Q8255504", "oneway": "yes", "source:maxspeed": "sign", "surface": "asphalt", "turn:lanes": "through|through|through;right"}}, {"type": "way", "id": 1293618396, "nodes": [100963137, 11991762099, 3613122382, 8555198051, 11991762098], "tags": {"highway": "primary", "lanes": "2", "maxspeed": "50", "name": "Calle de Arturo Soria", "name:etymology:wikidata": "Q8255504", "oneway": "yes", "source:maxspeed": "sign", "surface": "asphalt", "turn:lanes": "through|through"}}, {"type": "way", "id": 1297344492, "nodes": [11704898913, 12020165300, 12020165299, 12020165298, 12020165297, 12020165296, 11704898912], "tags": {"footway": "sidewalk", "highway": "footway"}}, {"type": "way", "id": 1297422308, "nodes": [100955662, 11808303289, 3613122389, 100955663, 3613122385, 3613122381, 100955664], "tags": {"highway": "primary", "lanes": "2", "maxspeed": "50", "name": "Calle de Arturo Soria", "name:etymology:wikidata": "Q8255504", "oneway": "yes", "source:maxspeed": "sign", "surface": "asphalt"}}, {"type": "way", "id": 1298156111, "nodes": [12026440174, 12026440173, 12026440172, 12026440171, 12026440170, 12026440169, 11795268605], "tags": {"footway": "sidewalk", "highway": "footway"}}]}