{"version": 0.6, "generator": "Overpass API 0.7.62.5 1bd436f1", "osm3s": {"timestamp_osm_base": "2025-03-23T11:07:08Z", "copyright": "The data included in this document is from www.openstreetmap.org. The data is made available under ODbL."}, "elements": [{"type": "node", "id": 21776005, "lat": 40.3900062, "lon": -3.7408405, "tags": {"source": "yahoo_maps"}}, {"type": "node", "id": 21776008, "lat": 40.3887083, "lon": -3.7407608, "tags": {"source": "yahoo_maps"}}, {"type": "node", "id": 21776012, "lat": 40.3888285, "lon": -3.7401601}, {"type": "node", "id": 21776019, "lat": 40.3901083, "lon": -3.7400229, "tags": {"source": "yahoo_maps"}}, {"type": "node", "id": 21776837, "lat": 40.3874281, "lon": -3.7401196, "tags": {"source": "yahoo_maps"}}, {"type": "node", "id": 21776838, "lat": 40.3875876, "lon": -3.7401244, "tags": {"source": "yahoo_maps"}}, {"type": "node", "id": 21776839, "lat": 40.3880377, "lon": -3.7401359, "tags": {"source": "yahoo_maps"}}, {"type": "node", "id": 21786307, "lat": 40.391026, "lon": -3.7402047, "tags": {"source": "yahoo_maps"}}, {"type": "node", "id": 21786331, "lat": 40.3915292, "lon": -3.7403321, "tags": {"source": "yahoo_maps"}}, {"type": "node", "id": 21787369, "lat": 40.3906093, "lon": -3.740134, "tags": {"source": "yahoo_maps"}}, {"type": "node", "id": 301884922, "lat": 40.3871871, "lon": -3.7401422}, {"type": "node", "id": 301884963, "lat": 40.389893, "lon": -3.7374916}, {"type": "node", "id": 301884966, "lat": 40.3896426, "lon": -3.7391569}, {"type": "node", "id": 301884970, "lat": 40.3903687, "lon": -3.7379575}, {"type": "node", "id": 301885031, "lat": 40.3904153, "lon": -3.7379468, "tags": {"crossing": "uncontrolled", "crossing:markings": "yes", "highway": "crossing", "source": "PNOA", "source:date": "2020"}}, {"type": "node", "id": 301999743, "lat": 40.3896062, "lon": -3.7394028}, {"type": "node", "id": 301999750, "lat": 40.3901711, "lon": -3.7394705}, {"type": "node", "id": 301999753, "lat": 40.390201, "lon": -3.7392409}, {"type": "node", "id": 301999755, "lat": 40.3901489, "lon": -3.7396416}, {"type": "node", "id": 301999756, "lat": 40.3910906, "lon": -3.7398409}, {"type": "node", "id": 301999758, "lat": 40.3907022, "lon": -3.7393486}, {"type": "node", "id": 302721635, "lat": 40.38771, "lon": -3.7401266}, {"type": "node", "id": 1629096265, "lat": 40.3880881, "lon": -3.7401366, "tags": {"crossing": "uncontrolled", "crossing:markings": "yes", "highway": "crossing"}}, {"type": "node", "id": 1629096321, "lat": 40.3886812, "lon": -3.7401551, "tags": {"crossing": "traffic_signals", "crossing:markings": "dots", "highway": "crossing"}}, {"type": "node", "id": 1629096324, "lat": 40.3887728, "lon": -3.740765, "tags": {"highway": "crossing"}}, {"type": "node", "id": 1629096355, "lat": 40.3888953, "lon": -3.7401697, "tags": {"crossing": "traffic_signals", "crossing:markings": "dots", "highway": "crossing"}}, {"type": "node", "id": 1629096432, "lat": 40.3899618, "lon": -3.7408365, "tags": {"crossing": "uncontrolled", "crossing:markings": "yes", "highway": "crossing"}}, {"type": "node", "id": 1629096437, "lat": 40.3900342, "lon": -3.7400187, "tags": {"highway": "crossing"}}, {"type": "node", "id": 1629096439, "lat": 40.3900932, "lon": -3.7401507, "tags": {"crossing": "uncontrolled", "crossing:markings": "yes", "highway": "crossing"}}, {"type": "node", "id": 1629096442, "lat": 40.390096, "lon": -3.7394615, "tags": {"crossing": "zebra", "highway": "crossing"}}, {"type": "node", "id": 1629096445, "lat": 40.3901199, "lon": -3.7399255, "tags": {"crossing": "uncontrolled", "crossing:markings": "yes", "highway": "crossing"}}, {"type": "node", "id": 1629096453, "lat": 40.3901975, "lon": -3.7400417, "tags": {"crossing": "uncontrolled", "crossing:markings": "yes", "highway": "crossing"}}, {"type": "node", "id": 1629096454, "lat": 40.3902055, "lon": -3.7396537, "tags": {"crossing": "zebra", "highway": "crossing"}}, {"type": "node", "id": 2304484498, "lat": 40.3909721, "lon": -3.7401955, "tags": {"highway": "crossing"}}, {"type": "node", "id": 2304484503, "lat": 40.3910388, "lon": -3.7398299, "tags": {"highway": "crossing"}}, {"type": "node", "id": 2304484506, "lat": 40.3910939, "lon": -3.7402219, "tags": {"highway": "crossing"}}, {"type": "node", "id": 2304484517, "lat": 40.3914824, "lon": -3.7403203, "tags": {"highway": "crossing"}}, {"type": "node", "id": 4959630511, "lat": 40.3902653, "lon": -3.7391699}, {"type": "node", "id": 4959630512, "lat": 40.3902468, "lon": -3.7392967}, {"type": "node", "id": 4959630513, "lat": 40.3902139, "lon": -3.7395738}, {"type": "node", "id": 4959630514, "lat": 40.3901698, "lon": -3.7399364}, {"type": "node", "id": 4959630515, "lat": 40.3902525, "lon": -3.7392517, "tags": {"crossing": "zebra", "highway": "crossing"}}, {"type": "node", "id": 5393405926, "lat": 40.3886025, "lon": -3.7401527}, {"type": "node", "id": 8428480169, "lat": 40.3901183, "lon": -3.7394645, "tags": {"highway": "give_way"}}, {"type": "node", "id": 8875070018, "lat": 40.390053, "lon": -3.7405221}, {"type": "node", "id": 9413414537, "lat": 40.390421, "lon": -3.7379932}, {"type": "node", "id": 9413414538, "lat": 40.3904066, "lon": -3.7380143}, {"type": "node", "id": 9413414539, "lat": 40.3902579, "lon": -3.7391379}, {"type": "node", "id": 9413414540, "lat": 40.3902039, "lon": -3.7399918}, {"type": "node", "id": 9413414541, "lat": 40.3901742, "lon": -3.7399798}, {"type": "node", "id": 9413414542, "lat": 40.3901673, "lon": -3.7399592}, {"type": "way", "id": 7648197, "nodes": [21776005, 1629096432, 1629096324, 21776008], "tags": {"highway": "residential", "lit": "yes", "name": "Calle de las Tintas", "oneway": "yes", "surface": "asphalt"}}, {"type": "way", "id": 27508555, "nodes": [301884963, 301884966, 301999743], "tags": {"highway": "residential", "lit": "yes", "name": "Calle de la Amistad", "oneway": "yes", "sidewalk": "both", "source": "yahoo_maps", "surface": "asphalt"}}, {"type": "way", "id": 27508556, "nodes": [301999753, 4959630515, 301999758], "tags": {"highway": "residential", "lit": "yes", "name": "Calle de Vista Bella", "source": "yahoo_maps", "surface": "asphalt"}}, {"type": "way", "id": 27508557, "nodes": [301999755, 1629096454, 2304484503, 301999756], "tags": {"highway": "residential", "lit": "yes", "name": "Calle del Guacamayo", "oneway": "yes", "source": "yahoo_maps", "surface": "asphalt"}}, {"type": "way", "id": 95340232, "nodes": [301999743, 1629096442, 8428480169, 301999750], "tags": {"highway": "residential", "lit": "yes", "maxspeed": "30", "name": "Calle del C\u00f3ndor", "oneway": "yes", "source": "yahoo_maps", "surface": "asphalt"}}, {"type": "way", "id": 239985756, "nodes": [21776019, 1629096437, 1629096355, 21776012, 1629096321, 5393405926, 1629096265, 21776839, 302721635, 21776838, 21776837, 301884922], "tags": {"highway": "residential", "lit": "yes", "name": "Calle del Pinz\u00f3n", "oneway": "no", "surface": "asphalt"}}, {"type": "way", "id": 506193513, "nodes": [9413414540, 9413414541, 9413414542, 4959630514, 1629096454, 4959630513], "tags": {"crossing": "zebra", "footway": "crossing", "highway": "footway", "lit": "yes", "surface": "paving_stones"}}, {"type": "way", "id": 506193949, "nodes": [4959630513, 4959630512], "tags": {"footway": "sidewalk", "highway": "footway", "lit": "yes", "surface": "paving_stones"}}, {"type": "way", "id": 506193950, "nodes": [4959630512, 4959630515, 4959630511, 9413414539, 9413414538, 9413414537, 301885031], "tags": {"crossing": "zebra", "footway": "crossing", "highway": "footway", "lit": "yes", "surface": "paving_stones"}}, {"type": "way", "id": 958853537, "nodes": [21776019, 1629096445, 301999755, 301999750, 301999753, 301884970], "tags": {"highway": "residential", "lit": "yes", "maxspeed": "50", "name": "Calle del Tuc\u00e1n", "sidewalk": "both", "surface": "asphalt"}}, {"type": "way", "id": 958853538, "nodes": [21786331, 2304484517, 2304484506, 21786307, 2304484498, 21787369, 1629096453, 21776019], "tags": {"highway": "residential", "lit": "yes", "name": "Calle del Pinz\u00f3n", "oneway": "no", "surface": "asphalt"}}, {"type": "way", "id": 959126422, "nodes": [21776019, 1629096439, 8875070018], "tags": {"highway": "residential", "lit": "yes", "maxspeed": "30", "name": "Calle del Tuc\u00e1n", "oneway": "yes", "parking:left:orientation": "diagonal", "parking:right": "street_side", "parking:right:orientation": "parallel", "surface": "asphalt"}}, {"type": "way", "id": 959126423, "nodes": [8875070018, 21776005], "tags": {"highway": "residential", "lit": "yes", "maxspeed": "50", "name": "Calle del Tuc\u00e1n", "oneway": "yes", "parking:left": "no", "parking:left:restriction": "no_stopping", "parking:right": "street_side", "parking:right:orientation": "parallel", "sidewalk:left": "no", "sidewalk:right": "yes", "surface": "asphalt"}}, {"type": "way", "id": 1020623691, "nodes": [1629096453, 9413414540], "tags": {"crossing": "zebra", "footway": "crossing", "highway": "footway", "lit": "yes"}}, {"type": "way", "id": 1020623692, "nodes": [1629096445, 4959630514], "tags": {"crossing": "zebra", "footway": "crossing", "highway": "footway", "lit": "yes"}}]}