{"version": 0.6, "generator": "Overpass API 0.7.62.5 1bd436f1", "osm3s": {"timestamp_osm_base": "2025-03-23T13:44:14Z", "copyright": "The data included in this document is from www.openstreetmap.org. The data is made available under ODbL."}, "elements": [{"type": "node", "id": 25935519, "lat": 40.4306314, "lon": -3.7157961}, {"type": "node", "id": 26025841, "lat": 40.4390662, "lon": -3.7152176}, {"type": "node", "id": 26025842, "lat": 40.4390149, "lon": -3.7141033}, {"type": "node", "id": 26025847, "lat": 40.4378076, "lon": -3.7164675}, {"type": "node", "id": 26025848, "lat": 40.4377547, "lon": -3.7153128}, {"type": "node", "id": 26025849, "lat": 40.4377034, "lon": -3.7141866}, {"type": "node", "id": 26025850, "lat": 40.4376485, "lon": -3.712973}, {"type": "node", "id": 26025851, "lat": 40.4375696, "lon": -3.7112259}, {"type": "node", "id": 26025852, "lat": 40.4375211, "lon": -3.7100371}, {"type": "node", "id": 26025853, "lat": 40.4374404, "lon": -3.7083919}, {"type": "node", "id": 26025855, "lat": 40.4365123, "lon": -3.7154042}, {"type": "node", "id": 26025863, "lat": 40.4354183, "lon": -3.715468}, {"type": "node", "id": 26025872, "lat": 40.4344021, "lon": -3.7155502}, {"type": "node", "id": 26025881, "lat": 40.4330872, "lon": -3.7156202}, {"type": "node", "id": 26025889, "lat": 40.4318876, "lon": -3.7157104}, {"type": "node", "id": 26211532, "lat": 40.4378778, "lon": -3.7178553}, {"type": "node", "id": 26211579, "lat": 40.4389916, "lon": -3.7150502, "tags": {"name": "Cea Berm\u00fadez impares-Gaztambide", "railway": "subway_entrance"}}, {"type": "node", "id": 26212621, "lat": 40.4389573, "lon": -3.7120043}, {"type": "node", "id": 26579109, "lat": 40.4388528, "lon": -3.7181017}, {"type": "node", "id": 433406808, "lat": 40.4389818, "lon": -3.717901}, {"type": "node", "id": 433406813, "lat": 40.4391223, "lon": -3.717415}, {"type": "node", "id": 433406814, "lat": 40.4391584, "lon": -3.7168323}, {"type": "node", "id": 433406816, "lat": 40.4389953, "lon": -3.7132867}, {"type": "node", "id": 1378696873, "lat": 40.4307465, "lon": -3.7157882, "tags": {"crossing": "traffic_signals", "crossing:markings": "dots", "highway": "traffic_signals", "traffic_signals:sound": "yes"}}, {"type": "node", "id": 1500124478, "lat": 40.4390201, "lon": -3.7142371, "tags": {"button_operated": "no", "crossing": "traffic_signals", "crossing:markings": "dots", "highway": "traffic_signals", "tactile_paving": "yes", "traffic_signals:sound": "no", "traffic_signals:vibration": "no"}}, {"type": "node", "id": 1500124500, "lat": 40.4390602, "lon": -3.7150965, "tags": {"button_operated": "no", "crossing": "traffic_signals", "crossing:markings": "dots", "highway": "traffic_signals", "tactile_paving": "yes", "traffic_signals:sound": "yes", "traffic_signals:vibration": "no"}}, {"type": "node", "id": 1500124514, "lat": 40.4390764, "lon": -3.7176561}, {"type": "node", "id": 1500124558, "lat": 40.4391511, "lon": -3.7171243}, {"type": "node", "id": 1669117696, "lat": 40.431968, "lon": -3.7157043, "tags": {"highway": "crossing"}}, {"type": "node", "id": 1669117721, "lat": 40.4331688, "lon": -3.7156126, "tags": {"crossing": "uncontrolled", "crossing:markings": "zebra", "highway": "crossing", "tactile_paving": "yes"}}, {"type": "node", "id": 1669117734, "lat": 40.434332, "lon": -3.7155516, "tags": {"highway": "crossing"}}, {"type": "node", "id": 1669117752, "lat": 40.434483, "lon": -3.7155482, "tags": {"highway": "crossing"}}, {"type": "node", "id": 1669117838, "lat": 40.4354922, "lon": -3.7154627, "tags": {"crossing": "zebra", "highway": "crossing"}}, {"type": "node", "id": 1669118010, "lat": 40.4365906, "lon": -3.7154012, "tags": {"crossing": "zebra", "highway": "crossing"}}, {"type": "node", "id": 1669118019, "lat": 40.4376425, "lon": -3.7128403, "tags": {"highway": "crossing"}}, {"type": "node", "id": 1669118030, "lat": 40.4376532, "lon": -3.7130819, "tags": {"button_operated": "no", "crossing": "traffic_signals", "highway": "crossing", "tactile_paving": "yes", "traffic_signals:sound": "no", "traffic_signals:vibration": "no"}}, {"type": "node", "id": 1669118033, "lat": 40.4376763, "lon": -3.7135886}, {"type": "node", "id": 1669118035, "lat": 40.4376867, "lon": -3.7153218, "tags": {"highway": "crossing"}}, {"type": "node", "id": 1669118037, "lat": 40.4376994, "lon": -3.7140973, "tags": {"highway": "crossing"}}, {"type": "node", "id": 1669118040, "lat": 40.4377083, "lon": -3.7142938, "tags": {"highway": "crossing"}}, {"type": "node", "id": 1669118042, "lat": 40.4377501, "lon": -3.7152136, "tags": {"highway": "crossing"}}, {"type": "node", "id": 1669118045, "lat": 40.437759, "lon": -3.7154111, "tags": {"highway": "crossing"}}, {"type": "node", "id": 1669118067, "lat": 40.437803, "lon": -3.7163774, "tags": {"highway": "crossing"}}, {"type": "node", "id": 1669118071, "lat": 40.4378123, "lon": -3.7165603, "tags": {"highway": "crossing"}}, {"type": "node", "id": 1669118075, "lat": 40.4378359, "lon": -3.7153025, "tags": {"highway": "crossing"}}, {"type": "node", "id": 1669118077, "lat": 40.4378711, "lon": -3.7177233, "tags": {"crossing": "uncontrolled", "crossing:markings": "yes", "highway": "crossing"}}, {"type": "node", "id": 1669118105, "lat": 40.4389507, "lon": -3.7152275, "tags": {"button_operated": "no", "crossing": "traffic_signals", "highway": "crossing", "tactile_paving": "yes", "traffic_signals:sound": "yes", "traffic_signals:vibration": "no"}}, {"type": "node", "id": 2525814071, "lat": 40.4377057, "lon": -3.7142354, "tags": {"highway": "give_way"}}, {"type": "node", "id": 3212178930, "lat": 40.435338, "lon": -3.7154734, "tags": {"crossing": "zebra", "highway": "crossing"}}, {"type": "node", "id": 3257568695, "lat": 40.4307758, "lon": -3.7157862, "tags": {"crossing": "zebra", "highway": "crossing"}}, {"type": "node", "id": 4260523375, "lat": 40.4390091, "lon": -3.7163209}, {"type": "node", "id": 4280384800, "lat": 40.4354401, "lon": -3.7154665, "tags": {"highway": "give_way"}}, {"type": "node", "id": 4485511527, "lat": 40.4374621, "lon": -3.7088411}, {"type": "node", "id": 4490265351, "lat": 40.4378103, "lon": -3.7165224, "tags": {"highway": "give_way"}}, {"type": "node", "id": 4536011533, "lat": 40.4374458, "lon": -3.7085012, "tags": {"highway": "crossing"}}, {"type": "node", "id": 4536011535, "lat": 40.4374432, "lon": -3.7084539, "tags": {"highway": "give_way"}}, {"type": "node", "id": 4536011537, "lat": 40.4378035, "lon": -3.7153062, "tags": {"highway": "give_way"}}, {"type": "node", "id": 4536011538, "lat": 40.4376548, "lon": -3.7131171, "tags": {"highway": "give_way"}}, {"type": "node", "id": 4536011540, "lat": 40.4375656, "lon": -3.711128, "tags": {"crossing": "uncontrolled", "highway": "crossing"}}, {"type": "node", "id": 4536011541, "lat": 40.4375739, "lon": -3.7113359, "tags": {"crossing": "traffic_signals", "highway": "crossing"}}, {"type": "node", "id": 4536011544, "lat": 40.4378152, "lon": -3.7154211}, {"type": "node", "id": 4536011545, "lat": 40.4378224, "lon": -3.7153916}, {"type": "node", "id": 4536011546, "lat": 40.4378387, "lon": -3.7153728}, {"type": "node", "id": 4536011547, "lat": 40.4389441, "lon": -3.7153017}, {"type": "node", "id": 4536011548, "lat": 40.4389748, "lon": -3.7153258}, {"type": "node", "id": 4536011549, "lat": 40.438987, "lon": -3.7153527}, {"type": "node", "id": 4536011550, "lat": 40.4390187, "lon": -3.7163035}, {"type": "node", "id": 4536011551, "lat": 40.4378989, "lon": -3.7164014}, {"type": "node", "id": 4536011552, "lat": 40.4378734, "lon": -3.7163867}, {"type": "node", "id": 4536011553, "lat": 40.437855, "lon": -3.7163558}, {"type": "node", "id": 4536011555, "lat": 40.4378336, "lon": -3.7152461}, {"type": "node", "id": 4536011556, "lat": 40.4378173, "lon": -3.7152333}, {"type": "node", "id": 4536011557, "lat": 40.437806, "lon": -3.7152092}, {"type": "node", "id": 4536011558, "lat": 40.437755, "lon": -3.7142905}, {"type": "node", "id": 4536011559, "lat": 40.4377632, "lon": -3.7142677}, {"type": "node", "id": 4536011560, "lat": 40.4377866, "lon": -3.7142516}, {"type": "node", "id": 4536011561, "lat": 40.4389023, "lon": -3.7141779}, {"type": "node", "id": 4536011562, "lat": 40.4389299, "lon": -3.7141953}, {"type": "node", "id": 4536011563, "lat": 40.4389452, "lon": -3.7142181}, {"type": "node", "id": 4536011564, "lat": 40.4389717, "lon": -3.7151542}, {"type": "node", "id": 4548405646, "lat": 40.4378349, "lon": -3.7152776}, {"type": "node", "id": 4548405647, "lat": 40.4378374, "lon": -3.7153413}, {"type": "node", "id": 4548405648, "lat": 40.4377785, "lon": -3.7152114}, {"type": "node", "id": 4548405651, "lat": 40.4377883, "lon": -3.715409}, {"type": "node", "id": 4548405654, "lat": 40.4378187, "lon": -3.7154068}, {"type": "node", "id": 4548405658, "lat": 40.4378647, "lon": -3.7163721}, {"type": "node", "id": 4548425706, "lat": 40.4390514, "lon": -3.7153785, "tags": {"barrier": "kerb", "kerb": "flush", "tactile_paving": "yes"}}, {"type": "node", "id": 4548425711, "lat": 40.4389881, "lon": -3.7153845}, {"type": "node", "id": 4548425717, "lat": 40.4390133, "lon": -3.7161416}, {"type": "node", "id": 4548425718, "lat": 40.4390372, "lon": -3.7150997, "tags": {"barrier": "kerb", "kerb": "flush", "tactile_paving": "yes"}}, {"type": "node", "id": 4548425719, "lat": 40.4390855, "lon": -3.715093, "tags": {"barrier": "kerb", "kerb": "flush", "tactile_paving": "yes"}}, {"type": "node", "id": 4548425723, "lat": 40.4389706, "lon": -3.7151146}, {"type": "node", "id": 4548425754, "lat": 40.4389459, "lon": -3.7142432}, {"type": "node", "id": 4548425758, "lat": 40.4389432, "lon": -3.7152535, "tags": {"barrier": "kerb", "kerb": "lowered", "tactile_paving": "yes"}}, {"type": "node", "id": 4548425759, "lat": 40.4389568, "lon": -3.7152027, "tags": {"barrier": "kerb", "kerb": "lowered", "tactile_paving": "yes"}}, {"type": "node", "id": 4548425760, "lat": 40.4389291, "lon": -3.7153027}, {"type": "node", "id": 4548451517, "lat": 40.4375277, "lon": -3.7101706, "tags": {"crossing": "uncontrolled", "highway": "crossing"}}, {"type": "node", "id": 11791628782, "lat": 40.4384289, "lon": -3.715238, "tags": {"highway": "street_lamp", "lamp_mount": "straight_mast", "support": "pole"}}, {"type": "node", "id": 11791628785, "lat": 40.4388165, "lon": -3.7152056, "tags": {"highway": "street_lamp", "lamp_mount": "straight_mast", "support": "pole"}}, {"type": "node", "id": 11791628789, "lat": 40.438636, "lon": -3.7152218, "tags": {"highway": "street_lamp", "lamp_mount": "straight_mast", "support": "pole"}}, {"type": "node", "id": 11791628800, "lat": 40.4382835, "lon": -3.715243, "tags": {"highway": "street_lamp", "lamp_mount": "straight_mast", "support": "pole"}}, {"type": "node", "id": 11791628808, "lat": 40.4380364, "lon": -3.7152559, "tags": {"highway": "street_lamp", "lamp_mount": "straight_mast", "support": "pole"}}, {"type": "node", "id": 11791628814, "lat": 40.437862, "lon": -3.7152718, "tags": {"highway": "street_lamp", "lamp_mount": "straight_mast", "support": "pole"}}, {"type": "node", "id": 11821761031, "lat": 40.4389029, "lon": -3.7152615, "tags": {"highway": "street_lamp", "lamp_mount": "straight_mast", "support": "pole"}}, {"type": "node", "id": 11821761035, "lat": 40.4387807, "lon": -3.7152645, "tags": {"highway": "street_lamp", "lamp_mount": "straight_mast", "support": "pole"}}, {"type": "node", "id": 11821761040, "lat": 40.4385346, "lon": -3.7152757, "tags": {"highway": "street_lamp", "lamp_mount": "straight_mast", "support": "pole"}}, {"type": "node", "id": 11821761042, "lat": 40.4383598, "lon": -3.7152869, "tags": {"highway": "street_lamp", "lamp_mount": "straight_mast", "support": "pole"}}, {"type": "node", "id": 11821761047, "lat": 40.4381664, "lon": -3.7153011, "tags": {"highway": "street_lamp", "lamp_mount": "straight_mast", "support": "pole"}}, {"type": "node", "id": 11821761053, "lat": 40.4380758, "lon": -3.7153113, "tags": {"highway": "street_lamp", "lamp_mount": "straight_mast", "support": "pole"}}, {"type": "node", "id": 11821761059, "lat": 40.4379072, "lon": -3.7153286, "tags": {"highway": "street_lamp", "lamp_mount": "straight_mast", "support": "pole"}}, {"type": "node", "id": 11830392487, "lat": 40.4389688, "lon": -3.7150519}, {"type": "node", "id": 11830392488, "lat": 40.4389489, "lon": -3.7143485}, {"type": "node", "id": 11900633348, "lat": 40.4390314, "lon": -3.7153366, "tags": {"highway": "street_lamp", "lamp_mount": "bent_mast", "support": "pole"}}, {"type": "node", "id": 11900633350, "lat": 40.4390334, "lon": -3.7158398, "tags": {"highway": "street_lamp", "lamp_mount": "bent_mast", "support": "pole"}}, {"type": "node", "id": 11900633358, "lat": 40.4390282, "lon": -3.7155976, "tags": {"highway": "street_lamp", "lamp_mount": "bent_mast", "support": "pole"}}, {"type": "node", "id": 11968697502, "lat": 40.439011, "lon": -3.7151915, "tags": {"highway": "street_lamp", "lamp_mount": "bent_mast", "support": "pole"}}, {"type": "node", "id": 11968697503, "lat": 40.4390185, "lon": -3.715013, "tags": {"highway": "street_lamp", "lamp_mount": "bent_mast", "support": "pole"}}, {"type": "node", "id": 11968697509, "lat": 40.438977, "lon": -3.7146739, "tags": {"highway": "street_lamp", "lamp_mount": "bent_mast", "support": "pole"}}, {"type": "node", "id": 12086871408, "lat": 40.4378001, "lon": -3.7158366, "tags": {"highway": "street_lamp", "lamp_mount": "bent_mast", "support": "pole"}}, {"type": "node", "id": 12086871434, "lat": 40.4364326, "lon": -3.7154087, "tags": {"crossing": "uncontrolled", "crossing:island": "no", "crossing:markings": "zebra", "highway": "crossing", "tactile_paving": "yes"}}, {"type": "node", "id": 12354085532, "lat": 40.4375151, "lon": -3.7099148}, {"type": "node", "id": 12400374777, "lat": 40.4353903, "lon": -3.7154699}, {"type": "way", "id": 4314420, "nodes": [26211532, 1669118077, 1669118071, 4490265351, 26025847, 1669118067, 1669118045, 26025848, 1669118042, 1669118040, 2525814071, 26025849, 1669118037, 1669118033, 4536011538, 1669118030, 26025850, 1669118019, 4536011541, 26025851, 4536011540, 4548451517, 26025852, 12354085532, 4485511527, 4536011533, 4536011535, 26025853], "tags": {"bicycle": "yes", "highway": "residential", "lane_markings": "no", "lit": "yes", "maxspeed": "50", "name": "Calle de Joaqu\u00edn Mar\u00eda L\u00f3pez", "oneway": "yes", "postal_code": "28015", "surface": "asphalt"}}, {"type": "way", "id": 7643027, "nodes": [26579109, 433406808, 1500124514, 433406813, 1500124558, 433406814, 433406816, 26212621], "tags": {"hazmat": "no", "highway": "primary", "lanes": "2", "layer": "-1", "lit": "24/7", "maxspeed": "50", "name": "Calle de Cea Berm\u00fadez", "name:etymology:wikidata": "Q963367", "oneway": "yes", "surface": "asphalt", "tunnel": "yes"}}, {"type": "way", "id": 136736902, "nodes": [26025841, 1669118105, 1669118075, 4536011537, 26025848, 1669118035, 1669118010, 26025855, 12086871434, 1669117838, 4280384800, 26025863, 12400374777, 3212178930, 1669117752, 26025872, 1669117734, 1669117721, 26025881, 1669117696, 26025889, 3257568695, 1378696873, 25935519], "tags": {"highway": "residential", "lit": "yes", "name": "Calle de Gaztambide", "name:etymology:wikidata": "Q3177239", "oneway": "yes", "postal_code": "28015", "sidewalk": "both", "sidewalk:both:surface": "paving_stones", "smoothness": "excellent", "surface": "asphalt"}}, {"type": "way", "id": 361926105, "nodes": [26025841, 1500124500, 1500124478, 26025842], "tags": {"highway": "tertiary", "lanes": "2", "lit": "yes", "maxspeed": "50", "name": "Calle de Cea Berm\u00fadez", "name:etymology:wikidata": "Q963367", "oneway": "yes", "postal_code": "28003", "smoothness": "excellent", "surface": "asphalt", "turn:lanes": "left;through|through"}}, {"type": "way", "id": 457458535, "nodes": [4536011553, 4548405658, 4536011552, 4536011551, 4260523375, 4536011550, 4548425717, 4548425711, 4536011549, 4536011548, 4536011547, 4548425760, 4536011546, 4536011545, 4548405654, 4536011544, 4536011553], "tags": {"footway": "sidewalk", "highway": "footway", "lit": "yes", "surface": "paving_stones"}}, {"type": "way", "id": 457458538, "nodes": [4536011564, 4548425723, 11830392487, 11830392488, 4548425754, 4536011563, 4536011562, 4536011561, 4536011560, 4536011559, 4536011558, 4536011557, 4536011556, 4536011555, 4536011564], "tags": {"footway": "sidewalk", "highway": "footway", "lit": "yes", "surface": "paving_stones"}}, {"type": "way", "id": 458912587, "nodes": [4548405646, 4536011555], "tags": {"footway": "sidewalk", "highway": "footway", "lit": "yes", "surface": "paved"}}, {"type": "way", "id": 458912588, "nodes": [4536011546, 4548405647], "tags": {"footway": "sidewalk", "highway": "footway", "lit": "yes", "surface": "paved"}}, {"type": "way", "id": 458912589, "nodes": [4548405647, 1669118075, 4548405646], "tags": {"footway": "crossing", "highway": "footway", "lit": "yes", "surface": "asphalt"}}, {"type": "way", "id": 458912590, "nodes": [4536011557, 4548405648], "tags": {"footway": "sidewalk", "highway": "footway", "lit": "yes", "surface": "paved"}}, {"type": "way", "id": 458912594, "nodes": [4548405654, 4548405651], "tags": {"footway": "sidewalk", "highway": "footway", "lit": "yes", "surface": "paved"}}, {"type": "way", "id": 458914860, "nodes": [4548425711, 4548425706], "tags": {"footway": "sidewalk", "highway": "footway", "lit": "yes", "surface": "asphalt", "tactile_paving": "yes"}}, {"type": "way", "id": 458914870, "nodes": [4548425723, 4548425718], "tags": {"footway": "sidewalk", "highway": "footway", "lit": "yes", "surface": "paving_stones", "tactile_paving": "yes"}}, {"type": "way", "id": 458914871, "nodes": [4548425718, 1500124500, 4548425719], "tags": {"footway": "crossing", "highway": "footway", "lit": "yes", "surface": "asphalt"}}, {"type": "way", "id": 458914891, "nodes": [4548425759, 4536011564], "tags": {"footway": "sidewalk", "highway": "footway", "lit": "yes", "surface": "paving_stones"}}, {"type": "way", "id": 458914892, "nodes": [4548425760, 4548425758], "tags": {"footway": "sidewalk", "highway": "footway", "lit": "yes", "surface": "paving_stones"}}, {"type": "way", "id": 458914893, "nodes": [4548425758, 1669118105, 4548425759], "tags": {"footway": "crossing", "highway": "footway", "lit": "yes", "surface": "asphalt"}}, {"type": "way", "id": 1274073435, "nodes": [26211579, 11830392487], "tags": {"footway": "sidewalk", "highway": "footway", "surface": "paving_stones"}}]}