{"version": 0.6, "generator": "Overpass API 0.7.62.5 1bd436f1", "osm3s": {"timestamp_osm_base": "2025-03-23T11:14:15Z", "copyright": "The data included in this document is from www.openstreetmap.org. The data is made available under ODbL."}, "elements": [{"type": "node", "id": 307532069, "lat": 40.4061188, "lon": -3.6082615}, {"type": "node", "id": 307532150, "lat": 40.4042507, "lon": -3.6080553, "tags": {"crossing": "uncontrolled", "crossing:markings": "yes", "highway": "crossing", "tactile_paving": "yes"}}, {"type": "node", "id": 307532151, "lat": 40.4074242, "lon": -3.6082642}, {"type": "node", "id": 307532697, "lat": 40.4061333, "lon": -3.6074225}, {"type": "node", "id": 307532705, "lat": 40.4041611, "lon": -3.6080477}, {"type": "node", "id": 307533217, "lat": 40.4053877, "lon": -3.6081784}, {"type": "node", "id": 307533366, "lat": 40.406232, "lon": -3.6063658}, {"type": "node", "id": 307533367, "lat": 40.4062626, "lon": -3.6080177}, {"type": "node", "id": 307533419, "lat": 40.406262, "lon": -3.6082391}, {"type": "node", "id": 307533442, "lat": 40.4062506, "lon": -3.6074295}, {"type": "node", "id": 307533456, "lat": 40.4073764, "lon": -3.6078135}, {"type": "node", "id": 307533457, "lat": 40.4072781, "lon": -3.6078563, "tags": {"crossing": "uncontrolled", "crossing:markings": "yes", "highway": "crossing"}}, {"type": "node", "id": 307533458, "lat": 40.4065848, "lon": -3.6078388}, {"type": "node", "id": 307533460, "lat": 40.4065639, "lon": -3.6068101}, {"type": "node", "id": 307533511, "lat": 40.4069903, "lon": -3.6078655}, {"type": "node", "id": 307533524, "lat": 40.4061982, "lon": -3.6091775}, {"type": "node", "id": 307533527, "lat": 40.4060616, "lon": -3.6091681}, {"type": "node", "id": 307533544, "lat": 40.4074363, "lon": -3.6087605}, {"type": "node", "id": 307533545, "lat": 40.407361, "lon": -3.60876, "tags": {"crossing": "uncontrolled", "crossing:island": "no", "highway": "crossing", "kerb": "lowered", "tactile_paving": "yes"}}, {"type": "node", "id": 307533603, "lat": 40.4048071, "lon": -3.6081142}, {"type": "node", "id": 316046889, "lat": 40.4085556, "lon": -3.6074665}, {"type": "node", "id": 351542182, "lat": 40.4072252, "lon": -3.6092906, "tags": {"crossing": "uncontrolled", "crossing:markings": "yes", "highway": "crossing", "tactile_paving": "yes"}}, {"type": "node", "id": 352932710, "lat": 40.4065639, "lon": -3.6092249}, {"type": "node", "id": 1144195135, "lat": 40.4062204, "lon": -3.6057382}, {"type": "node", "id": 1146066905, "lat": 40.4061124, "lon": -3.6083878, "tags": {"crossing": "uncontrolled", "crossing:island": "no", "highway": "crossing"}}, {"type": "node", "id": 1146066943, "lat": 40.4061364, "lon": -3.6091743}, {"type": "node", "id": 1146101253, "lat": 40.406146, "lon": -3.6082358}, {"type": "node", "id": 1147079415, "lat": 40.4073943, "lon": -3.6093177}, {"type": "node", "id": 1439710181, "lat": 40.4057383, "lon": -3.6090842, "tags": {"bench": "yes", "bin": "yes", "bus": "yes", "highway": "bus_stop", "lit": "yes", "name": "Artilleros-Campus Universitario", "operator": "EMT Madrid", "public_transport": "platform", "ref": "1075", "shelter": "yes", "source": "https://navegapormadrid.emtmadrid.es/app/", "tactile_paving": "yes"}}, {"type": "node", "id": 2674830674, "lat": 40.4046248, "lon": -3.6089977}, {"type": "node", "id": 4249155422, "lat": 40.4060674, "lon": -3.6090754}, {"type": "node", "id": 4511186342, "lat": 40.406227, "lon": -3.608662}, {"type": "node", "id": 4511186343, "lat": 40.4062192, "lon": -3.608572}, {"type": "node", "id": 4511186344, "lat": 40.4061981, "lon": -3.6085703}, {"type": "node", "id": 4511186345, "lat": 40.4061782, "lon": -3.6089924}, {"type": "node", "id": 4565825711, "lat": 40.4060541, "lon": -3.6092881}, {"type": "node", "id": 4565825712, "lat": 40.4059054, "lon": -3.6090577, "tags": {"button_operated": "no", "crossing": "traffic_signals", "crossing:markings": "dots", "highway": "traffic_signals", "tactile_paving": "yes", "traffic_signals:sound": "no", "traffic_signals:vibration": "no"}}, {"type": "node", "id": 4565825713, "lat": 40.4060731, "lon": -3.6089838, "tags": {"button_operated": "no", "crossing": "traffic_signals", "crossing:island": "no", "crossing:markings": "dots", "highway": "crossing", "tactile_paving": "yes", "traffic_signals:sound": "no", "traffic_signals:vibration": "no"}}, {"type": "node", "id": 4565825714, "lat": 40.4054636, "lon": -3.6090061, "tags": {"crossing": "uncontrolled", "crossing:markings": "yes", "highway": "crossing", "kerb": "lowered", "source": "PNOA", "source:date": "2014", "tactile_paving": "yes"}}, {"type": "node", "id": 4565825715, "lat": 40.4058932, "lon": -3.6092656, "tags": {"button_operated": "no", "crossing": "traffic_signals", "crossing:markings": "dots", "highway": "traffic_signals", "tactile_paving": "yes", "traffic_signals:sound": "no", "traffic_signals:vibration": "no"}}, {"type": "node", "id": 4565825716, "lat": 40.4058998, "lon": -3.6091524, "tags": {"button_operated": "no", "crossing": "traffic_signals", "crossing:markings": "dots", "highway": "traffic_signals", "tactile_paving": "yes", "traffic_signals:sound": "no", "traffic_signals:vibration": "no"}}, {"type": "node", "id": 7256059685, "lat": 40.406215, "lon": -3.608661}, {"type": "node", "id": 7846646685, "lat": 40.4063988, "lon": -3.6087346}, {"type": "node", "id": 7846646686, "lat": 40.4064143, "lon": -3.6087205}, {"type": "node", "id": 7846646687, "lat": 40.4064178, "lon": -3.6086511}, {"type": "node", "id": 7846646688, "lat": 40.4064039, "lon": -3.6086344}, {"type": "node", "id": 7846646689, "lat": 40.4063671, "lon": -3.6086312}, {"type": "node", "id": 7846646690, "lat": 40.4063516, "lon": -3.6086453}, {"type": "node", "id": 7846646691, "lat": 40.4063423, "lon": -3.6086669}, {"type": "node", "id": 7846646692, "lat": 40.406341, "lon": -3.6086917}, {"type": "node", "id": 7846646693, "lat": 40.4063481, "lon": -3.6087147}, {"type": "node", "id": 7846646694, "lat": 40.406362, "lon": -3.6087314}, {"type": "node", "id": 7846646695, "lat": 40.4063858, "lon": -3.6086272}, {"type": "node", "id": 7846646696, "lat": 40.4063802, "lon": -3.6087386}, {"type": "node", "id": 7966056266, "lat": 40.4062295, "lon": -3.6083046}, {"type": "node", "id": 7966056267, "lat": 40.4063206, "lon": -3.6083038}, {"type": "node", "id": 7966056268, "lat": 40.4062046, "lon": -3.6088183}, {"type": "node", "id": 7966056269, "lat": 40.4061949, "lon": -3.6089689}, {"type": "node", "id": 7966056270, "lat": 40.4061933, "lon": -3.6089938}, {"type": "node", "id": 7966056271, "lat": 40.4062228, "lon": -3.6085069}, {"type": "node", "id": 7966056272, "lat": 40.40623, "lon": -3.6084013}, {"type": "node", "id": 7966056273, "lat": 40.4060041, "lon": -3.6082485, "tags": {"crossing": "uncontrolled", "highway": "crossing"}}, {"type": "node", "id": 7966056274, "lat": 40.4061444, "lon": -3.608135, "tags": {"crossing": "uncontrolled", "highway": "crossing"}}, {"type": "node", "id": 7966056275, "lat": 40.4062623, "lon": -3.6081378, "tags": {"crossing": "uncontrolled", "highway": "crossing"}}, {"type": "node", "id": 7966056276, "lat": 40.4063202, "lon": -3.6082404, "tags": {"crossing": "uncontrolled", "crossing:island": "no", "highway": "crossing"}}, {"type": "node", "id": 7966056277, "lat": 40.4063141, "lon": -3.6087578}, {"type": "node", "id": 7966056278, "lat": 40.4065087, "lon": -3.6087735}, {"type": "node", "id": 7966056279, "lat": 40.4065165, "lon": -3.6086055}, {"type": "node", "id": 7966056280, "lat": 40.406322, "lon": -3.6085899}, {"type": "node", "id": 7966056281, "lat": 40.4062968, "lon": -3.6086705}, {"type": "node", "id": 7966056282, "lat": 40.4065124, "lon": -3.6086932, "tags": {"crossing": "uncontrolled", "highway": "crossing", "tactile_paving": "yes"}}, {"type": "node", "id": 7966056283, "lat": 40.4063181, "lon": -3.6086722}, {"type": "node", "id": 7966110240, "lat": 40.4070275, "lon": -3.6087337, "tags": {"crossing": "uncontrolled", "crossing:island": "no", "highway": "crossing", "kerb": "lowered", "tactile_paving": "yes"}}, {"type": "node", "id": 7966110241, "lat": 40.4060204, "lon": -3.6083761}, {"type": "node", "id": 7966110242, "lat": 40.4072306, "lon": -3.6092224, "tags": {"crossing": "uncontrolled", "crossing:markings": "yes", "highway": "crossing", "tactile_paving": "yes"}}, {"type": "node", "id": 7966110243, "lat": 40.4059082, "lon": -3.609009}, {"type": "node", "id": 7966110244, "lat": 40.405979, "lon": -3.6089762}, {"type": "node", "id": 7966110245, "lat": 40.405997, "lon": -3.6083236}, {"type": "node", "id": 7966110246, "lat": 40.4060056, "lon": -3.6082082}, {"type": "node", "id": 7966110247, "lat": 40.4060603, "lon": -3.6082049}, {"type": "node", "id": 7966110248, "lat": 40.4063197, "lon": -3.6081373}, {"type": "node", "id": 8647736062, "lat": 40.4062307, "lon": -3.606295, "tags": {"crossing": "uncontrolled", "crossing:markings": "zebra", "highway": "crossing", "kerb": "flush", "tactile_paving": "yes"}}, {"type": "node", "id": 8647736072, "lat": 40.4062211, "lon": -3.6056855, "tags": {"crossing": "uncontrolled", "crossing:markings": "zebra", "highway": "crossing", "kerb": "flush", "tactile_paving": "yes"}}, {"type": "node", "id": 8647736074, "lat": 40.406222, "lon": -3.6056086}, {"type": "node", "id": 8777433833, "lat": 40.4048636, "lon": -3.6089436, "tags": {"bus": "yes", "public_transport": "stop_position"}}, {"type": "node", "id": 8779208777, "lat": 40.4057351, "lon": -3.609132, "tags": {"bus": "yes", "public_transport": "stop_position"}}, {"type": "node", "id": 11166604749, "lat": 40.4072985, "lon": -3.6082615, "tags": {"crossing": "uncontrolled", "crossing:island": "no", "crossing:markings": "yes", "highway": "crossing"}}, {"type": "node", "id": 11166604751, "lat": 40.4074981, "lon": -3.6082121, "tags": {"crossing": "uncontrolled", "crossing:island": "no", "crossing:markings": "yes", "highway": "crossing"}}, {"type": "node", "id": 11776504183, "lat": 40.406108, "lon": -3.6075537}, {"type": "node", "id": 11776504184, "lat": 40.4061355, "lon": -3.6075605, "tags": {"highway": "crossing"}}, {"type": "node", "id": 11776504185, "lat": 40.4061774, "lon": -3.607555}, {"type": "node", "id": 11776504186, "lat": 40.4062295, "lon": -3.6075684}, {"type": "node", "id": 11776504187, "lat": 40.4062535, "lon": -3.6075699, "tags": {"highway": "crossing"}}, {"type": "node", "id": 11776504188, "lat": 40.4063071, "lon": -3.6075832}, {"type": "node", "id": 11776504190, "lat": 40.4062478, "lon": -3.6072669, "tags": {"highway": "crossing"}}, {"type": "node", "id": 11776504204, "lat": 40.4062341, "lon": -3.6064868, "tags": {"highway": "crossing"}}, {"type": "node", "id": 11776504212, "lat": 40.4061198, "lon": -3.6081555}, {"type": "node", "id": 11811226122, "lat": 40.4065145, "lon": -3.6086477}, {"type": "node", "id": 11811226123, "lat": 40.4065107, "lon": -3.6087308}, {"type": "way", "id": 28007745, "nodes": [4249155422, 4565825713, 1146066905, 307532069], "tags": {"highway": "residential", "lanes": "2", "lit": "yes", "maxspeed": "30", "name": "Calle de Villacarlos", "postal_code": "28032", "surface": "asphalt"}}, {"type": "way", "id": 28007946, "nodes": [307533460, 307533458, 307533511, 307533457, 307533456], "tags": {"highway": "residential", "lanes": "1", "lit": "yes", "maxspeed": "30", "name": "Calle de Villajimena", "oneway": "yes", "postal_code": "28032"}}, {"type": "way", "id": 28007959, "nodes": [307533544, 307533545, 7966110240, 7966056282], "tags": {"highway": "residential", "lanes": "2", "lit": "yes", "maxspeed": "30", "name": "Calle de Villajimena", "postal_code": "28032", "surface": "asphalt"}}, {"type": "way", "id": 28744359, "nodes": [307532069, 7966056273, 307533217, 307533603, 307532150, 307532705], "tags": {"highway": "residential", "lanes": "1", "lit": "yes", "maxspeed": "30", "name": "Calle de Villardondiego", "oneway": "yes", "postal_code": "28032", "surface": "asphalt"}}, {"type": "way", "id": 99065988, "nodes": [1146101253, 7966056274, 11776504184, 307532697], "tags": {"highway": "residential", "lanes": "1", "lit": "yes", "maxspeed": "30", "name": "Calle de Villacarlos", "oneway": "yes", "postal_code": "28032", "surface": "asphalt"}}, {"type": "way", "id": 99160095, "nodes": [8647736074, 8647736072, 1144195135, 8647736062, 307533366, 11776504204, 11776504190, 307533442, 11776504187, 307533367, 7966056275, 307533419], "tags": {"highway": "residential", "lanes": "1", "lit": "yes", "maxspeed": "30", "name": "Calle de Villacarlos", "oneway": "yes", "postal_code": "28032", "surface": "asphalt"}}, {"type": "way", "id": 261868387, "nodes": [2674830674, 8779208777, 4565825716, 307533527, 1146066943, 307533524, 352932710, 351542182, 1147079415], "tags": {"cycleway:right": "shared_lane", "highway": "tertiary", "lanes": "2", "lit": "yes", "maxspeed": "50", "name": "Paseo de los Artilleros", "oneway": "yes", "postal_code": "28032", "surface": "asphalt"}}, {"type": "way", "id": 454572001, "nodes": [4511186342, 7966056281], "tags": {"highway": "footway", "lit": "yes", "surface": "paving_stones", "tunnel": "building_passage"}}, {"type": "way", "id": 454572003, "nodes": [4511186345, 4511186344, 4511186343, 7256059685, 4511186342], "tags": {"highway": "footway", "lit": "yes", "surface": "paving_stones"}}, {"type": "way", "id": 840931341, "nodes": [4249155422, 307533527, 4565825711], "tags": {"highway": "residential", "lanes": "2", "lit": "yes", "maxspeed": "30", "name": "Calle de Villacarlos", "oneway": "yes", "postal_code": "28032", "sidewalk": "no", "smoothness": "good", "surface": "asphalt"}}, {"type": "way", "id": 840931342, "nodes": [7966056282, 7846646686], "tags": {"highway": "residential", "lanes": "1", "lit": "yes", "maxspeed": "30", "name": "Calle de Villajimena", "oneway": "yes", "postal_code": "28032", "surface": "asphalt"}}, {"type": "way", "id": 840931343, "nodes": [7846646687, 7966056282], "tags": {"highway": "residential", "lanes": "1", "lit": "yes", "maxspeed": "30", "name": "Calle de Villajimena", "oneway": "yes", "postal_code": "28032", "surface": "asphalt"}}, {"type": "way", "id": 840931344, "nodes": [7846646686, 7846646685, 7846646696, 7846646694, 7846646693, 7846646692, 7846646691, 7846646690, 7846646689, 7846646695, 7846646688, 7846646687], "tags": {"highway": "residential", "lanes": "1", "lit": "yes", "maxspeed": "30", "name": "Calle de Villajimena", "oneway": "yes", "postal_code": "28032", "surface": "asphalt"}}, {"type": "way", "id": 840931345, "nodes": [316046889, 11166604751, 307532151, 11166604749, 7966056276, 307533419, 1146101253, 307532069], "tags": {"highway": "residential", "lanes": "2", "lit": "yes", "maxspeed": "30", "name": "Calle de Villardondiego", "postal_code": "28032", "surface": "asphalt"}}, {"type": "way", "id": 854186010, "nodes": [7966110245, 7966056273, 7966110246], "tags": {"footway": "crossing", "highway": "footway", "lit": "yes"}}, {"type": "way", "id": 854186011, "nodes": [7256059685, 7966056268], "tags": {"highway": "footway", "lit": "yes", "surface": "paving_stones"}}, {"type": "way", "id": 854186012, "nodes": [7966056269, 7966056268], "tags": {"handrail": "yes", "highway": "steps", "incline": "down", "lit": "yes", "ramp": "separate", "ramp:wheelchair": "separate", "surface": "paving_stones", "tactile_paving": "no"}}, {"type": "way", "id": 854186013, "nodes": [4511186345, 7966056270, 7966056269], "tags": {"highway": "footway", "lit": "yes", "surface": "paving_stones"}}, {"type": "way", "id": 854186014, "nodes": [7966056271, 4511186343], "tags": {"handrail": "yes", "highway": "steps", "incline": "down", "lit": "yes", "ramp": "separate", "ramp:wheelchair": "separate", "surface": "paving_stones", "tactile_paving": "no"}}, {"type": "way", "id": 854186015, "nodes": [1146066905, 7966056272], "tags": {"footway": "crossing", "highway": "footway", "lit": "yes", "surface": "paving_stones"}}, {"type": "way", "id": 854186016, "nodes": [7966056281, 7966056283, 7966056280, 7966056279, 11811226122], "tags": {"highway": "footway", "lit": "yes", "surface": "paving_stones"}}, {"type": "way", "id": 854191721, "nodes": [4565825715, 4565825716, 4565825712, 7966110243], "tags": {"footway": "crossing", "highway": "footway", "lit": "yes", "surface": "asphalt"}}, {"type": "way", "id": 854191722, "nodes": [7966110248, 7966056276, 7966056267], "tags": {"footway": "crossing", "highway": "footway", "lit": "yes"}}, {"type": "way", "id": 854191723, "nodes": [7966110244, 7966110241], "tags": {"highway": "footway", "lit": "yes", "surface": "paving_stones"}}, {"type": "way", "id": 854191724, "nodes": [4249155422, 7966110242, 1147079415], "tags": {"highway": "service", "lanes": "1", "lit": "yes", "maxspeed": "30", "oneway": "yes", "surface": "asphalt"}}, {"type": "way", "id": 948255781, "nodes": [8777433833, 4565825714, 4565825712, 4249155422], "tags": {"highway": "service", "lanes": "1", "lit": "yes", "maxspeed": "30", "oneway": "yes", "surface": "asphalt"}}, {"type": "way", "id": 1267994678, "nodes": [11776504185, 11776504184, 11776504183], "tags": {"footway": "crossing", "highway": "footway"}}, {"type": "way", "id": 1267994679, "nodes": [11776504188, 11776504187, 11776504186], "tags": {"footway": "crossing", "highway": "footway"}}, {"type": "way", "id": 1267994690, "nodes": [7966056267, 7966056266, 7966056272], "tags": {"highway": "footway", "lit": "yes", "surface": "paving_stones"}}, {"type": "way", "id": 1267994691, "nodes": [7966056275, 7966110248], "tags": {"footway": "crossing", "highway": "footway", "lit": "yes"}}, {"type": "way", "id": 1267994692, "nodes": [11776504212, 7966056274, 7966056275], "tags": {"footway": "crossing", "highway": "footway", "lit": "yes"}}, {"type": "way", "id": 1267994693, "nodes": [7966110246, 7966110247, 11776504212], "tags": {"highway": "footway", "lit": "yes"}}, {"type": "way", "id": 1267994694, "nodes": [7966110241, 7966110245], "tags": {"highway": "footway", "lit": "yes", "surface": "paving_stones"}}, {"type": "way", "id": 1267994695, "nodes": [1146066905, 7966110241], "tags": {"footway": "crossing", "highway": "footway", "lit": "yes"}}, {"type": "way", "id": 1267994696, "nodes": [7966056272, 7966056271], "tags": {"highway": "footway", "lit": "yes", "surface": "paving_stones"}}, {"type": "way", "id": 1267994697, "nodes": [7966110244, 4565825713, 4511186345], "tags": {"footway": "crossing", "highway": "footway", "lit": "yes", "surface": "asphalt"}}, {"type": "way", "id": 1267994698, "nodes": [7966110243, 7966110244], "tags": {"highway": "footway", "lit": "yes", "surface": "paving_stones"}}, {"type": "way", "id": 1271913101, "nodes": [11811226122, 7966056282, 11811226123], "tags": {"highway": "footway", "lit": "yes", "surface": "asphalt"}}, {"type": "way", "id": 1271913102, "nodes": [11811226123, 7966056278, 7966056277, 7966056283], "tags": {"highway": "footway", "lit": "yes", "surface": "paving_stones"}}]}