{"version": 0.6, "generator": "Overpass API 0.7.62.5 1bd436f1", "osm3s": {"timestamp_osm_base": "2025-03-23T15:59:01Z", "copyright": "The data included in this document is from www.openstreetmap.org. The data is made available under ODbL."}, "elements": [{"type": "node", "id": 25552340, "lat": 40.42773, "lon": -3.6687246, "tags": {"highway": "traffic_signals"}}, {"type": "node", "id": 25552342, "lat": 40.4275141, "lon": -3.6686107}, {"type": "node", "id": 25552344, "lat": 40.4273505, "lon": -3.6685995}, {"type": "node", "id": 25552346, "lat": 40.4273478, "lon": -3.6683745}, {"type": "node", "id": 25552348, "lat": 40.4275048, "lon": -3.6683637}, {"type": "node", "id": 25552373, "lat": 40.4270859, "lon": -3.6707343}, {"type": "node", "id": 26783934, "lat": 40.4253548, "lon": -3.6687045}, {"type": "node", "id": 26783983, "lat": 40.4255432, "lon": -3.6684925}, {"type": "node", "id": 26783996, "lat": 40.4272177, "lon": -3.6684468, "tags": {"traffic_calming": "rumble_strip"}}, {"type": "node", "id": 26784026, "lat": 40.4269487, "lon": -3.6683577}, {"type": "node", "id": 26784029, "lat": 40.4272232, "lon": -3.6685339}, {"type": "node", "id": 26784032, "lat": 40.4269729, "lon": -3.6686392}, {"type": "node", "id": 26784095, "lat": 40.425071, "lon": -3.668595}, {"type": "node", "id": 26784098, "lat": 40.4255726, "lon": -3.6687652}, {"type": "node", "id": 26784114, "lat": 40.4255103, "lon": -3.6686869}, {"type": "node", "id": 150541532, "lat": 40.424954, "lon": -3.6616632}, {"type": "node", "id": 150541785, "lat": 40.4267004, "lon": -3.6675463}, {"type": "node", "id": 150541791, "lat": 40.4263038, "lon": -3.6662452}, {"type": "node", "id": 150541812, "lat": 40.4258119, "lon": -3.6645795}, {"type": "node", "id": 150541815, "lat": 40.425395, "lon": -3.6631326}, {"type": "node", "id": 150542101, "lat": 40.4265059, "lon": -3.6668826}, {"type": "node", "id": 150553455, "lat": 40.4267335, "lon": -3.667661}, {"type": "node", "id": 150553585, "lat": 40.4261234, "lon": -3.6655923}, {"type": "node", "id": 150553832, "lat": 40.4252442, "lon": -3.6626332}, {"type": "node", "id": 547052966, "lat": 40.42764, "lon": -3.6685287}, {"type": "node", "id": 547052972, "lat": 40.4273741, "lon": -3.6684874, "tags": {"bus": "yes", "public_transport": "stop_position"}}, {"type": "node", "id": 547052974, "lat": 40.4276739, "lon": -3.6684012}, {"type": "node", "id": 857622546, "lat": 40.4278143, "lon": -3.6683292}, {"type": "node", "id": 996183696, "lat": 40.4262428, "lon": -3.669287, "tags": {"barrier": "bollard"}}, {"type": "node", "id": 996183744, "lat": 40.4264922, "lon": -3.669985}, {"type": "node", "id": 996183976, "lat": 40.4263768, "lon": -3.66938}, {"type": "node", "id": 996184002, "lat": 40.4251299, "lon": -3.6622506}, {"type": "node", "id": 996184012, "lat": 40.427047, "lon": -3.6700576}, {"type": "node", "id": 996184139, "lat": 40.4264065, "lon": -3.6698862}, {"type": "node", "id": 1439709848, "lat": 40.4275844, "lon": -3.6684779, "tags": {"bench": "yes", "bus": "yes", "highway": "bus_stop", "name": "Manuel Becerra", "network": "Empresa Municipal de Transportes de Madrid", "network:short": "EMT Madrid", "network:wikidata": "Q1094755", "operator": "Empresa Municipal de Transportes de Madrid", "operator:short": "EMT Madrid", "operator:wikidata": "Q1094755", "public_transport": "platform", "ref": "3811", "shelter": "yes", "source": "https://navegapormadrid.emtmadrid.es/app/"}}, {"type": "node", "id": 1439709850, "lat": 40.4275388, "lon": -3.668265, "tags": {"bench": "yes", "bin": "no", "bus": "yes", "highway": "bus_stop", "kerb": "raised", "kerb:approach_aid": "yes", "lit": "yes", "name": "Manuel Becerra", "network": "Empresa Municipal de Transportes de Madrid", "network:short": "EMT Madrid", "network:wikidata": "Q1094755", "operator": "Empresa Municipal de Transportes de Madrid", "operator:short": "EMT Madrid", "operator:wikidata": "Q1094755", "passenger_information_display": "yes", "passenger_information_display:speech_output": "yes", "public_transport": "platform", "ref": "1428", "shelter": "yes", "source": "https://navegapormadrid.emtmadrid.es/app/", "tactile_paving": "yes"}}, {"type": "node", "id": 1492770386, "lat": 40.4259271, "lon": -3.6649594}, {"type": "node", "id": 2530094495, "lat": 40.4264369, "lon": -3.6699522}, {"type": "node", "id": 3123582316, "lat": 40.4276017, "lon": -3.6686557, "tags": {"button_operated": "no", "crossing": "traffic_signals", "highway": "crossing", "source": "Bing", "tactile_paving": "no", "traffic_signals:sound": "yes", "traffic_signals:vibration": "no"}}, {"type": "node", "id": 3123582317, "lat": 40.4272855, "lon": -3.6684203, "tags": {"traffic_calming": "rumble_strip"}}, {"type": "node", "id": 3123582320, "lat": 40.427494, "lon": -3.6683956, "tags": {"traffic_calming": "rumble_strip"}}, {"type": "node", "id": 3123582324, "lat": 40.4260024, "lon": -3.6685479}, {"type": "node", "id": 3123582326, "lat": 40.4270226, "lon": -3.6684608, "tags": {"traffic_calming": "rumble_strip"}}, {"type": "node", "id": 3123582327, "lat": 40.4276584, "lon": -3.6683531, "tags": {"button_operated": "yes", "crossing": "traffic_signals", "crossing:island": "no", "crossing:markings": "dots", "highway": "crossing", "source": "Bing", "tactile_paving": "no", "traffic_signals:arrow": "no", "traffic_signals:sound": "yes", "traffic_signals:vibration": "no"}}, {"type": "node", "id": 3123583129, "lat": 40.4271067, "lon": -3.6684543, "tags": {"traffic_calming": "rumble_strip"}}, {"type": "node", "id": 3123583131, "lat": 40.4273829, "lon": -3.6684086, "tags": {"traffic_calming": "rumble_strip"}}, {"type": "node", "id": 3123583134, "lat": 40.4268692, "lon": -3.6684745, "tags": {"traffic_calming": "rumble_strip"}}, {"type": "node", "id": 3274917075, "lat": 40.426697, "lon": -3.6684892, "tags": {"traffic_calming": "rumble_strip"}}, {"type": "node", "id": 3274917076, "lat": 40.426977, "lon": -3.6687177, "tags": {"crossing": "uncontrolled", "highway": "crossing", "tactile_paving": "yes"}}, {"type": "node", "id": 3274917080, "lat": 40.4275347, "lon": -3.6684316}, {"type": "node", "id": 3484776643, "lat": 40.4275236, "lon": -3.6685484, "tags": {"crossing": "uncontrolled", "highway": "crossing"}}, {"type": "node", "id": 4179630901, "lat": 40.4272733, "lon": -3.6683593}, {"type": "node", "id": 4179630902, "lat": 40.4273734, "lon": -3.6685364}, {"type": "node", "id": 4179630903, "lat": 40.4276304, "lon": -3.669142}, {"type": "node", "id": 4487831489, "lat": 40.4266134, "lon": -3.6700012, "tags": {"barrier": "bollard"}}, {"type": "node", "id": 4954628510, "lat": 40.4276518, "lon": -3.6694155}, {"type": "node", "id": 5345441222, "lat": 40.4275347, "lon": -3.6684756, "tags": {"bus": "yes", "public_transport": "stop_position"}}, {"type": "node", "id": 6019899000, "lat": 40.4268273, "lon": -3.6686032}, {"type": "node", "id": 6019899001, "lat": 40.4268215, "lon": -3.6684106}, {"type": "node", "id": 6019919272, "lat": 40.4268208, "lon": -3.6683675, "tags": {"button_operated": "no", "crossing": "traffic_signals", "crossing:markings": "dots", "highway": "traffic_signals", "tactile_paving": "yes", "traffic_signals:sound": "yes"}}, {"type": "node", "id": 6019919273, "lat": 40.4268201, "lon": -3.6683252}, {"type": "node", "id": 6019919278, "lat": 40.4268981, "lon": -3.6681938, "tags": {"crossing": "uncontrolled", "highway": "crossing"}}, {"type": "node", "id": 6019919279, "lat": 40.4268288, "lon": -3.6686495, "tags": {"button_operated": "no", "crossing": "traffic_signals", "crossing:markings": "dots", "highway": "traffic_signals", "tactile_paving": "yes", "traffic_signals:sound": "yes", "traffic_signals:vibration": "no"}}, {"type": "node", "id": 6019919280, "lat": 40.4268311, "lon": -3.6687254}, {"type": "node", "id": 6354382901, "lat": 40.4252342, "lon": -3.6685371}, {"type": "node", "id": 8004948775, "lat": 40.4276512, "lon": -3.6684776}, {"type": "node", "id": 8004955523, "lat": 40.4275797, "lon": -3.668735}, {"type": "node", "id": 8004955524, "lat": 40.4276562, "lon": -3.6682496}, {"type": "node", "id": 8078201583, "lat": 40.4275722, "lon": -3.669263}, {"type": "node", "id": 8078201584, "lat": 40.4275378, "lon": -3.6691763}, {"type": "node", "id": 8078201585, "lat": 40.4275688, "lon": -3.6688189}, {"type": "node", "id": 8480879026, "lat": 40.4275393, "lon": -3.6683614, "tags": {"bus": "yes", "public_transport": "stop_position"}}, {"type": "node", "id": 8480879027, "lat": 40.4275316, "lon": -3.6685129}, {"type": "node", "id": 8480879028, "lat": 40.4275273, "lon": -3.6683993}, {"type": "node", "id": 8522340706, "lat": 40.4257144, "lon": -3.6642475, "tags": {"bus": "yes", "public_transport": "stop_position"}}, {"type": "node", "id": 8522340707, "lat": 40.4266041, "lon": -3.6672208, "tags": {"bus": "yes", "public_transport": "stop_position"}}, {"type": "node", "id": 8787126861, "lat": 40.427432, "lon": -3.6684843, "tags": {"bus": "yes", "highway": "bus_stop", "public_transport": "platform", "shelter": "yes"}}, {"type": "node", "id": 8787126862, "lat": 40.4273665, "lon": -3.6684303}, {"type": "node", "id": 12040042504, "lat": 40.4274518, "lon": -3.6683673, "tags": {"crossing": "traffic_signals", "crossing:markings": "dots", "highway": "crossing"}}, {"type": "node", "id": 12293295633, "lat": 40.4259599, "lon": -3.665065, "tags": {"highway": "crossing"}}, {"type": "node", "id": 12550813920, "lat": 40.4263225, "lon": -3.6693073}, {"type": "node", "id": 12550813921, "lat": 40.4263483, "lon": -3.6693346}, {"type": "node", "id": 12550813922, "lat": 40.4262871, "lon": -3.6692916}, {"type": "node", "id": 12550813923, "lat": 40.4264593, "lon": -3.6699737}, {"type": "node", "id": 12550813924, "lat": 40.4264152, "lon": -3.6699192}, {"type": "way", "id": 4387260, "nodes": [26784029, 26784114, 26783934], "tags": {"cycleway:right": "no", "foot": "no", "highway": "primary", "lanes": "2", "lit": "yes", "maxspeed": "40", "name": "Calle del Doctor Esquerdo", "name:etymology:wikidata": "Q9014392", "oneway": "yes", "postal_code": "28028", "shoulder": "no", "sidewalk": "no", "surface": "asphalt", "wikidata": "Q5741005"}}, {"type": "way", "id": 4526343, "nodes": [25552373, 996184012, 3274917076, 26784032], "tags": {"highway": "residential", "lanes": "1", "lit": "yes", "name": "Calle de Ayala", "name:etymology:wikidata": "Q354137", "oneway": "yes", "postal_code": "28009", "sidewalk": "both", "surface": "asphalt"}}, {"type": "way", "id": 6601819, "nodes": [26784095, 6354382901, 26783983, 6019919272, 26784026], "tags": {"cycleway:right": "shared_lane", "destination": "c. Cartagena;Plaza de Manuel Becerra;M-30", "highway": "primary", "lanes": "2", "lanes:psv": "1", "lit": "yes", "maxspeed": "30", "name": "Calle del Doctor Esquerdo", "name:etymology:wikidata": "Q9014392", "oneway": "yes", "postal_code": "28028", "sidewalk": "right", "surface": "asphalt", "wikidata": "Q5741005"}}, {"type": "way", "id": 6601826, "nodes": [25552340, 3123582316, 25552342], "tags": {"cycleway:right": "shared_lane", "highway": "primary", "lanes": "2", "lit": "yes", "maxspeed": "30", "name": "Calle del Doctor Esquerdo", "name:etymology:wikidata": "Q9014392", "oneway": "yes", "surface": "asphalt", "wikidata": "Q5741005"}}, {"type": "way", "id": 15218931, "nodes": [26783996, 3123582317, 3123583131, 3123582320, 547052974], "tags": {"foot": "no", "highway": "primary", "lanes": "2", "layer": "-1", "lit": "24/7", "maxheight": "4.2", "maxspeed": "40", "maxspeed:advisory": "30", "name": "Calle del Doctor Esquerdo", "name:etymology:wikidata": "Q9014392", "oneway": "yes", "sidewalk": "no", "surface": "asphalt", "tunnel": "yes", "wikidata": "Q5741005"}}, {"type": "way", "id": 43407365, "nodes": [25552348, 8480879028, 3274917080, 5345441222], "tags": {"access": "no", "highway": "service", "oneway": "yes", "psv": "yes", "surface": "asphalt"}}, {"type": "way", "id": 43407366, "nodes": [25552346, 8787126862, 547052972], "tags": {"access": "no", "bus": "yes", "highway": "service", "oneway": "yes", "surface": "asphalt"}}, {"type": "way", "id": 43407367, "nodes": [25552348, 8480879026, 3123582327, 857622546], "tags": {"cycleway:right": "shared_lane", "highway": "primary", "lanes": "2", "lit": "yes", "maxspeed": "30", "name": "Calle del Doctor Esquerdo", "name:etymology:wikidata": "Q9014392", "oneway": "yes", "sidewalk": "right", "surface": "asphalt", "wikidata": "Q5741005"}}, {"type": "way", "id": 43407368, "nodes": [25552342, 25552344], "tags": {"cycleway:right": "shared_lane", "cycleway:right:lane": "pictogram", "highway": "primary", "lanes": "2", "lit": "yes", "maxspeed": "30", "name": "Calle del Doctor Esquerdo", "name:etymology:wikidata": "Q9014392", "oneway": "yes", "surface": "asphalt"}}, {"type": "way", "id": 44335076, "nodes": [26784026, 4179630901, 25552346], "tags": {"cycleway:right": "shared_lane", "highway": "primary", "lanes": "2", "lit": "yes", "maxspeed": "30", "name": "Calle del Doctor Esquerdo", "name:etymology:wikidata": "Q9014392", "oneway": "yes", "sidewalk": "right", "surface": "asphalt", "wikidata": "Q5741005"}}, {"type": "way", "id": 44335077, "nodes": [150541532, 996184002, 150553832, 150541815, 8522340706, 150541812, 1492770386, 12293295633, 150553585, 150541791, 150542101, 8522340707, 150541785, 150553455, 6019919278, 26784026], "tags": {"highway": "residential", "lit": "yes", "name": "Paseo del Marqu\u00e9s de Zafra", "oneway": "yes", "postal_code": "28028", "sidewalk": "both", "surface": "asphalt"}}, {"type": "way", "id": 85817321, "nodes": [996183976, 12550813921, 12550813920, 12550813922, 996183696], "tags": {"highway": "pedestrian", "name": "Calle de Luis Villa", "postal_code": "28009", "sidewalk": "both", "surface": "paving_stones"}}, {"type": "way", "id": 131543168, "nodes": [25552346, 12040042504, 25552348], "tags": {"cycleway:right": "shared_lane", "highway": "primary", "lanes": "2", "lit": "yes", "maxspeed": "50", "name": "Calle del Doctor Esquerdo", "name:etymology:wikidata": "Q9014392", "oneway": "yes", "sidewalk": "right", "surface": "asphalt", "wikidata": "Q5741005"}}, {"type": "way", "id": 131543170, "nodes": [25552344, 26784032, 6019919279, 26784098, 26783934], "tags": {"highway": "primary", "lanes": "2", "lanes:psv": "1", "lit": "yes", "maxspeed": "30", "name": "Calle del Doctor Esquerdo", "name:etymology:wikidata": "Q9014392", "oneway": "yes", "postal_code": "28028", "sidewalk": "right", "surface": "asphalt", "wikidata": "Q5741005"}}, {"type": "way", "id": 131543172, "nodes": [547052972, 4179630902, 25552344], "tags": {"access": "no", "bus": "yes", "highway": "service", "oneway": "yes", "surface": "asphalt"}}, {"type": "way", "id": 307263217, "nodes": [3123582324, 3274917075, 3123583134], "tags": {"cycleway:right": "no", "foot": "no", "highway": "primary", "lanes": "2", "lit": "yes", "maxheight": "4.2", "maxspeed": "40", "name": "Calle del Doctor Esquerdo", "name:etymology:wikidata": "Q9014392", "oneway": "yes", "postal_code": "28028", "shoulder": "no", "sidewalk": "no", "surface": "asphalt", "wikidata": "Q5741005"}}, {"type": "way", "id": 307263220, "nodes": [3123583134, 3123582326, 3123583129, 26783996], "tags": {"cycleway:right": "no", "foot": "no", "highway": "primary", "lanes": "2", "lit": "yes", "maxspeed": "40", "maxspeed:advisory": "30", "name": "Calle del Doctor Esquerdo", "name:etymology:wikidata": "Q9014392", "oneway": "yes", "sidewalk": "no", "surface": "asphalt", "wikidata": "Q5741005"}}, {"type": "way", "id": 320844405, "nodes": [547052966, 26784029], "tags": {"foot": "no", "highway": "primary", "lanes": "2", "layer": "-1", "lit": "24/7", "maxheight": "4.2", "maxspeed": "40", "name": "Calle del Doctor Esquerdo", "name:etymology:wikidata": "Q9014392", "oneway": "yes", "sidewalk": "no", "surface": "asphalt", "tunnel": "yes", "wikidata": "Q5741005"}}, {"type": "way", "id": 451978383, "nodes": [4487831489, 996183744, 12550813923, 2530094495, 12550813924, 996184139, 996183976], "tags": {"highway": "pedestrian", "name": "Calle de Tom\u00e1s L\u00f3pez", "postal_code": "28009", "surface": "paving_stones"}}, {"type": "way", "id": 553816963, "nodes": [5345441222, 8480879027, 3484776643, 25552342], "tags": {"access": "no", "highway": "service", "oneway": "yes", "psv": "yes", "surface": "asphalt"}}, {"type": "way", "id": 638779742, "nodes": [6019899001, 6019899000], "tags": {"bridge": "yes", "highway": "footway", "layer": "1", "lit": "yes", "surface": "paving_stones"}}, {"type": "way", "id": 638779743, "nodes": [6019919278, 6019919273, 6019919272, 6019899001], "tags": {"highway": "footway"}}, {"type": "way", "id": 638782363, "nodes": [3274917076, 6019919280, 6019919279, 6019899000], "tags": {"highway": "footway"}}, {"type": "way", "id": 858741241, "nodes": [8004955523, 3123582316, 8004948775, 3123582327, 8004955524], "tags": {"footway": "crossing", "highway": "footway", "surface": "asphalt"}}, {"type": "way", "id": 866677566, "nodes": [4954628510, 8078201583, 8078201584, 4179630903, 8078201585, 8004955523], "tags": {"foot": "yes", "highway": "footway", "lit": "yes", "surface": "paving_stones"}}]}