{"version": 0.6, "generator": "Overpass API 0.7.62.5 1bd436f1", "osm3s": {"timestamp_osm_base": "2025-03-23T15:46:56Z", "copyright": "The data included in this document is from www.openstreetmap.org. The data is made available under ODbL."}, "elements": [{"type": "node", "id": 308615787, "lat": 40.3813972, "lon": -3.6146996}, {"type": "node", "id": 308615922, "lat": 40.3813388, "lon": -3.6145837}, {"type": "node", "id": 308615924, "lat": 40.3806733, "lon": -3.6138953}, {"type": "node", "id": 308615925, "lat": 40.3798543, "lon": -3.6136384}, {"type": "node", "id": 308618394, "lat": 40.3810934, "lon": -3.6163499}, {"type": "node", "id": 309889776, "lat": 40.3808642, "lon": -3.6175453}, {"type": "node", "id": 309889963, "lat": 40.3807419, "lon": -3.6139642}, {"type": "node", "id": 309889976, "lat": 40.3809612, "lon": -3.6130394}, {"type": "node", "id": 309889990, "lat": 40.3813906, "lon": -3.6131791}, {"type": "node", "id": 309889993, "lat": 40.3811015, "lon": -3.6143597}, {"type": "node", "id": 309890042, "lat": 40.381393, "lon": -3.6133038}, {"type": "node", "id": 309890049, "lat": 40.3798234, "lon": -3.6136287}, {"type": "node", "id": 316758233, "lat": 40.381358, "lon": -3.6149773}, {"type": "node", "id": 316758243, "lat": 40.3812276, "lon": -3.6149474}, {"type": "node", "id": 316758244, "lat": 40.3810972, "lon": -3.6154951}, {"type": "node", "id": 316758283, "lat": 40.3808535, "lon": -3.6140879, "tags": {"traffic_calming": "table"}}, {"type": "node", "id": 316758298, "lat": 40.3807801, "lon": -3.6142514}, {"type": "node", "id": 316758299, "lat": 40.3802309, "lon": -3.6167491}, {"type": "node", "id": 316758300, "lat": 40.3801344, "lon": -3.6172919}, {"type": "node", "id": 316770780, "lat": 40.3803193, "lon": -3.616347}, {"type": "node", "id": 316770792, "lat": 40.3810712, "lon": -3.6164852, "tags": {"crossing": "uncontrolled", "crossing:island": "no", "crossing:markings": "zebra", "highway": "crossing", "tactile_paving": "yes"}}, {"type": "node", "id": 387664855, "lat": 40.3802206, "lon": -3.6168077}, {"type": "node", "id": 817081345, "lat": 40.3813488, "lon": -3.6145571}, {"type": "node", "id": 817081353, "lat": 40.3814728, "lon": -3.6146213}, {"type": "node", "id": 819069896, "lat": 40.3813778, "lon": -3.6146929}, {"type": "node", "id": 819069976, "lat": 40.3814669, "lon": -3.6146481}, {"type": "node", "id": 819070127, "lat": 40.3813648, "lon": -3.6145361}, {"type": "node", "id": 819070165, "lat": 40.3819252, "lon": -3.6147615, "tags": {"bus": "yes", "public_transport": "stop_position"}}, {"type": "node", "id": 1005369960, "lat": 40.3807339, "lon": -3.6184587}, {"type": "node", "id": 1494177524, "lat": 40.3807288, "lon": -3.6182357, "tags": {"crossing": "uncontrolled", "crossing:island": "no", "crossing:markings": "zebra", "highway": "crossing", "tactile_paving": "yes"}}, {"type": "node", "id": 2086213423, "lat": 40.3810268, "lon": -3.6149251}, {"type": "node", "id": 2086213424, "lat": 40.3812134, "lon": -3.6149064}, {"type": "node", "id": 2086213425, "lat": 40.3810442, "lon": -3.614843}, {"type": "node", "id": 2086213426, "lat": 40.3811971, "lon": -3.6149957}, {"type": "node", "id": 2611795940, "lat": 40.3812702, "lon": -3.6139115, "tags": {"crossing": "uncontrolled", "crossing:markings": "zebra", "highway": "crossing", "tactile_paving": "yes"}}, {"type": "node", "id": 2611795947, "lat": 40.3815658, "lon": -3.6140053}, {"type": "node", "id": 2611795948, "lat": 40.3817033, "lon": -3.6132596}, {"type": "node", "id": 2611795949, "lat": 40.3817296, "lon": -3.6138646}, {"type": "node", "id": 2611795950, "lat": 40.3817489, "lon": -3.6137609}, {"type": "node", "id": 2611795951, "lat": 40.3817793, "lon": -3.6135977}, {"type": "node", "id": 2611795952, "lat": 40.3818023, "lon": -3.6134745}, {"type": "node", "id": 3228319018, "lat": 40.381455, "lon": -3.6146712}, {"type": "node", "id": 3228319019, "lat": 40.3814383, "lon": -3.6146885}, {"type": "node", "id": 3228319020, "lat": 40.3814184, "lon": -3.6146982}, {"type": "node", "id": 3228319021, "lat": 40.3813607, "lon": -3.6146792}, {"type": "node", "id": 3228319022, "lat": 40.3813473, "lon": -3.6146596}, {"type": "node", "id": 3228319023, "lat": 40.3813388, "lon": -3.6146358}, {"type": "node", "id": 3228319024, "lat": 40.3813358, "lon": -3.6146098}, {"type": "node", "id": 3228319025, "lat": 40.3813852, "lon": -3.6145232}, {"type": "node", "id": 3228319026, "lat": 40.3814077, "lon": -3.6145196}, {"type": "node", "id": 3228319027, "lat": 40.3814299, "lon": -3.6145258}, {"type": "node", "id": 3228319028, "lat": 40.3814493, "lon": -3.6145411}, {"type": "node", "id": 3228319029, "lat": 40.3814638, "lon": -3.6145639}, {"type": "node", "id": 3228319030, "lat": 40.381472, "lon": -3.6145916}, {"type": "node", "id": 8459194152, "lat": 40.3802235, "lon": -3.6137529, "tags": {"bus": "yes", "public_transport": "stop_position"}}, {"type": "node", "id": 9676710198, "lat": 40.3808885, "lon": -3.6174208, "tags": {"crossing": "uncontrolled", "crossing:island": "no", "crossing:markings": "zebra", "highway": "crossing", "tactile_paving": "yes"}}, {"type": "node", "id": 9748815977, "lat": 40.3813739, "lon": -3.6148644, "tags": {"crossing": "uncontrolled", "crossing:island": "no", "crossing:markings": "zebra", "highway": "crossing", "tactile_paving": "yes"}}, {"type": "node", "id": 9748815978, "lat": 40.3815654, "lon": -3.61465, "tags": {"crossing": "uncontrolled", "crossing:island": "no", "crossing:markings": "zebra", "highway": "crossing", "tactile_paving": "yes"}}, {"type": "node", "id": 9748815979, "lat": 40.3811991, "lon": -3.6144663, "tags": {"crossing": "uncontrolled", "crossing:island": "no", "crossing:markings": "zebra", "highway": "crossing", "tactile_paving": "yes"}}, {"type": "node", "id": 10924675086, "lat": 40.3807924, "lon": -3.613852, "tags": {"crossing": "uncontrolled", "crossing:markings": "yes", "highway": "crossing"}}, {"type": "node", "id": 10924675087, "lat": 40.3806277, "lon": -3.6138809, "tags": {"crossing": "uncontrolled", "crossing:island": "no", "crossing:markings": "yes", "highway": "crossing", "tactile_paving": "yes"}}, {"type": "node", "id": 10924675088, "lat": 40.3811373, "lon": -3.6161223, "tags": {"crossing": "uncontrolled", "crossing:island": "no", "crossing:markings": "yes", "highway": "crossing", "tactile_paving": "yes"}}, {"type": "node", "id": 11314447133, "lat": 40.3813966, "lon": -3.6132327, "tags": {"highway": "give_way"}}, {"type": "node", "id": 11775399191, "lat": 40.3814484, "lon": -3.6148936}, {"type": "node", "id": 11775399192, "lat": 40.3813187, "lon": -3.6148386}, {"type": "node", "id": 11775399205, "lat": 40.3815812, "lon": -3.6145663}, {"type": "node", "id": 11775399206, "lat": 40.3815588, "lon": -3.6147112}, {"type": "node", "id": 11775399207, "lat": 40.3813034, "lon": -3.6148869}, {"type": "node", "id": 11775399208, "lat": 40.3812946, "lon": -3.6149626, "tags": {"crossing": "uncontrolled", "crossing:markings": "yes", "highway": "crossing", "tactile_paving": "yes"}}, {"type": "node", "id": 11775399209, "lat": 40.3812819, "lon": -3.6150156}, {"type": "node", "id": 11775399221, "lat": 40.3806424, "lon": -3.613814}, {"type": "node", "id": 11775399222, "lat": 40.380622, "lon": -3.6139373}, {"type": "node", "id": 11775399223, "lat": 40.380755, "lon": -3.6138259}, {"type": "node", "id": 11775399224, "lat": 40.3808375, "lon": -3.6138833}, {"type": "node", "id": 11775399226, "lat": 40.3813518, "lon": -3.6131665, "tags": {"highway": "crossing"}}, {"type": "node", "id": 11775399228, "lat": 40.381322, "lon": -3.6139279}, {"type": "node", "id": 11775399229, "lat": 40.3812339, "lon": -3.6138971}, {"type": "node", "id": 11775399230, "lat": 40.3811455, "lon": -3.6142177}, {"type": "node", "id": 11775399231, "lat": 40.3811757, "lon": -3.6142706, "tags": {"crossing:markings": "yes", "crossing:signals": "no", "highway": "crossing", "tactile_paving": "yes"}}, {"type": "node", "id": 11775399232, "lat": 40.3812258, "lon": -3.614329}, {"type": "node", "id": 11775399233, "lat": 40.3812333, "lon": -3.614392}, {"type": "node", "id": 11775399234, "lat": 40.3811444, "lon": -3.6145393}, {"type": "node", "id": 12177414644, "lat": 40.3815624, "lon": -3.6146778}, {"type": "node", "id": 12177414645, "lat": 40.3815711, "lon": -3.6146199}, {"type": "node", "id": 12177419923, "lat": 40.3821161, "lon": -3.614815, "tags": {"traffic_calming": "table"}}, {"type": "node", "id": 12198447406, "lat": 40.3806251, "lon": -3.6139063}, {"type": "node", "id": 12198447407, "lat": 40.3806328, "lon": -3.6138575}, {"type": "node", "id": 12198458077, "lat": 40.3812902, "lon": -3.6149812}, {"type": "node", "id": 12198458078, "lat": 40.3812969, "lon": -3.6149427}, {"type": "node", "id": 12198466265, "lat": 40.3812546, "lon": -3.6139053}, {"type": "node", "id": 12198466266, "lat": 40.3812913, "lon": -3.6139182}, {"type": "node", "id": 12198481831, "lat": 40.3811864, "lon": -3.6144876}, {"type": "node", "id": 12198481832, "lat": 40.3812154, "lon": -3.6144289}, {"type": "node", "id": 12198486154, "lat": 40.3813565, "lon": -3.6148563}, {"type": "node", "id": 12198486155, "lat": 40.3813915, "lon": -3.6148713}, {"type": "node", "id": 12198487330, "lat": 40.3812082, "lon": -3.614306}, {"type": "node", "id": 12198487331, "lat": 40.3811645, "lon": -3.6142481}, {"type": "node", "id": 12306221745, "lat": 40.3809862, "lon": -3.6130475, "tags": {"direction": "forward", "highway": "give_way"}}, {"type": "node", "id": 12306221746, "lat": 40.3807694, "lon": -3.6139026, "tags": {"direction": "forward", "highway": "give_way"}}, {"type": "node", "id": 12306221747, "lat": 40.3808097, "lon": -3.6138116}, {"type": "node", "id": 12306221748, "lat": 40.3799656, "lon": -3.6136729, "tags": {"crossing": "uncontrolled", "crossing:markings": "zebra", "highway": "crossing"}}, {"type": "node", "id": 12484706353, "lat": 40.3813761, "lon": -3.6133875}, {"type": "way", "id": 28214058, "nodes": [309889993, 11775399231, 2611795940, 12484706353, 309890042, 11314447133, 309889990, 11775399226, 12306221745, 309889976, 12306221747, 10924675086, 12306221746, 309889963], "tags": {"highway": "residential", "name": "Plaza de Antonio Mar\u00eda Segovia", "oneway": "yes", "postal_code": "28031"}}, {"type": "way", "id": 28811148, "nodes": [316758233, 11775399208, 316758243], "tags": {"highway": "service", "surface": "asphalt"}}, {"type": "way", "id": 28811151, "nodes": [316758283, 316758298, 316770780, 316758299, 387664855, 316758300], "tags": {"highway": "pedestrian", "name": "Calle Monte de Montjuich", "name:etymology:wikidata": "Q1122701", "postal_code": "28031", "surface": "paving_stones"}}, {"type": "way", "id": 67626533, "nodes": [309890049, 308615925, 12306221748, 8459194152, 10924675087, 308615924, 309889963], "tags": {"highway": "residential", "lanes": "2", "name": "Calle de Enrique Garc\u00eda \u00c1lvarez", "oneway": "no", "postal_code": "28031", "surface": "asphalt"}}, {"type": "way", "id": 67626579, "nodes": [817081353, 819069976, 3228319018, 3228319019, 3228319020, 308615787, 819069896, 3228319021, 3228319022, 3228319023, 3228319024, 308615922], "tags": {"highway": "residential", "junction": "roundabout", "noname": "yes", "postal_code": "28031", "surface": "asphalt"}}, {"type": "way", "id": 86498201, "nodes": [1005369960, 1494177524, 309889776, 9676710198, 316770792, 308618394, 10924675088, 316758233, 9748815977, 308615787], "tags": {"highway": "residential", "lanes": "2", "name": "Calle de la Sierra Gorda", "oneway": "no", "postal_code": "28031", "surface": "asphalt"}}, {"type": "way", "id": 146284783, "nodes": [12177419923, 819070165, 9748815978, 817081353], "tags": {"highway": "residential", "lanes": "2", "name": "Calle de Enrique Garc\u00eda \u00c1lvarez", "oneway": "no", "postal_code": "28031", "surface": "asphalt"}}, {"type": "way", "id": 255493333, "nodes": [11775399228, 2611795947, 2611795949, 2611795950, 2611795951, 2611795952, 2611795948, 309889990], "tags": {"highway": "footway", "name": "Plaza Enrique de la Mesa"}}, {"type": "way", "id": 911013767, "nodes": [308615922, 817081345, 819070127, 3228319025, 3228319026, 3228319027, 3228319028, 3228319029, 3228319030, 817081353], "tags": {"highway": "residential", "junction": "roundabout", "noname": "yes", "postal_code": "28031", "surface": "asphalt"}}, {"type": "way", "id": 1025286177, "nodes": [2086213426, 2086213423, 2086213425, 2086213424, 316758243], "tags": {"highway": "service", "oneway": "yes", "service": "parking_aisle", "surface": "asphalt"}}, {"type": "way", "id": 1025286178, "nodes": [316758243, 2086213426, 316758244], "tags": {"highway": "service", "service": "parking_aisle", "surface": "asphalt"}}, {"type": "way", "id": 1175702466, "nodes": [309889993, 9748815979, 308615922], "tags": {"highway": "residential", "lanes": "2", "name": "Calle de Enrique Garc\u00eda \u00c1lvarez", "oneway": "no", "postal_code": "28031", "surface": "asphalt"}}, {"type": "way", "id": 1175702467, "nodes": [309889963, 316758283, 309889993], "tags": {"highway": "residential", "lanes": "2", "maxspeed": "20", "name": "Calle de Enrique Garc\u00eda \u00c1lvarez", "oneway": "no", "postal_code": "28031", "surface": "asphalt"}}, {"type": "way", "id": 1267901034, "nodes": [12198486154, 9748815977, 12198486155], "tags": {"footway": "crossing", "highway": "footway", "surface": "asphalt"}}, {"type": "way", "id": 1267901039, "nodes": [12177414644, 9748815978, 12177414645], "tags": {"footway": "crossing", "highway": "footway", "surface": "asphalt"}}, {"type": "way", "id": 1267901040, "nodes": [12198458077, 11775399208, 12198458078], "tags": {"footway": "crossing", "highway": "footway", "surface": "asphalt"}}, {"type": "way", "id": 1267901044, "nodes": [12198447406, 10924675087, 12198447407], "tags": {"footway": "crossing", "highway": "footway", "surface": "asphalt"}}, {"type": "way", "id": 1267901045, "nodes": [11775399224, 10924675086, 11775399223], "tags": {"crossing": "marked", "crossing:markings": "yes", "footway": "crossing", "highway": "footway"}}, {"type": "way", "id": 1267901047, "nodes": [12198466265, 2611795940, 12198466266], "tags": {"footway": "crossing", "highway": "footway", "name": "Plaza Enrique de la Mesa", "surface": "asphalt"}}, {"type": "way", "id": 1267901048, "nodes": [12198487330, 11775399231, 12198487331], "tags": {"footway": "crossing", "highway": "footway", "surface": "asphalt"}}, {"type": "way", "id": 1267901049, "nodes": [12198481831, 9748815979, 12198481832], "tags": {"footway": "crossing", "highway": "footway", "surface": "asphalt"}}, {"type": "way", "id": 1315595635, "nodes": [11775399206, 12177414644], "tags": {"footway": "crossing", "highway": "footway", "surface": "paving_stones"}}, {"type": "way", "id": 1315595636, "nodes": [12177414645, 11775399205], "tags": {"footway": "crossing", "highway": "footway", "surface": "paving_stones"}}, {"type": "way", "id": 1318043222, "nodes": [11775399222, 12198447406], "tags": {"footway": "crossing", "highway": "footway", "surface": "paving_stones"}}, {"type": "way", "id": 1318043223, "nodes": [12198447407, 11775399221], "tags": {"footway": "crossing", "highway": "footway", "surface": "paving_stones"}}, {"type": "way", "id": 1318043371, "nodes": [11775399234, 12198481831], "tags": {"footway": "crossing", "highway": "footway", "surface": "paving_stones"}}, {"type": "way", "id": 1318043372, "nodes": [12198481832, 11775399233], "tags": {"footway": "crossing", "highway": "footway", "surface": "paving_stones"}}, {"type": "way", "id": 1318043559, "nodes": [11775399229, 12198466265], "tags": {"footway": "crossing", "highway": "footway", "name": "Plaza Enrique de la Mesa", "surface": "paving_stones"}}, {"type": "way", "id": 1318043560, "nodes": [12198466266, 11775399228], "tags": {"footway": "crossing", "highway": "footway", "name": "Plaza Enrique de la Mesa", "surface": "paving_stones"}}, {"type": "way", "id": 1318043811, "nodes": [11775399232, 12198487330], "tags": {"footway": "crossing", "highway": "footway", "surface": "paving_stones"}}, {"type": "way", "id": 1318043812, "nodes": [12198487331, 11775399230], "tags": {"footway": "crossing", "highway": "footway", "surface": "paving_stones"}}, {"type": "way", "id": 1318043968, "nodes": [11775399192, 12198486154], "tags": {"footway": "crossing", "highway": "footway", "surface": "paving_stones"}}, {"type": "way", "id": 1318043969, "nodes": [12198486155, 11775399191], "tags": {"footway": "crossing", "highway": "footway", "surface": "paving_stones"}}, {"type": "way", "id": 1318043974, "nodes": [11775399209, 12198458077], "tags": {"footway": "crossing", "highway": "footway", "surface": "paving_stones"}}, {"type": "way", "id": 1318043975, "nodes": [12198458078, 11775399207], "tags": {"footway": "crossing", "highway": "footway", "surface": "paving_stones"}}]}